{"version": 0.6, "generator": "Overpass API 0.7.57 93a4d346", "osm3s": {"timestamp_osm_base": "2022-03-12T16:09:53Z", "copyright": "The data included in this document is from www.openstreetmap.org. The data is made available under ODbL."}, "elements": [{"type": "node", "id": 33210562, "lat": 52.2080245, "lon": 20.9629482}, {"type": "node", "id": 33210583, "lat": 52.2515735, "lon": 21.0522983, "tags": {"alt_name": "Dworzec Wschodni", "name": "Warszawa Wschodnia", "name:de": "Warschau Ost", "name:en": "Warsaw East", "name:pl": "Warszawa Wschodnia", "name:ru": "\u0412\u0430\u0440\u0448\u0430\u0432\u0430-\u0412\u043e\u0441\u0442\u043e\u0447\u043d\u0430\u044f", "name:uk": "\u0412\u0430\u043f\u0440\u0448\u0430\u0432\u0430-\u0421\u0445\u0456\u0434\u043d\u044f", "old_name": "Dworzec Brzeski;Warszawa Dworzec Terespolski", "public_transport": "station", "railway": "station", "uic_ref": "5100066", "wheelchair": "yes", "wikidata": "Q3270196", "wikipedia": "pl:Warszawa Wschodnia"}}, {"type": "node", "id": 35121250, "lat": 52.2449972, "lon": 21.0011584, "tags": {"name": "Ratusz Arsena\u0142", "name:pl": "Ratusz Arsena\u0142", "name:ru": "\u0420\u0430\u0442\u0443\u0448 \u0410\u0440\u0441\u0435\u043d\u0430\u043b", "name:uk": "\u0420\u0430\u0442\u0443\u0448 \u0410\u0440\u0441\u0435\u043d\u0430\u043b", "network": "Warsaw Metro", "public_transport": "station", "railway": "station", "station": "subway", "subway": "yes", "wheelchair": "yes", "wikidata": "Q638595", "wikipedia": "pl:Ratusz Arsena\u0142"}}, {"type": "node", "id": 248460733, "lat": 52.2293748, "lon": 21.004638}, {"type": "node", "id": 248460734, "lat": 52.2288423, "lon": 21.004931}, {"type": "node", "id": 248988944, "lat": 52.2222343, "lon": 21.1022706, "tags": {"amenity": "bus_station", "bus": "yes", "name": "Goc\u0142aw", "name:ru": "\u0413\u043e\u0446\u043b\u0430\u0432", "name:uk": "\u0413\u043e\u0446\u043b\u0430\u0432", "public_transport": "station"}}, {"type": "node", "id": 248994740, "lat": 52.1679396, "lon": 21.0839317, "tags": {"amenity": "bus_station", "bus": "yes", "name": "Wilan\u00f3w", "name:ru": "\u0412\u0438\u043b\u044f\u043d\u0443\u0432", "name:uk": "\u0412\u0456\u043b\u044f\u043d\u0443\u0432", "public_transport": "station"}}, {"type": "node", "id": 256348461, "lat": 52.2502131, "lon": 21.052678, "tags": {"amenity": "bus_station", "bus": "yes", "name": "PKS Warszawa Wschodnia", "name:ru": "\u0410\u0432\u0442\u043e\u0432\u043e\u043a\u0437\u0430\u043b \u0412\u0430\u0440\u0448\u0430\u0432\u0430 \u0412\u0441\u0445\u043e\u0434\u043d\u044f", "name:uk": "\u0410\u0432\u0442\u043e\u0432\u043e\u043a\u0437\u0430\u043b \u0412\u0430\u0440\u0448\u0430\u0432\u0430 \u0412\u0441\u0445\u043e\u0434\u043d\u044f", "public_transport": "station", "wheelchair": "yes"}}, {"type": "node", "id": 262833583, "lat": 52.2314331, "lon": 21.0212989}, {"type": "node", "id": 267797363, "lat": 52.1802657, "lon": 21.0229675}, {"type": "node", "id": 267797364, "lat": 52.1796674, "lon": 21.0226695}, {"type": "node", "id": 267797365, "lat": 52.1792748, "lon": 21.0245646}, {"type": "node", "id": 267797366, "lat": 52.1797408, "lon": 21.0248108}, {"type": "node", "id": 276303027, "lat": 52.2300877, "lon": 21.0301125}, {"type": "node", "id": 282498946, "lat": 52.2369649, "lon": 21.0411147, "tags": {"amenity": "ferry_terminal", "ata_delete:amenity": "2011-09-01", "ata_delete:operator": "2011-09-01", "ferry": "yes", "name": "Stadion Narodowy", "operator": "Zarz\u0105d Transportu Miejskiego w Warszawie", "public_transport": "station", "wheelchair": "yes"}}, {"type": "node", "id": 286630091, "lat": 52.256406, "lon": 21.0394578}, {"type": "node", "id": 286630092, "lat": 52.2552295, "lon": 21.0367026}, {"type": "node", "id": 286630093, "lat": 52.2550854, "lon": 21.0365601}, {"type": "node", "id": 286630104, "lat": 52.2556574, "lon": 21.0387488}, {"type": "node", "id": 286630105, "lat": 52.2561076, "lon": 21.0397903}, {"type": "node", "id": 291414851, "lat": 52.2716615, "lon": 20.9717196, "tags": {"name": "Marymont", "name:pl": "Marymont", "name:ru": "\u041c\u0430\u0440\u044b\u043c\u043e\u043d\u0442", "name:uk": "\u041c\u0430\u0440\u0438\u043c\u043e\u043d\u0442", "network": "Warsaw Metro", "public_transport": "station", "railway": "station", "station": "subway", "subway": "yes", "wheelchair": "yes", "wikidata": "Q638585", "wikipedia": "pl:Marymont (stacja metra)"}}, {"type": "node", "id": 302913143, "lat": 52.2181249, "lon": 20.9626543, "tags": {"amenity": "bus_station", "bus": "yes", "internet_access": "wlan", "name": "Dworzec Autobusowy Zachodni", "name:be": "\u0412\u0430\u0440\u0448\u0430\u0432\u0430 \u0417\u0430\u0445\u043e\u0434\u043d\u044f\u044f", "name:en": "Zachodni Bus Station", "name:pl": "Dworzec Autobusowy Zachodni", "name:ru": "\u0417\u0430\u043f\u0430\u0434\u043d\u044b\u0439 \u0430\u0432\u0442\u043e\u0432\u043e\u043a\u0437\u0430\u043b \u0412\u0430\u0440\u0448\u0430\u0432\u0430", "name:uk": "\u0417\u0430\u0445\u043e\u0434\u043d\u0456\u0439 \u0410\u0432\u0442\u043e\u0432\u043e\u043a\u0437\u0430\u043b \u0412\u0430\u0440\u0448\u0430\u0432\u0430", "public_transport": "station", "wheelchair": "yes"}}, {"type": "node", "id": 307389114, "lat": 52.2818172, "lon": 20.9493596, "tags": {"name": "Stare Bielany", "name:pl": "Stare Bielany", "name:ru": "\u0421\u0442\u0430\u0440\u0435 \u0411\u0435\u043b\u0430\u043d\u044b", "name:uk": "\u0421\u0442\u0430\u0440\u0435 \u0411\u0454\u043b\u044f\u043d\u0438", "network": "Warsaw Metro", "public_transport": "station", "railway": "station", "station": "subway", "subway": "yes", "wheelchair": "yes", "wikidata": "Q638981", "wikipedia": "pl:Stare Bielany (stacja metra)"}}, {"type": "node", "id": 307389115, "lat": 52.2863179, "lon": 20.9395965, "tags": {"name": "Wawrzyszew", "name:pl": "Wawrzyszew", "name:ru": "\u0412\u0430\u0432\u0436\u0438\u0448\u0435\u0432", "name:uk": "\u0412\u0430\u0432\u0436\u0438\u0448\u0435\u0432", "network": "Warsaw Metro", "public_transport": "station", "railway": "station", "station": "subway", "subway": "yes", "wheelchair": "yes", "wikidata": "Q638591", "wikipedia": "pl:Wawrzyszew (stacja metra)"}}, {"type": "node", "id": 307389116, "lat": 52.2907599, "lon": 20.9298695, "tags": {"name": "M\u0142ociny", "name:pl": "M\u0142ociny", "name:ru": "\u041c\u043b\u043e\u0446\u0438\u043d\u044b", "name:uk": "\u041c\u043b\u043e\u0446\u0456\u043d\u0438", "network": "Warsaw Metro", "public_transport": "station", "railway": "station", "station": "subway", "subway": "yes", "wheelchair": "yes", "wikidata": "Q638928", "wikipedia": "pl:M\u0142ociny (stacja metra)"}}, {"type": "node", "id": 307681172, "lat": 52.2362433, "lon": 21.1131027, "tags": {"addr:street": "\u0141ukowska", "amenity": "bus_station", "bus": "yes", "name": "Witolin petla autobusowa", "name:ru": "\u0412\u0438\u0442\u043e\u043b\u0438\u043d \u0430\u0432\u0442\u043e\u0431\u0443\u0441\u043d\u0430\u044f \u043f\u0435\u0442\u043b\u044f", "name:uk": "\u0412\u0438\u0442\u043e\u043b\u0438\u043d \u0430\u0432\u0442\u043e\u0431\u0443\u0441\u043d\u0430 \u043f\u0435\u0442\u043b\u044f", "operator": "ZTM Warszawa", "public_transport": "station"}}, {"type": "node", "id": 322653549, "lat": 52.1815585, "lon": 21.0688861, "tags": {"amenity": "bus_station", "bus": "yes", "name": "Sadyba", "name:ru": "\u0421\u0430\u0434\u0438\u0431\u0430", "name:uk": "\u0421\u0430\u0434\u0438\u0431\u0430", "public_transport": "station", "wikidata": "Q106806501"}}, {"type": "node", "id": 338486376, "lat": 52.2292323, "lon": 21.0022891}, {"type": "node", "id": 637004421, "lat": 52.206229, "lon": 20.9150217, "tags": {"name": "Warszawa W\u0142ochy", "operator": "PKP PLK", "platforms": "2", "public_transport": "station", "railway": "halt", "source": "Za\u0142\u0105cznik 2.6 https://www.plk-sa.pl/dla-klientow-i-kontrahentow/warunki-udostepniania-infrastruktury-i-regulaminy/regulamin-sieci/regulamin-sieci-20202021/", "wheelchair": "yes", "wikidata": "Q4399801", "wikipedia": "pl:Warszawa W\u0142ochy (przystanek kolejowy)"}}, {"type": "node", "id": 942626590, "lat": 52.2724724, "lon": 20.9249526, "tags": {"amenity": "bus_station", "bus": "yes", "name": "P\u0119tla Chomicz\u00f3wka", "name:ru": "\u041f\u0435\u0442\u043b\u044f \u0425\u043e\u043c\u0438\u0447\u0443\u0432\u043a\u0430", "name:uk": "\u041f\u0435\u0442\u043b\u044f \u0425\u043e\u043c\u0456\u0447\u0443\u0432\u043a\u0430", "operator": "ZTM", "public_transport": "station", "wheelchair": "limited"}}, {"type": "node", "id": 1285567449, "lat": 52.2356458, "lon": 21.0382896, "tags": {"amenity": "ferry_terminal", "ferry": "yes", "name": "Most Poniatowskiego", "name:pl": "Most Poniatowskiego", "operator": "Zarz\u0105d Transportu Miejskiego w Warszawie", "public_transport": "station", "wheelchair": "yes"}}, {"type": "node", "id": 1341665896, "lat": 52.207748, "lon": 20.9642076}, {"type": "node", "id": 1341665897, "lat": 52.2080009, "lon": 20.9644241}, {"type": "node", "id": 1341665899, "lat": 52.2083715, "lon": 20.9632409}, {"type": "node", "id": 1341665904, "lat": 52.20831, "lon": 20.9631955}, {"type": "node", "id": 1341665910, "lat": 52.2083508, "lon": 20.9634493}, {"type": "node", "id": 1341665915, "lat": 52.2076209, "lon": 20.9636649}, {"type": "node", "id": 1347242554, "lat": 52.3334432, "lon": 20.941893}, {"type": "node", "id": 1347242565, "lat": 52.3344944, "lon": 20.9420126}, {"type": "node", "id": 1347242592, "lat": 52.3351873, "lon": 20.9422245}, {"type": "node", "id": 1347242596, "lat": 52.3336833, "lon": 20.9419124}, {"type": "node", "id": 1347242631, "lat": 52.3350157, "lon": 20.942236}, {"type": "node", "id": 1347242639, "lat": 52.3347179, "lon": 20.9420849}, {"type": "node", "id": 1347242643, "lat": 52.3351796, "lon": 20.9423803}, {"type": "node", "id": 1347242645, "lat": 52.3351258, "lon": 20.9422549}, {"type": "node", "id": 1347242672, "lat": 52.3336072, "lon": 20.9421375}, {"type": "node", "id": 1347242689, "lat": 52.3349513, "lon": 20.9423535}, {"type": "node", "id": 1395906796, "lat": 52.255919, "lon": 21.0383172, "tags": {"barrier": "lift_gate"}}, {"type": "node", "id": 1454216303, "lat": 52.2549435, "lon": 21.0370817}, {"type": "node", "id": 1454216328, "lat": 52.2551489, "lon": 21.0366229, "tags": {"entrance": "main"}}, {"type": "node", "id": 1454216331, "lat": 52.2553903, "lon": 21.0370792, "tags": {"entrance": "yes"}}, {"type": "node", "id": 1480552448, "lat": 52.2284012, "lon": 21.003832}, {"type": "node", "id": 1502756219, "lat": 52.1700926, "lon": 20.9954797, "tags": {"amenity": "bus_station", "bus": "yes", "name": "P\u0119tla Bokserska", "name:ru": "\u041f\u0435\u0442\u043b\u044f \u0411\u043e\u043a\u0441\u0435\u0440\u0441\u043a\u0430", "name:uk": "\u041f\u0435\u0442\u043b\u044f \u0411\u043e\u043a\u0441\u0435\u0440\u0441\u044c\u043a\u0430", "public_transport": "station"}}, {"type": "node", "id": 1503106116, "lat": 52.2430182, "lon": 21.0128894, "tags": {"amenity": "bus_station", "bus": "yes", "name": "Pl. Pi\u0142sudskiego", "name:ru": "\u041f\u043b\u043e\u0449\u0430\u0434\u044c \u041f\u0438\u043b\u0441\u0443\u0434\u0446\u043a\u043e\u0433\u043e", "name:uk": "\u041f\u043b\u043e\u0449\u0430 \u041f\u0438\u043b\u0441\u0443\u0434\u0446\u044c\u043a\u0435\u0433\u043e", "public_transport": "station", "wheelchair": "yes"}}, {"type": "node", "id": 1628755572, "lat": 52.2371411, "lon": 21.1354095, "tags": {"name": "Warszawa Goc\u0142awek", "public_transport": "station", "railway": "halt", "train": "yes", "wikidata": "Q2135048", "wikipedia": "pl:Warszawa Goc\u0142awek"}}, {"type": "node", "id": 1700789144, "lat": 52.2910984, "lon": 20.927888, "tags": {"amenity": "bus_station", "bus": "yes", "name": "Metro M\u0142ociny", "name:ru": "\u0421\u0442\u0430\u043d\u0446\u0438\u044f \u041c\u043b\u043e\u0447\u0438\u043d\u044b", "name:uk": "\u0421\u0442\u0430\u043d\u0446\u0456\u044f \u041c\u043b\u043e\u0447\u0438\u043d\u0438", "public_transport": "station", "wheelchair": "yes"}}, {"type": "node", "id": 1718180086, "lat": 52.2274779, "lon": 20.9993834, "tags": {"name": "Warszawa \u015ar\u00f3dmie\u015bcie WKD", "name:ru": "\u0412\u0430\u0440\u0448\u0430\u0432\u0430 \u0421\u0440\u0435\u0434\u043c\u0435\u0441\u0442\u044c\u0435 (\u0412\u0430\u0440\u0448\u0430\u0432\u0441\u043a\u0430\u044f \u043f\u0440\u0438\u0433\u043e\u0440\u043e\u0434\u043d\u0430\u044f \u0436\u0435\u043b\u0435\u0437\u043d\u0430\u044f \u0434\u043e\u0440\u043e\u0433\u0430)", "name:uk": "\u0412\u0430\u0440\u0448\u0430\u0432\u0430 \u0421\u0435\u0440\u0435\u0434\u043c\u0456\u0441\u0442\u044f (\u0412\u0430\u0440\u0448\u0430\u0432\u0441\u044c\u043a\u0430 \u043f\u0440\u0438\u043c\u0456\u0441\u044c\u043a\u0430 \u0437\u0430\u043b\u0456\u0437\u043d\u0438\u0446\u044f)", "operator": "WKD", "public_transport": "station", "railway": "station", "wheelchair": "limited", "wikidata": "Q2755236", "wikipedia": "pl:Warszawa \u015ar\u00f3dmie\u015bcie WKD"}}, {"type": "node", "id": 1734997736, "lat": 52.2582253, "lon": 20.8984832, "tags": {"amenity": "bicycle_rental", "capacity": "21", "name": "P\u0119tla Stare Bemowo", "network": "Veturilo", "operator": "Nextbike Polska", "ref": "9423"}}, {"type": "node", "id": 1735000340, "lat": 52.2526197, "lon": 20.9135393, "tags": {"amenity": "bicycle_rental", "capacity": "30", "name": "Powsta\u0144c\u00f3w \u015al\u0105skich - Radiowa", "network": "Veturilo", "operator": "Nextbike Polska", "ref": "9431"}}, {"type": "node", "id": 1769856476, "lat": 52.2713775, "lon": 20.9678018}, {"type": "node", "id": 1769856497, "lat": 52.2718017, "lon": 20.9690915}, {"type": "node", "id": 1769856500, "lat": 52.2719816, "lon": 20.9690642}, {"type": "node", "id": 1769856502, "lat": 52.2720604, "lon": 20.9690366}, {"type": "node", "id": 1769856505, "lat": 52.2721403, "lon": 20.9689542}, {"type": "node", "id": 1769856507, "lat": 52.2722055, "lon": 20.9688402}, {"type": "node", "id": 1769856508, "lat": 52.2722281, "lon": 20.9686641}, {"type": "node", "id": 1775517767, "lat": 52.2281941, "lon": 21.0025217, "tags": {"historic": "memorial", "inscription": "Pami\u0119ci Kolejarzy Warszawskiego W\u0119z\u0142a poleg\u0142ych i pomordowanych 1939-1945", "memorial": "plaque", "name": "Kolejarzy Warszawskiego W\u0119z\u0142a"}}, {"type": "node", "id": 1779313804, "lat": 52.2284837, "lon": 20.9149684, "tags": {"amenity": "bicycle_rental", "capacity": "16", "name": "Powsta\u0144c\u00f3w \u015al\u0105skich - Cz\u0142uchowska", "network": "Veturilo", "operator": "Nextbike Polska", "ref": "9458"}}, {"type": "node", "id": 1779313805, "lat": 52.2332172, "lon": 20.9057421, "tags": {"amenity": "bicycle_rental", "capacity": "22", "name": "Park G\u00f3rczewska", "network": "Veturilo", "operator": "Nextbike Polska", "ref": "9720"}}, {"type": "node", "id": 1779313806, "lat": 52.2388249, "lon": 20.9139604, "tags": {"amenity": "bicycle_rental", "brand": "Ko\u0142obrzeski Rower Miejski", "brand:wikidata": "Q97373105", "brand:wikipedia": "pl:Ko\u0142obrzeski Rower Miejski", "capacity": "20", "name": "Bemowo - Ratusz", "network": "Ko\u0142obrzeski Rower Miejski", "network:wikidata": "Q97373105", "network:wikipedia": "pl:Ko\u0142obrzeski Rower Miejski", "operator": "Nextbike Polska", "ref": "9450", "source": "http://www.veturilo.waw.pl/lokalizacje/"}}, {"type": "node", "id": 1779313807, "lat": 52.2520637, "lon": 20.9237004, "tags": {"amenity": "bicycle_rental", "capacity": "27", "name": "Wroc\u0142awska \u2013 Bailly", "network": "Veturilo", "operator": "Nextbike Polska", "ref": "9439"}}, {"type": "node", "id": 1779313808, "lat": 52.2575672, "lon": 20.9323304, "tags": {"amenity": "bicycle_rental", "capacity": "22", "name": "Obro\u0144c\u00f3w Tobruku - Pieni\u0105\u017cka", "network": "Veturilo", "operator": "veturilo", "ref": "9425", "website": "https://www.veturilo.waw.pl"}}, {"type": "node", "id": 1779313809, "lat": 52.2605317, "lon": 20.9243303, "tags": {"amenity": "bicycle_rental", "capacity": "25", "name": "P\u0119tla Nowe Bemowo", "network": "Veturilo", "operator": "Nextbike Polska", "ref": "9424"}}, {"type": "node", "id": 1835260515, "lat": 52.1801615, "lon": 21.0229249}, {"type": "node", "id": 1836332040, "lat": 52.2384534, "lon": 21.0067534, "tags": {"amenity": "bicycle_rental", "capacity": "19", "name": "Marsza\u0142kowska - Kr\u00f3lewska", "network": "Veturilo", "operator": "Nextbike Polska", "ref": "9488", "source": "http://www.veturilo.waw.pl/lokalizacje/"}}, {"type": "node", "id": 1836353689, "lat": 52.2412866, "lon": 21.0281181, "tags": {"amenity": "bicycle_rental", "capacity": "30", "name": "Centrum Nauki Kopernik", "network": "Veturilo", "operator": "Nextbike Polska", "ref": "9497", "source": "http://www.veturilo.waw.pl/lokalizacje/"}}, {"type": "node", "id": 1836353694, "lat": 52.2375127, "lon": 21.025698}, {"type": "node", "id": 1836358792, "lat": 52.2345758, "lon": 21.0342986, "tags": {"amenity": "bicycle_rental", "capacity": "24", "name": "Solec - al. 3 Maja", "network": "Veturilo", "operator": "Nextbike Polska", "ref": "9528", "source": "http://www.veturilo.waw.pl/lokalizacje/"}}, {"type": "node", "id": 1836370615, "lat": 52.2339551, "lon": 21.0299624, "tags": {"amenity": "bicycle_rental", "capacity": "26", "name": "Herberta - PKP Powi\u015ble", "network": "Veturilo", "operator": "Nextbike Polska", "ref": "9527", "source": "http://www.veturilo.waw.pl/lokalizacje/"}}, {"type": "node", "id": 1836376619, "lat": 52.2281917, "lon": 21.0179229, "tags": {"amenity": "bicycle_rental", "capacity": "28", "name": "Krucza - Wsp\u00f3lna", "network": "Veturilo", "operator": "Nextbike Polska", "ref": "9523", "source": "http://www.veturilo.waw.pl/lokalizacje/"}}, {"type": "node", "id": 1836378563, "lat": 52.2299714, "lon": 21.010779, "tags": {"amenity": "bicycle_rental", "capacity": "30", "name": "Metro Centrum", "network": "Veturilo", "operator": "Nextbike Polska", "ref": "9519", "source": "http://www.veturilo.waw.pl/lokalizacje/"}}, {"type": "node", "id": 1836380633, "lat": 52.2310386, "lon": 21.0167656, "tags": {"amenity": "bicycle_rental", "capacity": "20", "name": "Bracka - Krucza", "network": "Veturilo", "operator": "Nextbike Polska", "ref": "9504", "source": "http://www.veturilo.waw.pl/lokalizacje/"}}, {"type": "node", "id": 1836514043, "lat": 52.2329272, "lon": 21.0101665, "tags": {"amenity": "bicycle_rental", "capacity": "22", "name": "Marsza\u0142kowska - Z\u0142ota", "network": "Veturilo", "operator": "Nextbike Polska", "ref": "9503", "source": "http://www.veturilo.waw.pl/lokalizacje/"}}, {"type": "node", "id": 1836519871, "lat": 52.2430009, "lon": 21.0018166, "tags": {"amenity": "bicycle_rental", "capacity": "30", "name": "Plac Bankowy - Ratusz", "network": "Veturilo", "operator": "Nextbike Polska", "ref": "9465", "source": "http://www.veturilo.waw.pl/lokalizacje/"}}, {"type": "node", "id": 1836525834, "lat": 52.2442572, "lon": 21.0015592, "tags": {"amenity": "bicycle_rental", "capacity": "30", "name": "Marsza\u0142kowska - al. Solidarno\u015bci", "network": "Veturilo", "operator": "Nextbike Polska", "ref": "9464", "source": "http://www.veturilo.waw.pl/lokalizacje/"}}, {"type": "node", "id": 1836527573, "lat": 52.2449444, "lon": 21.0012669, "tags": {"amenity": "bicycle_rental", "capacity": "30", "name": "Andersa - D\u0142uga", "network": "Veturilo", "operator": "Nextbike Polska", "ref": "9463", "source": "http://www.veturilo.waw.pl/lokalizacje/"}}, {"type": "node", "id": 1836529171, "lat": 52.2445557, "lon": 20.9999839, "tags": {"amenity": "bicycle_rental", "capacity": "17", "name": "Plac Bankowy - Kino Muran\u00f3w", "network": "Veturilo", "operator": "Nextbike Polska", "ref": "9462", "source": "http://www.veturilo.waw.pl/lokalizacje/"}}, {"type": "node", "id": 1836531487, "lat": 52.246318, "lon": 21.0113163, "tags": {"amenity": "bicycle_rental", "capacity": "24", "name": "Miodowa", "network": "Veturilo", "operator": "Nextbike Polska", "ref": "9467", "source": "http://www.veturilo.waw.pl/lokalizacje/"}}, {"type": "node", "id": 1836535425, "lat": 52.2541244, "lon": 21.0093662, "tags": {"amenity": "bicycle_rental", "capacity": "26", "name": "Ko\u015bcielna - Piesza", "network": "Veturilo", "operator": "Nextbike Polska", "ref": "9448", "source": "http://www.veturilo.waw.pl/lokalizacje/"}}, {"type": "node", "id": 1836539038, "lat": 52.249247, "lon": 20.997206, "tags": {"amenity": "bicycle_rental", "capacity": "20", "name": "Anielewicza - Andersa", "network": "Veturilo", "operator": "Nextbike Polska", "ref": "9445", "source": "http://www.veturilo.waw.pl/lokalizacje/"}}, {"type": "node", "id": 1836544908, "lat": 52.2540948, "lon": 20.9980983, "tags": {"amenity": "bicycle_rental", "capacity": "30", "name": "Andersa - Muranowska", "network": "Veturilo", "operator": "Nextbike Polska", "ref": "9437", "source": "www.veturilo.waw.pl/lokalizacje/"}}, {"type": "node", "id": 1836545868, "lat": 52.2514348, "lon": 20.9857586, "tags": {"amenity": "bicycle_rental", "capacity": "23", "name": "al. Jana Paw\u0142a II - Stawki", "network": "Veturilo", "operator": "Nextbike Polska", "ref": "9435", "source": "www.veturilo.waw.pl/lokalizacje/"}}, {"type": "node", "id": 1836562367, "lat": 52.3339579, "lon": 20.9422288}, {"type": "node", "id": 1836563076, "lat": 52.2471139, "lon": 20.9894344, "tags": {"amenity": "bicycle_rental", "capacity": "22", "name": "al. Jana Paw\u0142a II - Anielewicza", "network": "Veturilo", "operator": "Nextbike Polska", "ref": "9443", "source": "www.veturilo.waw.pl/lokalizacje/"}}, {"type": "node", "id": 1836565021, "lat": 52.2422072, "lon": 20.9929109, "tags": {"amenity": "bicycle_rental", "capacity": "24", "name": "al. Jana Paw\u0142a II - al. Solidarno\u015bci", "network": "Veturilo", "operator": "Nextbike Polska", "ref": "9461", "source": "www.veturilo.waw.pl/lokalizacje/"}}, {"type": "node", "id": 1836570532, "lat": 52.2385596, "lon": 20.9956948, "tags": {"amenity": "bicycle_rental", "capacity": "21", "name": "al. Jana Paw\u0142a II - Plac Mirowski", "network": "Veturilo", "operator": "Nextbike Polska", "ref": "9482", "source": "http://www.veturilo.waw.pl/lokalizacje/"}}, {"type": "node", "id": 1836607630, "lat": 52.2357081, "lon": 20.9966847}, {"type": "node", "id": 1838012960, "lat": 52.1605874, "lon": 21.0723391, "tags": {"amenity": "bicycle_rental", "capacity": "16", "name": "al. Rzeczypospolitej - Klimczaka", "network": "Veturilo", "operator": "Nextbike Polska", "ref": "9600", "source": "http://www.veturilo.waw.pl/lokalizacje/"}}, {"type": "node", "id": 1838847553, "lat": 52.2858639, "lon": 20.9406427, "tags": {"amenity": "bicycle_rental", "capacity": "20", "name": "Metro Wawrzyszew", "network": "Veturilo", "operator": "Nextbike Polska", "ref": "9405", "source": "http://www.veturilo.waw.pl/lokalizacje/"}}, {"type": "node", "id": 1838850772, "lat": 52.2761345, "lon": 20.9615793, "tags": {"amenity": "bicycle_rental", "capacity": "30", "name": "Metro S\u0142odowiec", "network": "Veturilo", "operator": "Nextbike Polska", "ref": "9410", "source": "http://www.veturilo.waw.pl/lokalizacje/"}}, {"type": "node", "id": 1838851344, "lat": 52.276808, "lon": 20.948042, "tags": {"amenity": "bicycle_rental", "capacity": "28", "name": "Bielany-Ratusz", "network": "Veturilo", "operator": "Nextbike Polska", "ref": "9409", "source": "http://www.veturilo.waw.pl/lokalizacje/"}}, {"type": "node", "id": 1838851915, "lat": 52.2706266, "lon": 20.9504638, "tags": {"amenity": "bicycle_rental", "capacity": "16", "name": "Broniewskiego - Perzy\u0144skiego", "network": "Veturilo", "operator": "Nextbike Polska", "ref": "9414", "source": "http://www.veturilo.waw.pl/lokalizacje/"}}, {"type": "node", "id": 1853975662, "lat": 52.1520933, "lon": 21.0181634, "tags": {"amenity": "bicycle_rental", "capacity": "22", "name": "Pu\u0142awska - Pileckiego", "network": "Veturilo", "operator": "Nextbike Polska", "ref": "9609", "source": "http://www.veturilo.waw.pl/lokalizacje/"}}, {"type": "node", "id": 1853978654, "lat": 52.1617599, "lon": 21.0276875, "tags": {"amenity": "bicycle_rental", "capacity": "30", "fixme": "Stacja zosta\u0142a st\u0105d zabrana w czasie remontu skrzy\u017cowania, ale czy wr\u00f3ci?", "name": "Metro Ursyn\u00f3w II", "network": "Veturilo", "operator": "Nextbike Polska", "ref": "9603", "source": "http://www.veturilo.waw.pl/lokalizacje/"}}, {"type": "node", "id": 1853981632, "lat": 52.1622031, "lon": 21.0281157, "tags": {"amenity": "bicycle_rental", "capacity": "30", "name": "Metro Ursyn\u00f3w I", "network": "Veturilo", "operator": "Nextbike Polska", "ref": "9604", "source": "http://www.veturilo.waw.pl/lokalizacje/"}}, {"type": "node", "id": 1853986512, "lat": 52.1568489, "lon": 21.0338382, "tags": {"amenity": "bicycle_rental", "capacity": "27", "name": "Metro Stok\u0142osy", "network": "Veturilo", "operator": "Nextbike Polska", "ref": "9607", "source": "http://www.veturilo.waw.pl/lokalizacje/"}}, {"type": "node", "id": 1853996353, "lat": 52.1494548, "lon": 21.0333107, "tags": {"amenity": "bicycle_rental", "capacity": "22", "name": "Ciszewskiego - Pileckiego", "network": "Veturilo", "operator": "Nextbike Polska", "ref": "9610", "source": "http://www.veturilo.waw.pl/lokalizacje/"}}, {"type": "node", "id": 1853996701, "lat": 52.1492006, "lon": 21.0454755, "tags": {"amenity": "bicycle_rental", "capacity": "22", "name": "Metro Imielin", "network": "Veturilo", "operator": "Nextbike Polska", "ref": "9612", "source": "http://www.veturilo.waw.pl/lokalizacje/"}}, {"type": "node", "id": 1854001016, "lat": 52.142617, "lon": 21.0384008, "tags": {"amenity": "bicycle_rental", "capacity": "30", "name": "Pileckiego - Alternatywy", "network": "Veturilo", "operator": "Nextbike Polska", "ref": "9614", "source": "http://www.veturilo.waw.pl/lokalizacje/"}}, {"type": "node", "id": 1854028490, "lat": 52.154861, "lon": 21.0493151, "tags": {"amenity": "bicycle_rental", "capacity": "22", "name": "Roso\u0142a - Gandhi", "network": "Veturilo", "operator": "Nextbike Polska", "ref": "9611", "source": "http://www.veturilo.waw.pl/lokalizacje/"}}, {"type": "node", "id": 1936866228, "lat": 52.20782, "lon": 20.9630197}, {"type": "node", "id": 1958108834, "lat": 52.2768253, "lon": 20.9602351, "tags": {"name": "S\u0142odowiec", "name:pl": "S\u0142odowiec", "name:ru": "\u0421\u043b\u043e\u0434\u043e\u0432\u0435\u0446", "name:uk": "\u0421\u043b\u043e\u0434\u043e\u0432\u0435\u0446\u044c", "network": "Warsaw Metro", "platforms": "1", "public_transport": "station", "railway": "station", "station": "subway", "subway": "yes", "wheelchair": "yes", "wikidata": "Q638940", "wikipedia": "pl:S\u0142odowiec (stacja metra)"}}, {"type": "node", "id": 2021459341, "lat": 52.2719097, "lon": 20.9675393}, {"type": "node", "id": 2021459344, "lat": 52.2719905, "lon": 20.9676942}, {"type": "node", "id": 2021459347, "lat": 52.2721837, "lon": 20.9683668}, {"type": "node", "id": 2021550211, "lat": 52.2910096, "lon": 21.0003372}, {"type": "node", "id": 2021550221, "lat": 52.290987, "lon": 21.000807}, {"type": "node", "id": 2021550234, "lat": 52.2911272, "lon": 21.0011647}, {"type": "node", "id": 2021550240, "lat": 52.2913212, "lon": 21.0000261}, {"type": "node", "id": 2021550241, "lat": 52.2915256, "lon": 21.0011265}, {"type": "node", "id": 2021550242, "lat": 52.2914799, "lon": 21.0000732}, {"type": "node", "id": 2021550243, "lat": 52.2917558, "lon": 21.0008123}, {"type": "node", "id": 2043558695, "lat": 52.1696272, "lon": 20.9752099, "tags": {"name": "Warszawa Lotnisko Chopina", "name:en": "Warsaw Chopin Airport", "name:ja": "\u30ef\u30eb\u30b7\u30e3\u30ef\u30fb\u30b7\u30e7\u30d4\u30f3\u7a7a\u6e2f", "name:ja_kana": "\u308f\u308b\u3057\u3083\u308f\u30fb\u3057\u3087\u3074\u3093\u304f\u3046\u3053\u304a", "name:ja_rm": "Warushawa\u30fbShopin Kuukou", "platforms": "1", "public_transport": "station", "railway": "halt", "train": "yes", "wikidata": "Q2685989", "wikipedia": "pl:Warszawa Lotnisko Chopina"}}, {"type": "node", "id": 2181100077, "lat": 52.1620483, "lon": 21.2106772, "tags": {"name": "Warszawa Falenica", "name:ru": "\u0412\u0430\u0440\u0448\u0430\u0432\u0430 \u0424\u0430\u043b\u0435\u043d\u0438\u0446\u0430", "name:uk": "\u0412\u0430\u0440\u0448\u0430\u0432\u0430 \u0424\u0430\u043b\u0435\u043d\u0456\u0446\u0430", "public_transport": "station", "railway": "station", "train": "yes", "wikidata": "Q2769808", "wikipedia": "pl:Warszawa Falenica"}}, {"type": "node", "id": 2195123415, "lat": 52.2281952, "lon": 21.0028491}, {"type": "node", "id": 2195123417, "lat": 52.2282771, "lon": 21.0032328}, {"type": "node", "id": 2198886088, "lat": 52.2283923, "lon": 21.003969}, {"type": "node", "id": 2198886090, "lat": 52.2281518, "lon": 21.0025457}, {"type": "node", "id": 2198886091, "lat": 52.2282721, "lon": 21.0024775}, {"type": "node", "id": 2198886093, "lat": 52.2285154, "lon": 21.0045322}, {"type": "node", "id": 2198886703, "lat": 52.2287418, "lon": 21.0018155}, {"type": "node", "id": 2244982110, "lat": 52.2363908, "lon": 21.0073452, "tags": {"amenity": "bicycle_rental", "capacity": "30", "name": "Marsza\u0142kowska - Zielna", "network": "Veturilo", "operator": "Nextbike Polska", "ref": "9489", "source": "http://www.veturilo.waw.pl/lokalizacje/"}}, {"type": "node", "id": 2244982410, "lat": 52.2358526, "lon": 21.003755, "tags": {"amenity": "bicycle_rental", "capacity": "26", "name": "Plac Grzybowski", "network": "Veturilo", "operator": "Nextbike Polska", "ref": "9487", "source": "http://www.veturilo.waw.pl/lokalizacje/"}}, {"type": "node", "id": 2244983720, "lat": 52.264418, "lon": 20.9896252, "tags": {"amenity": "bicycle_rental", "capacity": "15", "name": "Plac Inwalid\u00f3w", "network": "Veturilo", "operator": "Nextbike Polska", "ref": "9422", "source": "http://www.veturilo.waw.pl/lokalizacje/"}}, {"type": "node", "id": 2244984352, "lat": 52.2623183, "lon": 20.9802359, "tags": {"amenity": "bicycle_rental", "capacity": "30", "name": "Plac Grunwaldzki", "network": "Veturilo", "operator": "Nextbike Polska", "ref": "9420", "source": "http://www.veturilo.waw.pl/lokalizacje/"}}, {"type": "node", "id": 2244986957, "lat": 52.2558887, "lon": 21.0098349, "tags": {"amenity": "bicycle_rental", "capacity": "14", "name": "Veturilko - Sanguszki - Wybrze\u017ce Gda\u0144skie", "network": "Veturilo", "operator": "Nextbike Polska", "ref": "9716", "rmikke:checked": "20150904", "source": "http://www.veturilo.waw.pl/lokalizacje/"}}, {"type": "node", "id": 2244993447, "lat": 52.2435797, "lon": 21.0141427, "tags": {"amenity": "bicycle_rental", "capacity": "14", "name": "Krakowskie Przedmie\u015bcie - Tr\u0119backa", "network": "Veturilo", "operator": "Nextbike Polska", "ref": "9468", "source": "http://www.veturilo.waw.pl/lokalizacje/"}}, {"type": "node", "id": 2244999309, "lat": 52.2418528, "lon": 21.0240572, "tags": {"amenity": "bicycle_rental", "capacity": "19", "name": "Lipowa - Dobra 2", "network": "Veturilo", "operator": "Nextbike Polska", "ref": "94961", "source": "http://www.veturilo.waw.pl/lokalizacje/"}}, {"type": "node", "id": 2245001298, "lat": 52.2355397, "lon": 21.0180981, "tags": {"amenity": "bicycle_rental", "capacity": "24", "name": "Nowy \u015awiat - Warecka", "network": "Veturilo", "operator": "Nextbike Polska", "ref": "9505", "source": "http://www.veturilo.waw.pl/lokalizacje/"}}, {"type": "node", "id": 2260051718, "lat": 52.1800354, "lon": 21.0207429, "tags": {"amenity": "bicycle_rental", "capacity": "30", "name": "al. Niepodleg\u0142o\u015bci - al. Wilanowska", "network": "Veturilo", "operator": "Nextbike Polska", "ref": "9589", "source": "http://www.veturilo.waw.pl/lokalizacje/"}}, {"type": "node", "id": 2262430570, "lat": 52.2345126, "lon": 20.990539, "tags": {"amenity": "bicycle_rental", "capacity": "20", "name": "\u017belazna - Grzybowska", "network": "Veturilo", "operator": "Nextbike Polska", "ref": "9481", "source": "http://www.veturilo.waw.pl/lokalizacje/"}}, {"type": "node", "id": 2278200811, "lat": 52.228072, "lon": 21.0048675, "tags": {"amenity": "bicycle_rental", "capacity": "22", "name": "Al. Jerozolimskie - Emilii Plater", "network": "Veturilo", "operator": "Nextbike Polska", "ref": "9516", "source": "http://www.veturilo.waw.pl/lokalizacje/"}}, {"type": "node", "id": 2306178206, "lat": 52.2336749, "lon": 21.0028291, "tags": {"amenity": "bicycle_rental", "capacity": "26", "name": "Emilii Plater - \u015awi\u0119tokrzyska", "network": "Veturilo", "operator": "Nextbike Polska", "ref": "9486", "source": "http://www.veturilo.waw.pl/lokalizacje/"}}, {"type": "node", "id": 2306376274, "lat": 52.237265, "lon": 20.9888425}, {"type": "node", "id": 2306385125, "lat": 52.2549917, "lon": 21.0338571, "tags": {"amenity": "bicycle_rental", "capacity": "30", "name": "Plac Wile\u0144ski", "network": "Veturilo", "operator": "Nextbike Polska", "ref": "9663"}}, {"type": "node", "id": 2306385126, "lat": 52.2524203, "lon": 21.0304118, "tags": {"amenity": "bicycle_rental", "capacity": "23", "name": "Floria\u0144ska - Park Praski", "network": "Veturilo", "operator": "Nextbike Polska", "ref": "9662"}}, {"type": "node", "id": 2309748408, "lat": 52.3325145, "lon": 20.9419714, "tags": {"amenity": "bicycle_rental", "capacity": "22", "name": "Ordon\u00f3wny - \u015awiatowida", "network": "Veturilo", "operator": "Nextbike Polska", "ref": "9620", "source": "http://www.veturilo.waw.pl/lokalizacje/"}}, {"type": "node", "id": 2312710240, "lat": 52.3150029, "lon": 21.0611378, "tags": {"amenity": "bicycle_rental", "capacity": "30", "name": "Skarbka z G\u00f3r - Magiczna", "network": "Veturilo", "operator": "Nextbike Polska", "ref": "9630", "source": "http://www.veturilo.waw.pl/lokalizacje/"}}, {"type": "node", "id": 2312872493, "lat": 52.3210786, "lon": 20.9714049, "tags": {"amenity": "bicycle_rental", "capacity": "19", "name": "Bia\u0142o\u0142\u0119ka-Ratusz", "network": "Veturilo", "operator": "Nextbike Polska", "ref": "9627", "source": "http://www.veturilo.waw.pl/lokalizacje/"}}, {"type": "node", "id": 2337019754, "lat": 52.2643198, "lon": 20.9317221, "tags": {"amenity": "bicycle_rental", "capacity": "15", "name": "Galeria Bemowo", "network": "Veturilo", "operator": "Nextbike Polska", "ref": "6408", "source": "http://www.veturilo.waw.pl/lokalizacje/"}}, {"type": "node", "id": 2338662701, "lat": 52.1314421, "lon": 21.0562422, "tags": {"amenity": "bicycle_rental", "capacity": "23", "name": "Stryje\u0144skich - W\u0105wozowa", "network": "Veturilo", "operator": "Nextbike Polska", "ref": "9619", "source": "http://www.veturilo.waw.pl/lokalizacje/"}}, {"type": "node", "id": 2348481314, "lat": 52.1331951, "lon": 21.0748504, "tags": {"amenity": "bicycle_rental", "capacity": "18", "name": "W\u0105wozowa - Roso\u0142a", "network": "Veturilo", "operator": "Nextbike Polska", "ref": "9622"}}, {"type": "node", "id": 2351113017, "lat": 52.2293788, "lon": 21.0075878, "tags": {"layer": "-1", "name": "Warszawa \u015ar\u00f3dmie\u015bcie", "name:de": "Warschau Stadtmitte", "name:en": "Warsaw City Center", "name:pl": "Warszawa \u015ar\u00f3dmie\u015bcie", "platforms": "3", "public_transport": "station", "railway": "halt", "wikidata": "Q2320937", "wikipedia": "pl:Warszawa \u015ar\u00f3dmie\u015bcie"}}, {"type": "node", "id": 2355318891, "lat": 52.2283656, "lon": 21.0020293}, {"type": "node", "id": 2364620963, "lat": 52.2248898, "lon": 21.0031585, "tags": {"amenity": "bicycle_rental", "capacity": "19", "name": "Oczki - WUM", "network": "Veturilo", "operator": "Nextbike Polska", "ref": "9515", "source": "http://www.veturilo.waw.pl/lokalizacje/"}}, {"type": "node", "id": 2365549705, "lat": 52.2260998, "lon": 20.996207, "tags": {"amenity": "bicycle_rental", "capacity": "15", "name": "al. Jerozolimskie - Lindleya", "network": "Veturilo", "operator": "Nextbike Polska", "ref": "9512", "source": "http://www.veturilo.waw.pl/lokalizacje/"}}, {"type": "node", "id": 2365552580, "lat": 52.2298068, "lon": 20.9940034, "tags": {"amenity": "bicycle_rental", "capacity": "30", "name": "\u017belazna - Sienna", "network": "Veturilo", "operator": "Nextbike Polska", "ref": "9499", "source": "http://www.veturilo.waw.pl/lokalizacje/"}}, {"type": "node", "id": 2377315811, "lat": 52.2669015, "lon": 21.0585975, "tags": {"amenity": "bicycle_rental", "capacity": "20", "name": "Radzymi\u0144ska - Piotra Skargi", "network": "Veturilo", "operator": "Nextbike Polska", "ref": "9647", "source": "http://www.veturilo.waw.pl/lokalizacje/"}}, {"type": "node", "id": 2385721286, "lat": 52.1420243, "lon": 21.0661516, "tags": {"amenity": "bicycle_rental", "capacity": "23", "name": "Belgradzka - Roso\u0142a", "network": "Veturilo", "operator": "Nextbike Polska", "ref": "9618", "source": "http://www.veturilo.waw.pl/lokalizacje/"}}, {"type": "node", "id": 2386844832, "lat": 52.2056041, "lon": 20.9159258, "tags": {"amenity": "bicycle_rental", "capacity": "17", "name": "PKP W\u0142ochy", "network": "Veturilo", "operator": "Nextbike Polska", "ref": "9580", "source": "https://veturilo.waw.pl/"}}, {"type": "node", "id": 2396455085, "lat": 52.1376013, "lon": 21.0505149, "tags": {"amenity": "bicycle_rental", "capacity": "15", "name": "Stryje\u0144skich - Belgradzka", "network": "Veturilo", "operator": "Nextbike Polska", "ref": "9616", "source": "http://www.veturilo.waw.pl/lokalizacje/"}}, {"type": "node", "id": 2425383298, "lat": 52.3234977, "lon": 20.9432685}, {"type": "node", "id": 2425383299, "lat": 52.3237224, "lon": 20.9426232}, {"type": "node", "id": 2425383301, "lat": 52.3241437, "lon": 20.9424895}, {"type": "node", "id": 2425383303, "lat": 52.324254, "lon": 20.9436094}, {"type": "node", "id": 2425383305, "lat": 52.3243729, "lon": 20.9425702}, {"type": "node", "id": 2425383306, "lat": 52.3244802, "lon": 20.9434386}, {"type": "node", "id": 2425383307, "lat": 52.3245092, "lon": 20.9427553}, {"type": "node", "id": 2425383308, "lat": 52.3245295, "lon": 20.9431586}, {"type": "node", "id": 2434544130, "lat": 52.2235653, "lon": 21.0128736, "tags": {"amenity": "bicycle_rental", "capacity": "18", "name": "Pozna\u0144ska - Zesp\u00f3\u0142 Szk\u00f3\u0142 Gastronomicznych", "network": "Veturilo", "operator": "Nextbike Polska", "ref": "9539", "source": "http://www.veturilo.waw.pl/lokalizacje/"}}, {"type": "node", "id": 2445361960, "lat": 52.1654952, "lon": 21.0839797}, {"type": "node", "id": 2454271791, "lat": 52.2291002, "lon": 21.0015544}, {"type": "node", "id": 2454461683, "lat": 52.2282287, "lon": 21.0022804}, {"type": "node", "id": 2454461693, "lat": 52.228895, "lon": 21.0016684}, {"type": "node", "id": 2474993638, "lat": 52.229318, "lon": 21.0026853}, {"type": "node", "id": 2480943502, "lat": 52.2281784, "lon": 21.0028597}, {"type": "node", "id": 2480943503, "lat": 52.2282612, "lon": 21.0032417}, {"type": "node", "id": 2480943513, "lat": 52.2286906, "lon": 21.0048705}, {"type": "node", "id": 2480943515, "lat": 52.2287625, "lon": 21.0048291}, {"type": "node", "id": 2482753234, "lat": 52.2765393, "lon": 21.0526509, "tags": {"addr:city": "Warszawa", "addr:street": "P\u0119tla Metro Trocka", "amenity": "bus_station", "bus": "yes", "name": "Metro Trocka", "name:ru": "\u0421\u0442\u0430\u043d\u0446\u0438\u044f \u0422\u0440\u043e\u0446\u043a\u0430", "name:uk": "\u0421\u0442\u0430\u043d\u0446\u0456\u044f \u0422\u0440\u043e\u0446\u043a\u0430", "operator": "ZTM Warszawa", "public_transport": "station", "wheelchair": "yes"}}, {"type": "node", "id": 2485604244, "lat": 52.2178869, "lon": 20.9828495, "tags": {"amenity": "bicycle_rental", "capacity": "30", "name": "Plac Narutowicza", "network": "Veturilo", "operator": "Nextbike Polska", "ref": "9532"}}, {"type": "node", "id": 2485604250, "lat": 52.2387213, "lon": 21.0508042, "tags": {"amenity": "bicycle_rental", "capacity": "18", "name": "Rondo Waszyngtona - Stadion Narodowy 1", "network": "Veturilo", "operator": "Nextbike Polska", "ref": "96821"}}, {"type": "node", "id": 2485604252, "lat": 52.2347853, "lon": 21.0536473, "tags": {"amenity": "bicycle_rental", "capacity": "15", "name": "Francuska - Walecznych", "network": "Veturilo", "operator": "Nextbike Polska", "ref": "9685"}}, {"type": "node", "id": 2503128155, "lat": 52.2631422, "lon": 21.0214268}, {"type": "node", "id": 2508070595, "lat": 52.2332733, "lon": 20.9651435, "tags": {"amenity": "bicycle_rental", "capacity": "20", "name": "Wolska - P\u0142ocka", "network": "Veturilo", "operator": "Nextbike Polska", "ref": "9474", "source": "http://www.veturilo.waw.pl/lokalizacje/"}}, {"type": "node", "id": 2624167979, "lat": 52.2226371, "lon": 21.0081451, "tags": {"amenity": "bicycle_rental", "capacity": "24", "name": "Noakowskiego - Koszykowa", "network": "Veturilo", "operator": "Nextbike Polska", "ref": "9537", "source": "http://www.veturilo.waw.pl/lokalizacje/"}}, {"type": "node", "id": 2653812222, "lat": 52.2286083, "lon": 21.0047422}, {"type": "node", "id": 2653818436, "lat": 52.228214, "lon": 21.0028372}, {"type": "node", "id": 2653818442, "lat": 52.2282953, "lon": 21.0032227}, {"type": "node", "id": 2653818444, "lat": 52.2283867, "lon": 21.0038404}, {"type": "node", "id": 2653818445, "lat": 52.228412, "lon": 21.0039566}, {"type": "node", "id": 2653818446, "lat": 52.2284218, "lon": 21.0038201}, {"type": "node", "id": 2659287828, "lat": 52.2296446, "lon": 21.0044453}, {"type": "node", "id": 2659287831, "lat": 52.2296971, "lon": 21.0043554}, {"type": "node", "id": 2659287832, "lat": 52.2297072, "lon": 21.0044112}, {"type": "node", "id": 2701278877, "lat": 52.1403512, "lon": 21.0568364, "tags": {"amenity": "bicycle_rental", "capacity": "30", "name": "Metro Natolin", "network": "Veturilo", "operator": "Nextbike Polska", "ref": "9617", "source": "http://www.veturilo.waw.pl/lokalizacje/"}}, {"type": "node", "id": 2820201747, "lat": 52.2631153, "lon": 21.0213987}, {"type": "node", "id": 2822429553, "lat": 52.2909257, "lon": 20.9296457, "tags": {"amenity": "bicycle_rental", "capacity": "30", "name": "Metro M\u0142ociny", "network": "Veturilo", "operator": "Nextbike Polska", "ref": "9403", "source": "http://www.veturilo.waw.pl/lokalizacje/"}}, {"type": "node", "id": 2838813911, "lat": 52.2906113, "lon": 21.0019227}, {"type": "node", "id": 2838813912, "lat": 52.2906305, "lon": 21.0019759}, {"type": "node", "id": 2838813914, "lat": 52.2907499, "lon": 21.0017889}, {"type": "node", "id": 2838813915, "lat": 52.2907691, "lon": 21.001842}, {"type": "node", "id": 2843039986, "lat": 52.2713734, "lon": 20.9726672, "tags": {"amenity": "bicycle_rental", "capacity": "30", "name": "Metro Marymont", "network": "Veturilo", "operator": "Nextbike Polska", "ref": "9415", "source": "http://www.veturilo.waw.pl/lokalizacje/"}}, {"type": "node", "id": 2850587772, "lat": 52.1799492, "lon": 21.0245125}, {"type": "node", "id": 2850587774, "lat": 52.1800202, "lon": 21.022867}, {"type": "node", "id": 2889005397, "lat": 52.3341174, "lon": 20.9858307, "tags": {"name": "Warszawa P\u0142udy", "name:ru": "\u0412\u0430\u0440\u0448\u0430\u0432\u0430 \u041f\u043b\u0443\u0434\u044b", "name:uk": "\u0412\u0430\u0440\u0448\u0430\u0432\u0430 \u041f\u043b\u0443\u0434\u0438", "public_transport": "station", "railway": "station", "train": "yes", "wikidata": "Q7970967", "wikipedia": "pl:Warszawa P\u0142udy"}}, {"type": "node", "id": 2893145206, "lat": 52.2289978, "lon": 21.0054889, "tags": {"amenity": "bicycle_rental", "capacity": "30", "name": "Emilii Plater - Al. Jerozolimskie", "network": "Veturilo", "operator": "Nextbike Polska", "ref": "9517", "source": "http://www.veturilo.waw.pl/lokalizacje/"}}, {"type": "node", "id": 2926418612, "lat": 52.2285583, "lon": 21.0045636}, {"type": "node", "id": 3004074589, "lat": 52.2612629, "lon": 21.0157267}, {"type": "node", "id": 3004074590, "lat": 52.2612724, "lon": 21.0157549}, {"type": "node", "id": 3004074595, "lat": 52.2613576, "lon": 21.015641}, {"type": "node", "id": 3004074596, "lat": 52.2613672, "lon": 21.0156692}, {"type": "node", "id": 3006899299, "lat": 52.2541878, "lon": 21.0138499, "tags": {"amenity": "ferry_terminal", "cargo": "bicycle", "ferry": "yes", "name": "Podzamcze Fontanny", "public_transport": "station", "wheelchair": "yes"}}, {"type": "node", "id": 3012412154, "lat": 52.2632149, "lon": 21.0211432}, {"type": "node", "id": 3012412158, "lat": 52.2632418, "lon": 21.0211713}, {"type": "node", "id": 3025515948, "lat": 52.2563713, "lon": 21.0294151}, {"type": "node", "id": 3031548248, "lat": 52.2667367, "lon": 20.9637821}, {"type": "node", "id": 3031548250, "lat": 52.2667621, "lon": 20.963801}, {"type": "node", "id": 3031548251, "lat": 52.2667862, "lon": 20.963605}, {"type": "node", "id": 3031548253, "lat": 52.2668116, "lon": 20.9636239}, {"type": "node", "id": 3036562819, "lat": 52.2576538, "lon": 20.9945463}, {"type": "node", "id": 3042068567, "lat": 52.334597, "lon": 20.9420316}, {"type": "node", "id": 3042068589, "lat": 52.33517, "lon": 20.9422492}, {"type": "node", "id": 3068197978, "lat": 52.244453, "lon": 21.0839824, "tags": {"amenity": "bicycle_rental", "capacity": "30", "name": "Rondo Wiatraczna", "network": "Veturilo", "not:brand:wikidata": "Q23955689", "operator": "Nextbike Polska", "ref": "9684", "source": "http://www.veturilo.waw.pl/lokalizacje/"}}, {"type": "node", "id": 3068197979, "lat": 52.2427158, "lon": 21.1019122, "tags": {"amenity": "bicycle_rental", "capacity": "15", "name": "Plac Szembeka", "network": "Veturilo", "operator": "Nextbike Polska", "ref": "9687", "source": "http://www.veturilo.waw.pl/lokalizacje/"}}, {"type": "node", "id": 3068321793, "lat": 52.188821, "lon": 21.0176929, "tags": {"amenity": "bicycle_rental", "brand": "Ko\u0142obrzeski Rower Miejski", "brand:wikidata": "Q97373105", "brand:wikipedia": "pl:Ko\u0142obrzeski Rower Miejski", "capacity": "20", "name": "Metro Wierzbno", "network": "Ko\u0142obrzeski Rower Miejski", "network:wikidata": "Q97373105", "network:wikipedia": "pl:Ko\u0142obrzeski Rower Miejski", "operator": "Nextbike Polska", "ref": "9584", "source": "http://www.veturilo.waw.pl/lokalizacje/"}}, {"type": "node", "id": 3073050662, "lat": 52.2717939, "lon": 20.9674946}, {"type": "node", "id": 3073050663, "lat": 52.2718251, "lon": 20.9675026}, {"type": "node", "id": 3073527851, "lat": 52.2574774, "lon": 20.994498}, {"type": "node", "id": 3080646370, "lat": 52.1593061, "lon": 21.0865394, "tags": {"amenity": "bicycle_rental", "capacity": "18", "name": "Przycz\u00f3\u0142kowa - Branickiego", "network": "Veturilo", "operator": "Nextbike Polska", "ref": "9602", "source": "http://www.veturilo.waw.pl/lokalizacje/"}}, {"type": "node", "id": 3080646371, "lat": 52.1701236, "lon": 21.06855, "tags": {"amenity": "bicycle_rental", "capacity": "15", "name": "Jana III Sobieskiego - al. Wilanowska", "network": "Veturilo", "operator": "Nextbike Polska", "ref": "9597", "source": "http://www.veturilo.waw.pl/lokalizacje/"}}, {"type": "node", "id": 3105806056, "lat": 52.1869604, "lon": 20.8906893, "tags": {"amenity": "bicycle_rental", "capacity": "15", "name": "Sosnkowskiego - OSiR Ursus", "network": "Veturilo", "operator": "Nextbike Polska", "ref": "9576", "source": "http://www.veturilo.waw.pl/lokalizacje/"}}, {"type": "node", "id": 3105806057, "lat": 52.195978, "lon": 20.8848986, "tags": {"amenity": "bicycle_rental", "capacity": "16", "name": "PKP Ursus", "network": "Veturilo", "operator": "Nextbike Polska", "ref": "9575", "source": "http://www.veturilo.waw.pl/lokalizacje/"}}, {"type": "node", "id": 3105806058, "lat": 52.200504, "lon": 20.8937675, "tags": {"amenity": "bicycle_rental", "capacity": "15", "name": "Ursus-Ratusz", "network": "Veturilo", "not:brand:wikidata": "Q23955689", "operator": "Nextbike Polska", "ref": "9577", "source": "http://www.veturilo.waw.pl/lokalizacje/"}}, {"type": "node", "id": 3105806059, "lat": 52.1906835, "lon": 20.9000557, "tags": {"amenity": "bicycle_rental", "capacity": "17", "name": "Skoroszewska - Prystora", "network": "Veturilo", "operator": "Nextbike Polska", "ref": "9578", "source": "http://www.veturilo.waw.pl/lokalizacje/"}}, {"type": "node", "id": 3105806060, "lat": 52.1916092, "lon": 20.8690038, "tags": {"amenity": "bicycle_rental", "capacity": "15", "name": "PKP Ursus-Nied\u017awiadek", "network": "Veturilo", "operator": "Nextbike Polska", "operator:type": "public", "ref": "9574", "source": "http://www.veturilo.waw.pl/lokalizacje/"}}, {"type": "node", "id": 3105829322, "lat": 52.2220651, "lon": 21.034291, "tags": {"amenity": "bicycle_rental", "capacity": "21", "name": "My\u015bliwiecka - Rozbrat", "network": "Veturilo", "operator": "Nextbike Polska", "ref": "9547", "source": "http://www.veturilo.waw.pl/lokalizacje/"}}, {"type": "node", "id": 3120439404, "lat": 52.2206605, "lon": 20.9722835, "tags": {"amenity": "bicycle_rental", "capacity": "15", "name": "Eurocentrum", "network": "Veturilo", "operator": "Nextbike Polska", "ref": "6407", "source": "http://www.veturilo.waw.pl/lokalizacje/"}}, {"type": "node", "id": 3143515555, "lat": 52.1568716, "lon": 21.0761078, "tags": {"amenity": "bicycle_rental", "capacity": "16", "name": "al. Rzeczypospolitej - Branickiego", "network": "Veturilo", "operator": "Nextbike Polska", "ref": "9601", "source": "http://www.veturilo.waw.pl/lokalizacje/"}}, {"type": "node", "id": 3193695641, "lat": 52.2722244, "lon": 20.9687536}, {"type": "node", "id": 3219569537, "lat": 52.2922242, "lon": 21.0419745}, {"type": "node", "id": 3220333415, "lat": 52.1795683, "lon": 21.0246985}, {"type": "node", "id": 3252093185, "lat": 52.2040448, "lon": 20.9573931, "tags": {"aerialway": "station", "aerialway:station": "top", "public_transport": "station"}}, {"type": "node", "id": 3252093186, "lat": 52.2041688, "lon": 20.9575889, "tags": {"aerialway": "station", "aerialway:station": "top", "public_transport": "station"}}, {"type": "node", "id": 3252093208, "lat": 52.2059627, "lon": 20.9562392, "tags": {"aerialway": "station", "public_transport": "station"}}, {"type": "node", "id": 3252093215, "lat": 52.2061419, "lon": 20.9571573, "tags": {"aerialway": "station", "public_transport": "station"}}, {"type": "node", "id": 3264473546, "lat": 52.3132884, "lon": 20.9657017}, {"type": "node", "id": 3373231696, "lat": 52.236587, "lon": 21.0647376, "tags": {"amenity": "bicycle_rental", "capacity": "15", "name": "Mi\u0119dzynarodowa - Walecznych", "network": "Veturilo", "operator": "Nextbike Polska", "ref": "9686", "source": "http://www.veturilo.waw.pl/lokalizacje/"}}, {"type": "node", "id": 3373246384, "lat": 52.2251518, "lon": 21.0713107, "tags": {"amenity": "bicycle_rental", "capacity": "16", "name": "Afryka\u0144ska - Egipska", "network": "Veturilo", "operator": "Nextbike Polska", "ref": "9693", "rmikke:checked": "20150902", "source": "http://www.veturilo.waw.pl/lokalizacje/"}}, {"type": "node", "id": 3373246385, "lat": 52.2283273, "lon": 21.0858024, "tags": {"amenity": "bicycle_rental", "capacity": "15", "name": "Abrahama - Kapelan\u00f3w AK", "network": "Veturilo", "operator": "Nextbike Polska", "ref": "9694", "rmikke:checked": "20150902", "source": "http://www.veturilo.waw.pl/lokalizacje/"}}, {"type": "node", "id": 3386279560, "lat": 52.2083017, "lon": 20.9635381}, {"type": "node", "id": 3388215466, "lat": 52.2471687, "lon": 21.0476916, "tags": {"amenity": "bicycle_rental", "capacity": "14", "name": "al. Zieleniecka - Teatr Powszechny", "network": "Veturilo", "operator": "Nextbike Polska", "ref": "9676", "source": "http://www.veturilo.waw.pl/lokalizacje/"}}, {"type": "node", "id": 3388215468, "lat": 52.3027504, "lon": 21.0588498, "tags": {"amenity": "bicycle_rental", "capacity": "25", "name": "Atrium Targ\u00f3wek", "network": "Veturilo", "operator": "Nextbike Polska", "ref": "6403", "source": "http://www.veturilo.waw.pl/lokalizacje/"}}, {"type": "node", "id": 3388215472, "lat": 52.273693, "lon": 21.0431816, "tags": {"amenity": "bicycle_rental", "capacity": "30", "name": "\u015aw. Wincentego \u2013 Ko\u0142owa", "network": "Veturilo", "operator": "Nextbike Polska", "ref": "9643", "source": "http://www.veturilo.waw.pl/lokalizacje/"}}, {"type": "node", "id": 3388215473, "lat": 52.2613562, "lon": 21.0306487, "tags": {"amenity": "bicycle_rental", "capacity": "28", "name": "Plac Hallera - Sawinkowa", "network": "Veturilo", "operator": "Nextbike Polska", "ref": "9654", "source": "http://www.veturilo.waw.pl/lokalizacje/"}}, {"type": "node", "id": 3388215474, "lat": 52.2951333, "lon": 21.0260783, "tags": {"amenity": "bicycle_rental", "capacity": "23", "name": "Rembieli\u0144ska - Kondratowicza", "network": "Veturilo", "note": "stacja przeniesiona w to miejsce na czas budowy stacji metra C21 Br\u00f3dno", "operator": "Nextbike Polska", "ref": "9632", "source": "http://www.veturilo.waw.pl/lokalizacje/"}}, {"type": "node", "id": 3388215476, "lat": 52.2463725, "lon": 21.06878, "tags": {"amenity": "bicycle_rental", "capacity": "15", "name": "Praga-Po\u0142udnie-Ratusz", "network": "Veturilo", "operator": "Nextbike Polska", "ref": "9678", "source": "http://www.veturilo.waw.pl/lokalizacje/"}}, {"type": "node", "id": 3388215477, "lat": 52.2527204, "lon": 21.0509587, "tags": {"amenity": "bicycle_rental", "capacity": "27", "name": "Dworzec Wschodni - Kijowska", "network": "Veturilo", "operator": "Nextbike Polska", "ref": "9674", "source": "http://www.veturilo.waw.pl/lokalizacje/"}}, {"type": "node", "id": 3388215478, "lat": 52.229716, "lon": 21.1062874, "tags": {"amenity": "bicycle_rental", "brand": "Ko\u0142obrzeski Rower Miejski", "brand:wikidata": "Q97373105", "brand:wikipedia": "pl:Ko\u0142obrzeski Rower Miejski", "capacity": "30", "name": "Rechniewskiego - Nowaka-Jeziora\u0144skiego", "network": "Ko\u0142obrzeski Rower Miejski", "network:wikidata": "Q97373105", "network:wikipedia": "pl:Ko\u0142obrzeski Rower Miejski", "operator": "Nextbike Polska", "ref": "9696", "source": "http://www.veturilo.waw.pl/lokalizacje/"}}, {"type": "node", "id": 3388215479, "lat": 52.2583733, "lon": 21.0354257, "tags": {"amenity": "bicycle_rental", "capacity": "24", "name": "Stalowa - 11 Listopada", "network": "Veturilo", "operator": "Nextbike Polska", "ref": "9660", "source": "http://www.veturilo.waw.pl/lokalizacje/"}}, {"type": "node", "id": 3388215480, "lat": 52.2371585, "lon": 21.0437623, "tags": {"amenity": "bicycle_rental", "capacity": "30", "name": "Wybrze\u017ce Szczeci\u0144skie - Stadion Narodowy", "network": "Veturilo", "operator": "Nextbike Polska", "ref": "9681", "source": "http://www.veturilo.waw.pl/lokalizacje/"}}, {"type": "node", "id": 3390187815, "lat": 52.2540622, "lon": 21.0355034, "tags": {"name": "Dworzec Wile\u0144ski", "name:de": "Wilnaer Bahnhof", "name:pl": "Dworzec Wile\u0144ski", "name:ru": "\u0416\u0435\u043b\u0435\u0437\u043d\u043e\u0434\u043e\u0440\u043e\u0436\u043d\u044b\u0439 \u0432\u043e\u043a\u0437\u0430\u043b \u0412\u0438\u043b\u0435\u043d\u044c\u0441\u043a\u0438", "name:uk": "\u0417\u0430\u043b\u0456\u0437\u043d\u0438\u0447\u043d\u0438\u0439 \u0432\u043e\u043a\u0437\u0430\u043b \u0412\u0456\u043b\u0435\u043d\u044c\u0441\u044c\u043a\u0456", "network": "Warsaw Metro", "public_transport": "station", "railway": "station", "ref": "C-15", "station": "subway", "subway": "yes", "wheelchair": "yes", "wikidata": "Q5318333", "wikipedia": "pl:Dworzec Wile\u0144ski (stacja metra)"}}, {"type": "node", "id": 3390197100, "lat": 52.2469807, "lon": 21.0428754, "tags": {"name": "Stadion Narodowy", "name:pl": "Stadion Narodowy", "name:ru": "\u0421\u0442\u0430\u0434\u0438\u043e\u043d \u041d\u0430\u0440\u043e\u0434\u043e\u0432\u044b", "name:uk": "\u0421\u0442\u0430\u0434\u0456\u043e\u043d \u041d\u0430\u0440\u043e\u0434\u043e\u0432\u0438", "network": "Warsaw Metro", "public_transport": "station", "railway": "station", "ref": "C-14", "station": "subway", "subway": "yes", "wheelchair": "limited", "wikidata": "Q7596321", "wikipedia": "pl:Stadion Narodowy (stacja metra)"}}, {"type": "node", "id": 3390230685, "lat": 52.2399148, "lon": 21.0317878, "tags": {"name": "Centrum Nauki Kopernik", "name:pl": "Centrum Nauki Kopernik", "name:ru": "\u0426\u0435\u043d\u0442\u0440\u0443\u043c \u041d\u0430\u0443\u043a\u0438 \u041a\u043e\u043f\u0435\u0440\u043d\u0438\u043a", "name:uk": "\u0426\u0435\u043d\u0442\u0440\u0443\u043c \u041d\u0430\u0443\u043a\u0438 \u041a\u043e\u043f\u0435\u0440\u043d\u0438\u043a", "network": "Warsaw Metro", "public_transport": "station", "railway": "station", "ref": "C-13", "station": "subway", "subway": "yes", "wheelchair": "yes", "wikidata": "Q9183919", "wikipedia": "pl:Centrum Nauki Kopernik (stacja metra)"}}, {"type": "node", "id": 3390237898, "lat": 52.236833, "lon": 21.016788, "tags": {"name": "Nowy \u015awiat-Uniwersytet", "name:pl": "Nowy \u015awiat-Uniwersytet", "name:ru": "\u041d\u043e\u0432\u044b \u0421\u0432\u044f\u0442 \u2014 \u0423\u043d\u0438\u0432\u0435\u0440\u0441\u044b\u0442\u0435\u0442", "name:uk": "\u041d\u043e\u0432\u0438 \u0421\u0432\u044f\u0442 \u2014 \u0423\u043d\u0456\u0432\u0435\u0440\u0441\u0438\u0442\u0435\u0442", "network": "Warsaw Metro", "public_transport": "station", "railway": "station", "ref": "C-12", "station": "subway", "subway": "yes", "wheelchair": "yes", "wikidata": "Q9183918", "wikipedia": "pl:Nowy \u015awiat-Uniwersytet"}}, {"type": "node", "id": 3390266492, "lat": 52.2331283, "lon": 20.9981863, "tags": {"name": "Rondo ONZ", "name:pl": "Rondo ONZ", "name:ru": "\u0420\u043e\u043d\u0434\u043e \u041e\u041d\u0417", "name:uk": "\u0420\u043e\u043d\u0434\u043e \u041e\u041d\u0417", "network": "Warsaw Metro", "public_transport": "station", "railway": "station", "ref": "C-10", "station": "subway", "subway": "yes", "toilets:wheelchair": "yes", "wheelchair": "yes", "wikidata": "Q7365568", "wikipedia": "pl:Rondo ONZ (stacja metra)"}}, {"type": "node", "id": 3390267294, "lat": 52.230052, "lon": 20.982848, "tags": {"level": "-2", "name": "Rondo Daszy\u0144skiego", "name:pl": "Rondo Daszy\u0144skiego", "name:ru": "\u0420\u043e\u043d\u0434\u043e \u0414\u0430\u0448\u0438\u043d\u044c\u0441\u043a\u0435\u0433\u043e", "name:uk": "\u0420\u043e\u043d\u0434\u043e \u0414\u0430\u0448\u0438\u043d\u0441\u044c\u043a\u0454\u0491\u043e", "network": "Warsaw Metro", "public_transport": "station", "railway": "station", "ref": "C-9", "station": "subway", "subway": "yes", "wheelchair": "limited", "wikidata": "Q7365567", "wikipedia": "pl:Rondo Daszy\u0144skiego (stacja metra)"}}, {"type": "node", "id": 3390283399, "lat": 52.1320765, "lon": 21.0650711, "tags": {"name": "Kabaty", "name:pl": "Kabaty", "name:ru": "\u041a\u0430\u0431\u0430\u0442\u044b", "name:uk": "\u041a\u0430\u0431\u0430\u0442\u0438", "network": "Warsaw Metro", "public_transport": "station", "railway": "station", "station": "subway", "subway": "yes", "wheelchair": "yes", "wikidata": "Q639716", "wikipedia": "pl:Kabaty (stacja metra)"}}, {"type": "node", "id": 3390289961, "lat": 52.1560759, "lon": 21.0347233, "tags": {"name": "Stok\u0142osy", "name:pl": "Stok\u0142osy", "name:ru": "\u0421\u0442\u043e\u043a\u043b\u043e\u0441\u044b", "name:uk": "\u0421\u0442\u043e\u043a\u043b\u043e\u0441\u0438", "network": "Warsaw Metro", "public_transport": "station", "railway": "station", "station": "subway", "subway": "yes", "wikidata": "Q638966", "wikipedia": "pl:Stok\u0142osy (stacja metra)"}}, {"type": "node", "id": 3390290324, "lat": 52.1411007, "lon": 21.0564351, "tags": {"name": "Natolin", "name:pl": "Natolin", "name:ru": "\u041d\u0430\u0442\u043e\u043b\u0438\u043d", "name:uk": "\u041d\u0430\u0442\u043e\u043b\u0456\u043d", "network": "Warsaw Metro", "public_transport": "station", "railway": "station", "station": "subway", "subway": "yes", "wheelchair": "yes", "wikidata": "Q639010", "wikipedia": "pl:Natolin (stacja metra)"}}, {"type": "node", "id": 3390290598, "lat": 52.1493, "lon": 21.0461062, "tags": {"name": "Imielin", "name:pl": "Imielin", "name:ru": "\u0418\u043c\u0435\u043b\u0438\u043d", "name:uk": "\u0406\u043c\u0454\u043b\u0456\u043d", "network": "Warsaw Metro", "public_transport": "station", "railway": "station", "station": "subway", "subway": "yes", "wheelchair": "yes", "wikidata": "Q638954", "wikipedia": "pl:Imielin (stacja metra)"}}, {"type": "node", "id": 3390304927, "lat": 52.1620456, "lon": 21.0276283, "tags": {"name": "Ursyn\u00f3w", "name:pl": "Ursyn\u00f3w", "name:ru": "\u0423\u0440\u0441\u044b\u043d\u0443\u0432", "name:uk": "\u0423\u0440\u0441\u0438\u043d\u0443\u0432", "network": "Warsaw Metro", "public_transport": "station", "railway": "station", "station": "subway", "subway": "yes", "wheelchair": "yes", "wikidata": "Q638921", "wikipedia": "pl:Ursyn\u00f3w (stacja metra)"}}, {"type": "node", "id": 3390306374, "lat": 52.1727624, "lon": 21.0262866, "tags": {"name": "S\u0142u\u017cew", "name:pl": "S\u0142u\u017cew", "name:ru": "\u0421\u043b\u0443\u0436\u0435\u0432", "name:uk": "\u0421\u043b\u0443\u0436\u0435\u0432", "network": "Warsaw Metro", "public_transport": "station", "railway": "station", "station": "subway", "subway": "yes", "wheelchair": "yes", "wikidata": "Q2499517", "wikipedia": "pl:S\u0142u\u017cew (stacja metra)"}}, {"type": "node", "id": 3390327068, "lat": 52.1989416, "lon": 21.0121943, "tags": {"name": "Rac\u0142awicka", "name:pl": "Rac\u0142awicka", "name:ru": "\u0420\u0430\u0446\u043b\u0430\u0432\u0438\u0446\u043a\u0430", "name:uk": "\u0420\u0430\u0446\u043b\u0430\u0432\u0456\u0446\u044c\u043a\u0430", "network": "Warsaw Metro", "public_transport": "station", "railway": "station", "station": "subway", "subway": "yes", "wheelchair": "yes", "wikidata": "Q639038", "wikipedia": "pl:Rac\u0142awicka (stacja metra)"}}, {"type": "node", "id": 3390333313, "lat": 52.1899435, "lon": 21.016599, "tags": {"name": "Wierzbno", "name:pl": "Wierzbno", "name:ru": "\u0412\u0435\u0436\u0431\u043d\u043e", "name:uk": "\u0412\u0454\u0436\u0431\u043d\u043e", "network": "Warsaw Metro", "public_transport": "station", "railway": "station", "station": "subway", "subway": "yes", "wheelchair": "yes", "wikidata": "Q568129", "wikipedia": "pl:Wierzbno (stacja metra)"}}, {"type": "node", "id": 3390336021, "lat": 52.1818, "lon": 21.0231369, "tags": {"name": "Wilanowska", "name:pl": "Wilanowska", "name:ru": "\u0412\u0438\u043b\u044f\u043d\u043e\u0432\u0441\u043a\u0430", "name:uk": "\u0412\u0456\u043b\u044f\u043d\u043e\u0432\u0441\u044c\u043a\u0430", "network": "Warsaw Metro", "public_transport": "station", "railway": "station", "station": "subway", "subway": "yes", "wheelchair": "yes", "wikidata": "Q2662377", "wikipedia": "pl:Wilanowska (stacja metra)"}}, {"type": "node", "id": 3390342469, "lat": 52.208529, "lon": 21.0077851, "tags": {"name": "Pole Mokotowskie", "name:pl": "Pole Mokotowskie", "name:ru": "\u041f\u043e\u043b\u0435 \u041c\u043e\u043a\u043e\u0442\u043e\u0432\u0441\u043a\u0435", "name:uk": "\u041f\u043e\u043b\u0435 \u041c\u043e\u043a\u043e\u0442\u043e\u0432\u0441\u044c\u043a\u0435", "network": "Warsaw Metro", "public_transport": "station", "railway": "station", "station": "subway", "subway": "yes", "wheelchair": "no", "wikidata": "Q638899", "wikipedia": "pl:Pole Mokotowskie (stacja metra)"}}, {"type": "node", "id": 3390361095, "lat": 52.2184572, "lon": 21.0153582, "tags": {"name": "Politechnika", "name:pl": "Politechnika", "name:ru": "\u041f\u043e\u043b\u0438\u0442\u044d\u0445\u043d\u0438\u043a\u0430", "name:uk": "\u041f\u043e\u043b\u0456\u0442\u0435\u0445\u043d\u0456\u043a\u0430", "network": "Warsaw Metro", "public_transport": "station", "railway": "station", "station": "subway", "subway": "yes", "wheelchair": "yes", "wikidata": "Q639024", "wikipedia": "pl:Politechnika (stacja metra)"}}, {"type": "node", "id": 3390365405, "lat": 52.2311577, "lon": 21.0100632, "tags": {"name": "Centrum", "name:be": "\u0426\u044d\u043d\u0442\u0440\u0443\u043c", "name:de": "Zentrum", "name:pl": "Centrum", "name:ru": "\u0426\u0435\u043d\u0442\u0440\u0443\u043c", "name:uk": "\u0426\u0435\u043d\u0442\u0440\u0443\u043c", "network": "Warsaw Metro", "public_transport": "station", "railway": "station", "station": "subway", "subway": "yes", "wheelchair": "yes", "wikidata": "Q638910", "wikipedia": "pl:Centrum (stacja metra)"}}, {"type": "node", "id": 3390793459, "lat": 52.244745, "lon": 21.0439777, "tags": {"name": "Warszawa Stadion", "name:de": "Warschau Stadion", "name:pl": "Warszawa Stadion", "public_transport": "station", "railway": "halt", "wheelchair": "limited", "wikidata": "Q2579655", "wikipedia": "pl:Warszawa Stadion"}}, {"type": "node", "id": 3390821831, "lat": 52.2200537, "lon": 20.9652095, "tags": {"alt_name": "Dworzec Zachodni", "name": "Warszawa Zachodnia", "name:de": "Warschau West", "name:pl": "Warszawa Zachodnia", "name:ru": "\u0412\u0430\u0440\u0448\u0430\u0432\u0430-\u0417\u0430\u043f\u0430\u0434\u043d\u0430\u044f", "name:uk": "\u0412\u0430\u0440\u0448\u0430\u0432\u0430-\u0417\u0430\u0445\u043e\u0434\u043d\u044f", "operator": "PKP PLK", "platforms": "7", "public_transport": "station", "railway": "station", "uic_ref": "5100067", "wheelchair": "yes", "wikidata": "Q2694091", "wikipedia": "pl:Warszawa Zachodnia"}}, {"type": "node", "id": 3390925140, "lat": 52.2143854, "lon": 20.9478636, "tags": {"name": "Warszawa Reduta Ordona", "operator": "WKD", "public_transport": "station", "railway": "halt", "wikidata": "Q2170451", "wikipedia": "pl:Warszawa Reduta Ordona"}}, {"type": "node", "id": 3392688659, "lat": 52.2465494, "lon": 21.0174829, "tags": {"amenity": "bicycle_rental", "capacity": "15", "capacity:note": "Nie poprawia\u0107 pojemno\u015bci wed\u0142ug danych Veturilo. Oni w systemie maja tu 15 stojak\u00f3w, w rzeczywisto\u015bci jest 14.", "name": "Mariensztat", "network": "Veturilo", "operator": "Nextbike Polska", "ref": "9469", "source": "http://www.veturilo.waw.pl/lokalizacje/"}}, {"type": "node", "id": 3392688661, "lat": 52.2769414, "lon": 20.9845614, "tags": {"amenity": "bicycle_rental", "capacity": "15", "name": "Potocka - OSiR \u017boliborz", "network": "Veturilo", "operator": "Nextbike Polska", "ref": "9411", "source": "http://www.veturilo.waw.pl/lokalizacje/"}}, {"type": "node", "id": 3392688663, "lat": 52.2414054, "lon": 20.9291802, "tags": {"amenity": "bicycle_rental", "capacity": "20", "name": "Wola Park", "network": "Veturilo", "operator": "Nextbike Polska", "ref": "6424", "source": "http://www.veturilo.waw.pl/lokalizacje/"}}, {"type": "node", "id": 3392688667, "lat": 52.2368637, "lon": 20.9723614, "tags": {"amenity": "bicycle_rental", "capacity": "30", "name": "Leszno - M\u0142ynarska", "network": "Veturilo", "operator": "Nextbike Polska", "ref": "9453", "source": "http://www.veturilo.waw.pl/lokalizacje/"}}, {"type": "node", "id": 3392688668, "lat": 52.2902499, "lon": 20.9502549, "tags": {"amenity": "bicycle_rental", "capacity": "30", "name": "Marymoncka - Dewajtis", "network": "Veturilo", "operator": "Nextbike Polska", "ref": "9404", "source": "http://www.veturilo.waw.pl/lokalizacje/"}}, {"type": "node", "id": 3392688671, "lat": 52.2326184, "lon": 20.9971655, "tags": {"amenity": "bicycle_rental", "capacity": "29", "name": "Rondo ONZ", "network": "Veturilo", "operator": "Nextbike Polska", "ref": "9484", "source": "http://www.veturilo.waw.pl/lokalizacje/"}}, {"type": "node", "id": 3392688673, "lat": 52.2368836, "lon": 21.0176499, "tags": {"amenity": "bicycle_rental", "capacity": "20", "name": "Metro Nowy \u015awiat - Uniwersytet", "network": "Veturilo", "operator": "Nextbike Polska", "ref": "9494", "source": "http://www.veturilo.waw.pl/lokalizacje/"}}, {"type": "node", "id": 3401904483, "lat": 52.2571084, "lon": 21.158478, "tags": {"name": "Warszawa Rembert\u00f3w", "name:de": "Warschau-Rembertau", "name:pl": "Warszawa Rembert\u00f3w", "name:ru": "\u0412\u0430\u0440\u0448\u0430\u0432\u0430 \u0420\u0435\u0431\u043c\u0435\u0440\u0442\u0443\u0432", "name:uk": "\u0412\u0430\u0440\u0448\u0430\u0432\u0430 \u0420\u0435\u043c\u0431\u0435\u0440\u0442\u0443\u0432", "public_transport": "station", "railway": "station", "wheelchair": "yes", "wikidata": "Q2594587", "wikipedia": "pl:Warszawa Rembert\u00f3w (stacja kolejowa)"}}, {"type": "node", "id": 3403990011, "lat": 52.2497745, "lon": 21.1068857, "tags": {"name": "Warszawa Olszynka Grochowska", "public_transport": "station", "railway": "halt", "train": "yes", "wikidata": "Q1860387", "wikipedia": "pl:Warszawa Olszynka Grochowska"}}, {"type": "node", "id": 3404075447, "lat": 52.212993, "lon": 21.1599414, "tags": {"name": "Warszawa Anin", "network": "ZTM Warszawa", "public_transport": "station", "railway": "halt", "train": "yes", "wheelchair": "yes", "wikidata": "Q2267292", "wikipedia": "pl:Warszawa Anin"}}, {"type": "node", "id": 3404080631, "lat": 52.2039216, "lon": 21.168978, "tags": {"name": "Warszawa Mi\u0119dzylesie", "public_transport": "station", "railway": "halt", "train": "yes", "wikidata": "Q952849", "wikipedia": "pl:Warszawa Mi\u0119dzylesie"}}, {"type": "node", "id": 3404083586, "lat": 52.1857228, "lon": 21.1871497, "tags": {"name": "Warszawa Rado\u015b\u0107", "public_transport": "station", "railway": "halt", "train": "yes", "wikidata": "Q1841543", "wikipedia": "pl:Warszawa Rado\u015b\u0107"}}, {"type": "node", "id": 3404104730, "lat": 52.1726622, "lon": 21.2002174, "tags": {"name": "Warszawa Miedzeszyn", "public_transport": "station", "railway": "halt", "wikidata": "Q959808", "wikipedia": "pl:Warszawa Miedzeszyn"}}, {"type": "node", "id": 3405698727, "lat": 52.2553105, "lon": 21.0368922, "tags": {"entrance": "emergency"}}, {"type": "node", "id": 3405698732, "lat": 52.2557003, "lon": 21.0388488}, {"type": "node", "id": 3407820475, "lat": 52.2080485, "lon": 20.962969}, {"type": "node", "id": 3412080203, "lat": 52.2312637, "lon": 21.0213733}, {"type": "node", "id": 3412080204, "lat": 52.2312741, "lon": 21.0214261}, {"type": "node", "id": 3412080206, "lat": 52.2314432, "lon": 21.0213254}, {"type": "node", "id": 3412080207, "lat": 52.2314635, "lon": 21.021334}, {"type": "node", "id": 3412132262, "lat": 52.2302335, "lon": 21.0126943}, {"type": "node", "id": 3412132263, "lat": 52.230245, "lon": 21.0126898}, {"type": "node", "id": 3412132264, "lat": 52.2302617, "lon": 21.0128864}, {"type": "node", "id": 3412132265, "lat": 52.2302732, "lon": 21.0128819}, {"type": "node", "id": 3414445834, "lat": 52.1661431, "lon": 20.9873566, "tags": {"name": "Warszawa Ok\u0119cie", "name:ru": "\u0412\u0430\u0440\u0448\u0430\u0432\u0430 \u041e\u043a\u0435\u043d\u0447\u0435", "name:uk": "\u0412\u0430\u0440\u0448\u0430\u0432\u0430 \u041e\u043a\u0435\u043d\u0446\u0456", "public_transport": "station", "railway": "station", "wikidata": "Q640443", "wikipedia": "pl:Warszawa Ok\u0119cie"}}, {"type": "node", "id": 3416823373, "lat": 52.2590164, "lon": 20.9919642, "tags": {"name": "Warszawa Gda\u0144ska", "name:ru": "\u0412\u0430\u0440\u0448\u0430\u0432\u0430 \u0413\u0434\u0430\u043d\u044c\u0441\u043a\u0430", "name:uk": "\u0412\u0430\u0440\u0448\u0430\u0432\u0430 \u0490\u0434\u0430\u043d\u0441\u044c\u043a\u0430", "public_transport": "station", "railway": "station", "train": "yes", "uic_ref": "5100172", "wheelchair": "yes", "wikidata": "Q1842252", "wikipedia": "pl:Warszawa Gda\u0144ska"}}, {"type": "node", "id": 3416840991, "lat": 52.2578685, "lon": 20.9943315, "tags": {"name": "Dworzec Gda\u0144ski", "name:pl": "Dworzec Gda\u0144ski", "name:ru": "\u0416\u0435\u043b\u0435\u0437\u043d\u043e\u0434\u043e\u0440\u043e\u0436\u043d\u044b\u0439 \u0432\u043e\u043a\u0437\u0430\u043b \u0413\u0434\u0430\u043d\u044c\u0441\u043a\u0438", "name:uk": "\u0417\u0430\u043b\u0456\u0437\u043d\u0438\u0447\u043d\u0438\u0439 \u0432\u043e\u043a\u0437\u0430\u043b \u0490\u0434\u0430\u043d\u044c\u0441\u043a\u0456", "network": "Warsaw Metro", "public_transport": "station", "railway": "station", "station": "subway", "subway": "yes", "wheelchair": "yes", "wikidata": "Q2662347", "wikipedia": "pl:Dworzec Gda\u0144ski (stacja metra)"}}, {"type": "node", "id": 3426505648, "lat": 52.2174215, "lon": 21.0142682}, {"type": "node", "id": 3426505650, "lat": 52.2174223, "lon": 21.0143896}, {"type": "node", "id": 3426505652, "lat": 52.21744, "lon": 21.0142678}, {"type": "node", "id": 3426505653, "lat": 52.2174408, "lon": 21.0143893}, {"type": "node", "id": 3438082486, "lat": 52.2775271, "lon": 21.0223526, "tags": {"name": "Warszawa Praga", "public_transport": "station", "railway": "halt", "train": "yes", "wikidata": "Q2424590", "wikipedia": "pl:Warszawa Praga (stacja kolejowa)"}}, {"type": "node", "id": 3439437718, "lat": 52.2562388, "lon": 21.0396441}, {"type": "node", "id": 3439437719, "lat": 52.2561363, "lon": 21.0397583}, {"type": "node", "id": 3439437720, "lat": 52.2562735, "lon": 21.0396054}, {"type": "node", "id": 3457285925, "lat": 52.22348, "lon": 21.1494647, "tags": {"name": "Warszawa Wawer", "name:ru": "\u0412\u0430\u0440\u0448\u0430\u0432\u0430 \u0412\u0430\u0432\u0435\u0440", "name:uk": "\u0412\u0430\u0440\u0448\u0430\u0432\u0430 \u0412\u0430\u0432\u0435\u0440", "public_transport": "station", "railway": "station", "train": "yes", "wheelchair": "no", "wikidata": "Q2395768", "wikipedia": "pl:Warszawa Wawer (stacja kolejowa)"}}, {"type": "node", "id": 3469566645, "lat": 52.1711257, "lon": 21.1395756, "tags": {"amenity": "ferry_terminal", "ferry": "yes", "public_transport": "station"}}, {"type": "node", "id": 3471234411, "lat": 52.2228943, "lon": 21.0157695, "tags": {"amenity": "bicycle_rental", "capacity": "30", "name": "Plac Konstytucji", "network": "Veturilo", "operator": "Nextbike Polska", "ref": "9543"}}, {"type": "node", "id": 3471234412, "lat": 52.2293176, "lon": 21.0113318, "tags": {"amenity": "bicycle_rental", "capacity": "24", "name": "Marsza\u0142kowska - Al. Jerozolimskie", "network": "Veturilo", "operator": "Nextbike Polska", "ref": "9520", "source": "http://www.veturilo.waw.pl/lokalizacje/"}}, {"type": "node", "id": 3472100889, "lat": 52.2254065, "lon": 20.9895212, "tags": {"name": "Warszawa Ochota WKD", "operator": "WKD", "public_transport": "station", "railway": "halt"}}, {"type": "node", "id": 3472102372, "lat": 52.2194487, "lon": 20.9655479, "tags": {"name": "Warszawa Zachodnia WKD", "operator": "WKD", "public_transport": "station", "railway": "halt"}}, {"type": "node", "id": 3472122024, "lat": 52.1944886, "lon": 20.9358283, "tags": {"name": "Warszawa Rak\u00f3w", "network": "ZTM Warszawa", "operator": "WKD", "public_transport": "station", "railway": "halt", "ref": "4914", "wikidata": "Q9371142", "wikipedia": "pl:Warszawa Rak\u00f3w"}}, {"type": "node", "id": 3472126593, "lat": 52.1864913, "lon": 20.9245286, "tags": {"name": "Warszawa Salomea", "operator": "WKD", "public_transport": "station", "railway": "halt", "wikidata": "Q2711620", "wikipedia": "pl:Warszawa Salomea"}}, {"type": "node", "id": 3479401789, "lat": 52.2374355, "lon": 20.955378}, {"type": "node", "id": 3479402898, "lat": 52.2375033, "lon": 20.9554021}, {"type": "node", "id": 3542167760, "lat": 52.1705712, "lon": 21.1366362, "tags": {"amenity": "ferry_terminal", "ferry": "yes", "public_transport": "station"}}, {"type": "node", "id": 3579525845, "lat": 52.2556906, "lon": 20.9842939}, {"type": "node", "id": 3579525846, "lat": 52.2557027, "lon": 20.9843297}, {"type": "node", "id": 3579525847, "lat": 52.2558076, "lon": 20.9841882}, {"type": "node", "id": 3579525848, "lat": 52.2558197, "lon": 20.984224}, {"type": "node", "id": 3615569910, "lat": 52.2692519, "lon": 20.9843885, "tags": {"atm": "yes", "name": "Plac Wilsona", "name:pl": "Plac Wilsona", "name:ru": "\u041f\u043b\u0430\u0446 \u0412\u0438\u043b\u044c\u0441\u043e\u043d\u0430", "name:uk": "\u041f\u043b\u044f\u0446 \u0412\u0456\u043b\u044c\u0441\u043e\u043d\u0430", "network": "Warsaw Metro", "public_transport": "station", "railway": "station", "station": "subway", "subway": "yes", "wheelchair": "yes", "wikidata": "Q639707", "wikipedia": "pl:Plac Wilsona (stacja metra)"}}, {"type": "node", "id": 3652804244, "lat": 52.247645, "lon": 21.0429127, "tags": {"amenity": "bicycle_rental", "capacity": "15", "name": "Metro Stadion Narodowy", "network": "Veturilo", "operator": "Nextbike Polska", "ref": "9675", "rmikke:checked": "20150902", "source": "http://www.veturilo.waw.pl/lokalizacje/"}}, {"type": "node", "id": 3653992556, "lat": 52.2131199, "lon": 21.0211247}, {"type": "node", "id": 3653992561, "lat": 52.2131238, "lon": 21.021102}, {"type": "node", "id": 3653992588, "lat": 52.2131985, "lon": 21.0211607}, {"type": "node", "id": 3653992590, "lat": 52.2132024, "lon": 21.021138}, {"type": "node", "id": 3654886502, "lat": 52.162396, "lon": 21.0383956, "tags": {"amenity": "bicycle_rental", "capacity": "30", "name": "Jastrz\u0119bowskiego - SGGW", "network": "Veturilo", "operator": "Nextbike Polska", "ref": "9605", "source": "http://www.veturilo.waw.pl/lokalizacje/"}}, {"type": "node", "id": 3655416300, "lat": 52.2199108, "lon": 21.0257049}, {"type": "node", "id": 3655416301, "lat": 52.2199441, "lon": 21.0257265}, {"type": "node", "id": 3655416302, "lat": 52.2199851, "lon": 21.0255583}, {"type": "node", "id": 3655416303, "lat": 52.2199518, "lon": 21.0255367}, {"type": "node", "id": 3655417635, "lat": 52.2278425, "lon": 21.023511, "tags": {"amenity": "bicycle_rental", "capacity": "23", "name": "Plac Trzech Krzy\u017cy", "network": "Veturilo", "operator": "Nextbike Polska", "ref": "9525"}}, {"type": "node", "id": 3659251244, "lat": 52.2962743, "lon": 20.9583624, "tags": {"amenity": "bicycle_rental", "capacity": "30", "name": "Dewajtis - UKSW", "network": "Veturilo", "operator": "Nextbike Polska", "ref": "9402"}}, {"type": "node", "id": 3668990332, "lat": 52.1561385, "lon": 20.9963341, "tags": {"amenity": "bicycle_rental", "capacity": "25", "name": "Poleczki Park", "network": "Veturilo", "operator": "Nextbike Polska", "ref": "6415"}}, {"type": "node", "id": 3675094158, "lat": 52.2393877, "lon": 21.0168074, "tags": {"amenity": "bicycle_rental", "capacity": "24", "name": "Krakowskie Przedmie\u015bcie - Traugutta", "network": "Veturilo", "operator": "Nextbike Polska", "ref": "9493", "source": "http://www.veturilo.waw.pl/lokalizacje/"}}, {"type": "node", "id": 3675094159, "lat": 52.2393415, "lon": 21.016829, "tags": {"amenity": "bicycle_rental", "capacity": "15", "name": "E-bike - Krakowskie Przedmie\u015bcie \u2013 Traugutta", "network": "Veturilo", "operator": "Nextbike Polska", "ref": "9706", "rental": "ebike"}}, {"type": "node", "id": 3675169379, "lat": 52.2165714, "lon": 20.9879727, "tags": {"amenity": "bicycle_rental", "capacity": "20", "name": "Raszy\u0144ska - Wawelska", "network": "Veturilo", "operator": "Nextbike Polska", "ref": "9533", "source": "http://www.veturilo.waw.pl/lokalizacje/"}}, {"type": "node", "id": 3675169380, "lat": 52.2538648, "lon": 21.0232639, "tags": {"amenity": "bicycle_rental", "capacity": "14", "name": "Ratuszowa - ZOO", "network": "Veturilo", "operator": "Nextbike Polska", "ref": "9656", "source": "http://www.veturilo.waw.pl/lokalizacje/"}}, {"type": "node", "id": 3675218852, "lat": 52.174381, "lon": 21.0129882, "tags": {"amenity": "bicycle_rental", "capacity": "30", "name": "al. Lotnik\u00f3w - Kaczmarskiego", "network": "Veturilo", "operator": "Nextbike Polska", "ref": "9594", "source": "http://www.veturilo.waw.pl/lokalizacje/"}}, {"type": "node", "id": 3675218853, "lat": 52.2276574, "lon": 21.0443116, "tags": {"amenity": "bicycle_rental", "capacity": "30", "name": "Port Czerniakowski", "network": "Veturilo", "operator": "Nextbike Polska", "ref": "9548", "source": "http://www.veturilo.waw.pl/lokalizacje/"}}, {"type": "node", "id": 3675218855, "lat": 52.2248937, "lon": 21.0269445, "tags": {"amenity": "bicycle_rental", "capacity": "20", "name": "Matejki - Wiejska", "network": "Veturilo", "operator": "Nextbike Polska", "ref": "9546", "source": "http://www.veturilo.waw.pl/lokalizacje/"}}, {"type": "node", "id": 3675218856, "lat": 52.2129835, "lon": 20.9820471, "tags": {"amenity": "bicycle_rental", "capacity": "24", "name": "Pasteura - Winnicka - UW", "network": "Veturilo", "operator": "Nextbike Polska", "ref": "9550", "source": "http://www.veturilo.waw.pl/lokalizacje/"}}, {"type": "node", "id": 3676859610, "lat": 52.1924433, "lon": 20.959705, "tags": {"amenity": "bicycle_rental", "capacity": "15", "name": "W\u0142ochy-Ratusz", "network": "Veturilo", "operator": "Nextbike Polska", "ref": "9582", "source": "http://www.veturilo.waw.pl/lokalizacje/"}}, {"type": "node", "id": 3676859611, "lat": 52.2099065, "lon": 21.006812, "tags": {"amenity": "bicycle_rental", "capacity": "26", "name": "al. Niepodleg\u0142o\u015bci - Batorego", "network": "Veturilo", "operator": "Nextbike Polska", "ref": "9558", "repair": "yes", "source": "http://www.veturilo.waw.pl/lokalizacje/"}}, {"type": "node", "id": 3676859613, "lat": 52.194587, "lon": 20.9668845, "tags": {"amenity": "bicycle_rental", "brand": "Ko\u0142obrzeski Rower Miejski", "brand:wikidata": "Q97373105", "brand:wikipedia": "pl:Ko\u0142obrzeski Rower Miejski", "capacity": "15", "name": "1 Sierpnia - DK W\u0142ochy", "network": "Ko\u0142obrzeski Rower Miejski", "network:wikidata": "Q97373105", "network:wikipedia": "pl:Ko\u0142obrzeski Rower Miejski", "operator": "Nextbike Polska", "ref": "9583", "source": "http://www.veturilo.waw.pl/lokalizacje/"}}, {"type": "node", "id": 3676859614, "lat": 52.2677872, "lon": 21.0021127, "tags": {"amenity": "bicycle_rental", "capacity": "15", "name": "Wybrze\u017ce Gdy\u0144skie - KS Sp\u00f3jnia", "network": "Veturilo", "operator": "Nextbike Polska", "ref": "9419", "source": "http://www.veturilo.waw.pl/lokalizacje/"}}, {"type": "node", "id": 3676859619, "lat": 52.219834, "lon": 21.0116365, "tags": {"amenity": "bicycle_rental", "brand": "Ko\u0142obrzeski Rower Miejski", "brand:wikidata": "Q97373105", "brand:wikipedia": "pl:Ko\u0142obrzeski Rower Miejski", "capacity": "27", "name": "Plac Politechniki", "network": "Ko\u0142obrzeski Rower Miejski", "network:wikidata": "Q97373105", "network:wikipedia": "pl:Ko\u0142obrzeski Rower Miejski", "operator": "Nextbike Polska", "ref": "9538", "source": "http://www.veturilo.waw.pl/lokalizacje/"}}, {"type": "node", "id": 3676859620, "lat": 52.1647096, "lon": 21.1092471, "tags": {"amenity": "bicycle_rental", "capacity": "16", "name": "Vogla - Syta", "network": "Veturilo", "operator": "Nextbike Polska", "ref": "9599", "source": "http://www.veturilo.waw.pl/lokalizacje/"}}, {"type": "node", "id": 3676859621, "lat": 52.2386624, "lon": 21.0507192, "tags": {"amenity": "bicycle_rental", "capacity": "27", "name": "Rondo Waszyngtona - Stadion Narodowy", "network": "Veturilo", "operator": "Nextbike Polska", "ref": "9682", "source": "http://www.veturilo.waw.pl/lokalizacje/"}}, {"type": "node", "id": 3676859622, "lat": 52.1872964, "lon": 21.0625961, "tags": {"amenity": "bicycle_rental", "capacity": "15", "name": "Sadyba Best Mall", "network": "Veturilo", "operator": "Nextbike Polska", "ref": "6417", "source": "http://www.veturilo.waw.pl/lokalizacje/"}}, {"type": "node", "id": 3676859624, "lat": 52.2011449, "lon": 20.935338, "tags": {"amenity": "bicycle_rental", "capacity": "19", "name": "al. Jerozolimskie - Popularna", "network": "Veturilo", "operator": "Nextbike Polska", "ref": "9581", "source": "http://www.veturilo.waw.pl/lokalizacje/"}}, {"type": "node", "id": 3676863425, "lat": 52.1757105, "lon": 20.9960301, "tags": {"amenity": "bicycle_rental", "capacity": "15", "name": "IRIS", "network": "Veturilo", "operator": "Nextbike Polska", "ref": "6410", "source": "http://www.veturilo.waw.pl/lokalizacje/"}}, {"type": "node", "id": 3676863426, "lat": 52.1998175, "lon": 21.0509796, "tags": {"amenity": "bicycle_rental", "capacity": "15", "name": "Czerniakowska - ZUS", "network": "Veturilo", "operator": "Nextbike Polska", "ref": "9573", "source": "http://www.veturilo.waw.pl/lokalizacje/"}}, {"type": "node", "id": 3676863427, "lat": 52.2073641, "lon": 21.0479123, "tags": {"amenity": "bicycle_rental", "capacity": "25", "name": "Czerniakowska - Gagarina", "network": "Veturilo", "operator": "Nextbike Polska", "ref": "9567", "source": "http://www.veturilo.waw.pl/lokalizacje/"}}, {"type": "node", "id": 3676863428, "lat": 52.2015929, "lon": 21.0359215, "tags": {"amenity": "bicycle_rental", "capacity": "15", "name": "Sobieskiego - Che\u0142mska", "network": "Veturilo", "operator": "Nextbike Polska", "ref": "9572", "source": "http://www.veturilo.waw.pl/lokalizacje/"}}, {"type": "node", "id": 3676863429, "lat": 52.1818981, "lon": 21.0564216, "tags": {"amenity": "bicycle_rental", "capacity": "22", "name": "Sobieskiego - \u015bw. Bonifacego", "network": "Veturilo", "operator": "Nextbike Polska", "ref": "9591", "source": "http://www.veturilo.waw.pl/lokalizacje/"}}, {"type": "node", "id": 3676863431, "lat": 52.2418882, "lon": 21.0241792, "tags": {"amenity": "bicycle_rental", "capacity": "19", "name": "Lipowa - Dobra", "network": "Veturilo", "operator": "Nextbike Polska", "ref": "9496", "source": "http://www.veturilo.waw.pl/lokalizacje/"}}, {"type": "node", "id": 3676863432, "lat": 52.205562, "lon": 21.0230564, "tags": {"amenity": "bicycle_rental", "capacity": "19", "name": "Pu\u0142awska - Dworkowa", "network": "Veturilo", "operator": "Nextbike Polska", "ref": "9565", "source": "http://www.veturilo.waw.pl/lokalizacje/"}}, {"type": "node", "id": 3676863435, "lat": 52.2083537, "lon": 20.9631279, "tags": {"amenity": "bicycle_rental", "capacity": "19", "name": "P\u0119tla Szcz\u0119\u015bliwice", "network": "Veturilo", "operator": "Nextbike Polska", "ref": "9554", "source": "http://www.veturilo.waw.pl/lokalizacje/"}}, {"type": "node", "id": 3676863437, "lat": 52.2558262, "lon": 21.0100602, "tags": {"amenity": "bicycle_rental", "capacity": "28", "name": "Sanguszki - Wybrze\u017ce Gda\u0144skie", "network": "Veturilo", "operator": "Nextbike Polska", "ref": "9438", "rmikke:checked": "20150904", "source": "http://www.veturilo.waw.pl/lokalizacje/"}}, {"type": "node", "id": 3676863438, "lat": 52.1778762, "lon": 21.0495039, "tags": {"amenity": "bicycle_rental", "capacity": "23", "name": "P\u0119tla Stegny", "network": "Veturilo", "operator": "Nextbike Polska", "ref": "9590", "source": "http://www.veturilo.waw.pl/lokalizacje/"}}, {"type": "node", "id": 3676902224, "lat": 52.2132356, "lon": 20.9550317, "tags": {"amenity": "bicycle_rental", "capacity": "20", "name": "Blue City", "network": "Veturilo", "operator": "Nextbike Polska", "ref": "6404", "source": "http://www.veturilo.waw.pl/lokalizacje/"}}, {"type": "node", "id": 3676904126, "lat": 52.1809329, "lon": 20.9916662, "tags": {"amenity": "bicycle_rental", "capacity": "15", "name": "Citi", "network": "Veturilo", "operator": "Nextbike Polska", "ref": "6406", "source": "http://www.veturilo.waw.pl/lokalizacje/"}}, {"type": "node", "id": 3687452462, "lat": 52.1310253, "lon": 21.0655965}, {"type": "node", "id": 3687452481, "lat": 52.131068, "lon": 21.0655595}, {"type": "node", "id": 3687452486, "lat": 52.1310705, "lon": 21.0653025}, {"type": "node", "id": 3687452500, "lat": 52.1311063, "lon": 21.0653189}, {"type": "node", "id": 3695788570, "lat": 52.2300574, "lon": 21.0303112}, {"type": "node", "id": 3695788573, "lat": 52.2300696, "lon": 21.0301196}, {"type": "node", "id": 3697783474, "lat": 52.2300741, "lon": 21.030313}, {"type": "node", "id": 3697783477, "lat": 52.2300909, "lon": 21.030143}, {"type": "node", "id": 3735092677, "lat": 52.1840293, "lon": 21.0098793, "tags": {"amenity": "bicycle_rental", "capacity": "15", "name": "Nestle House", "network": "Veturilo", "operator": "Nextbike Polska", "ref": "6413", "source": "http://www.veturilo.waw.pl/lokalizacje/"}}, {"type": "node", "id": 3741434124, "lat": 52.2376032, "lon": 20.9554803}, {"type": "node", "id": 3741435026, "lat": 52.2376091, "lon": 20.9554427}, {"type": "node", "id": 3751740708, "lat": 52.1894151, "lon": 20.9454465, "tags": {"amenity": "bicycle_rental", "capacity": "15", "name": "The Park Warsaw", "network": "Veturilo", "operator": "Nextbike Polska", "ref": "6420"}}, {"type": "node", "id": 3856619138, "lat": 52.2372738, "lon": 20.988811}, {"type": "node", "id": 3856619139, "lat": 52.2373424, "lon": 20.9889001}, {"type": "node", "id": 3856619140, "lat": 52.2373512, "lon": 20.9888686}, {"type": "node", "id": 3936724285, "lat": 52.2689357, "lon": 21.038215}, {"type": "node", "id": 3936724287, "lat": 52.2689519, "lon": 21.0382399}, {"type": "node", "id": 3936724291, "lat": 52.2690358, "lon": 21.0379707}, {"type": "node", "id": 3947732903, "lat": 52.1656258, "lon": 21.0839304}, {"type": "node", "id": 3947732950, "lat": 52.1656266, "lon": 21.0839724}, {"type": "node", "id": 3947733127, "lat": 52.1654944, "lon": 21.0839377}, {"type": "node", "id": 4054801241, "lat": 52.1802026, "lon": 21.0027114, "tags": {"amenity": "bicycle_rental", "capacity": "15", "name": "Galeria Mokot\u00f3w wej\u015bcie ul. Wo\u0142oska", "network": "Veturilo", "operator": "Nextbike Polska", "ref": "6425", "source": "https://www.veturilo.waw.pl/lokalizacje/"}}, {"type": "node", "id": 4262360089, "lat": 52.2309076, "lon": 21.0094238, "tags": {"amenity": "bus_station", "bus": "yes", "name": "Warszawa, Plac Defilad", "name:ru": "\u0412\u0430\u0440\u0448\u0430\u0432\u0430, \u041f\u043b\u043e\u0449\u0430\u0434\u044c \u0414\u0435\u0444\u0438\u043b\u0430\u0434", "name:uk": "\u0412\u0430\u0440\u0448\u0430\u0432\u0430, \u041f\u043b\u043e\u0449\u0430 \u0414\u0435\u0444\u0456\u043b\u044f\u0434", "public_transport": "station", "wheelchair": "yes"}}, {"type": "node", "id": 4278149984, "lat": 52.2302504, "lon": 20.9819847, "tags": {"amenity": "bicycle_rental", "capacity": "20", "name": "Proximo", "network": "Veturilo", "operator": "Nextbike Polska", "ref": "6416", "source": "https://www.veturilo.waw.pl/lokalizacje/"}}, {"type": "node", "id": 4357821845, "lat": 52.2375264, "lon": 21.025743}, {"type": "node", "id": 4357821854, "lat": 52.2376726, "lon": 21.0255689}, {"type": "node", "id": 4357821857, "lat": 52.2376862, "lon": 21.0256138}, {"type": "node", "id": 4358027098, "lat": 52.2337064, "lon": 21.0281295, "tags": {"name": "Warszawa Powi\u015ble", "public_transport": "station", "railway": "halt", "train": "yes", "uic_ref": "5104154", "wheelchair": "no", "wikidata": "Q3276715", "wikipedia": "pl:Warszawa Powi\u015ble"}}, {"type": "node", "id": 4360818589, "lat": 52.2298083, "lon": 20.9797795, "tags": {"addr:city": "Warszawa", "addr:housenumber": "70", "addr:street": "Prosta", "amenity": "bicycle_rental", "capacity": "20", "name": "BikeSmart", "network": "JLL Tenants Going Green", "operator": "BikeSmart", "website": "http://bikesmart.pl"}}, {"type": "node", "id": 4364879315, "lat": 52.3131845, "lon": 20.9654647}, {"type": "node", "id": 4364879316, "lat": 52.313209, "lon": 20.9654362}, {"type": "node", "id": 4364879317, "lat": 52.3133128, "lon": 20.9656731}, {"type": "node", "id": 4377569240, "lat": 52.2303313, "lon": 20.9804966, "tags": {"addr:city": "Warszawa", "addr:housenumber": "2", "addr:street": "Hrubieszowska", "amenity": "bicycle_rental", "capacity": "7", "name": "BikeSmart", "network": "JLL Tenants Going Green", "operator": "BikeSmart", "website": "www.bikesmart.pl"}}, {"type": "node", "id": 4377571956, "lat": 52.181904, "lon": 21.021956, "tags": {"addr:city": "Warszawa", "addr:housenumber": "182", "addr:street": "Pu\u0142awska", "amenity": "bicycle_rental", "capacity": "20", "name": "BikeSmart", "network": "JLL Tenants Going Green", "operator": "BikeSmart", "website": "www.bikesmart.pl"}}, {"type": "node", "id": 4377590990, "lat": 52.202114, "lon": 20.9395635, "tags": {"amenity": "bicycle_rental", "capacity": "20", "name": "BikeSmart", "network": "JLL Tenants Going Green", "operator": "BikeSmart"}}, {"type": "node", "id": 4377596341, "lat": 52.1905498, "lon": 20.982812, "tags": {"amenity": "bicycle_rental", "capacity": "25", "name": "BikeSmart", "network": "Ale Jazda Business Garden", "operator": "BikeSmart", "website": "www.bikesmart.pl"}}, {"type": "node", "id": 4418052709, "lat": 52.1753812, "lon": 20.9437001, "tags": {"amenity": "bus_station", "bus": "yes", "name": "P+R Aleja Krakowska", "name:ru": "\u041f\u0430\u0440\u043a\u0438\u043d\u0433+\u043e\u0441\u0442\u0430\u043d\u043e\u0432\u043a\u0430 \u0410\u043b\u0435\u044f \u041a\u0440\u0430\u043a\u043e\u0432\u0441\u043a\u0430\u044f", "name:uk": "\u041f\u0430\u0440\u043a\u0456\u043d\u0433+\u0437\u0443\u043f\u0438\u043d\u043a\u0430 \u0410\u043b\u0435\u044f \u041a\u0440\u0430\u043a\u043e\u0432\u0441\u044c\u043a\u0430", "public_transport": "station", "wheelchair": "yes"}}, {"type": "node", "id": 4448850899, "lat": 52.228487, "lon": 20.9694739}, {"type": "node", "id": 4711670171, "lat": 52.2757488, "lon": 21.0561751, "tags": {"amenity": "bicycle_rental", "capacity": "22", "name": "Metro Trocka", "network": "Veturilo", "note": "Stacja z tym numerem jest przy Metrze, wi\u0119c przenios\u0142em z p\u0119tli", "operator": "Nextbike Polska", "ref": "9641"}}, {"type": "node", "id": 4734958655, "lat": 52.238693, "lon": 20.9422933, "tags": {"amenity": "bicycle_rental", "capacity": "18", "name": "Okocimska - Olbrachta", "network": "Veturilo", "operator": "Nextbike Polska", "ref": "9451"}}, {"type": "node", "id": 4735839367, "lat": 52.2506132, "lon": 21.0533466, "tags": {"amenity": "bicycle_rental", "capacity": "15", "name": "Dworzec Wschodni - Lubelska", "network": "Veturilo", "operator": "Nextbike Polska", "ref": "9452", "source": "https://www.veturilo.waw.pl/mapa-stacji/"}}, {"type": "node", "id": 4778191258, "lat": 52.2465518, "lon": 20.9429552, "tags": {"amenity": "bicycle_rental", "capacity": "16", "name": "Obozowa - Cio\u0142ka", "network": "Veturilo", "operator": "Nextbike Polska", "ref": "9432"}}, {"type": "node", "id": 4795849501, "lat": 52.2297566, "lon": 20.9832048}, {"type": "node", "id": 4795849502, "lat": 52.2297538, "lon": 20.9830922}, {"type": "node", "id": 4795849503, "lat": 52.2297222, "lon": 20.9831045}, {"type": "node", "id": 4795849504, "lat": 52.2297256, "lon": 20.9834397}, {"type": "node", "id": 4795849505, "lat": 52.2297512, "lon": 20.9834432}, {"type": "node", "id": 4827098207, "lat": 52.2325296, "lon": 20.9833316, "tags": {"amenity": "bicycle_rental", "capacity": "20", "name": "Warsaw Spire", "network": "Veturilo", "operator": "Nextbike Polska", "ref": "6423", "source": "http://www.veturilo.waw.pl/lokalizacje/"}}, {"type": "node", "id": 4852470326, "lat": 52.1882199, "lon": 21.0499259, "tags": {"amenity": "bicycle_rental", "capacity": "15", "name": "Sobieskiego - Mangalia", "network": "Veturilo", "operator": "Nextbike Polska", "ref": "9586", "source": "www.veturilo.waw.pl/mapa-stacji/"}}, {"type": "node", "id": 4859116869, "lat": 52.2332373, "lon": 21.0261318}, {"type": "node", "id": 4859116870, "lat": 52.2331219, "lon": 21.0261972}, {"type": "node", "id": 4859116871, "lat": 52.2331191, "lon": 21.0261837}, {"type": "node", "id": 4859116872, "lat": 52.2332344, "lon": 21.0261183}, {"type": "node", "id": 4918457123, "lat": 52.2461606, "lon": 20.9853876, "tags": {"amenity": "bicycle_rental", "capacity": "17", "name": "Smocza - Anielewicza", "network": "Veturilo", "operator": "Nextbike Polska", "ref": "9442"}}, {"type": "node", "id": 4918481421, "lat": 52.2435404, "lon": 20.9873837, "tags": {"amenity": "bicycle_rental", "capacity": "16", "name": "Smocza - Nowolipki", "network": "Veturilo", "operator": "Nextbike Polska", "ref": "9456"}}, {"type": "node", "id": 4919499600, "lat": 52.2985265, "lon": 21.0241251, "tags": {"amenity": "bicycle_rental", "capacity": "15", "name": "Factory Annopol", "network": "Veturilo", "operator": "Nextbike Polska", "ref": "6426", "source": "http://www.veturilo.waw.pl/"}}, {"type": "node", "id": 4930657482, "lat": 52.2330406, "lon": 20.9661341, "tags": {"name": "P\u0142ocka", "name:ru": "\u041f\u043b\u043e\u0446\u043a\u0430", "name:uk": "\u041f\u043b\u043e\u0446\u044c\u043a\u0430", "network": "Warsaw Metro", "operator": "Metro Warszawskie", "public_transport": "station", "railway": "station", "ref": "C-8", "station": "subway", "subway": "yes", "wheelchair": "limited", "wikidata": "Q28673348", "wikipedia": "pl:P\u0142ocka (stacja metra)"}}, {"type": "node", "id": 4930657487, "lat": 52.2753464, "lon": 21.0554496, "tags": {"name": "Trocka", "name:ru": "\u0422\u0440\u043e\u0446\u043a\u0430", "name:uk": "\u0422\u0440\u043e\u0446\u044c\u043a\u0430", "network": "Metro Warszawskie", "public_transport": "station", "railway": "station", "ref": "C-18", "station": "subway", "subway": "yes", "wheelchair": "yes", "wikidata": "Q24947001", "wikipedia": "pl:Trocka (stacja metra)"}}, {"type": "node", "id": 4945646572, "lat": 52.2289111, "lon": 20.978466, "tags": {"amenity": "bicycle_rental", "capacity": "15", "name": "Kasprzaka - Karolkowa", "network": "Veturilo", "operator": "Nextbike Polska", "ref": "9476"}}, {"type": "node", "id": 4946138631, "lat": 52.2285019, "lon": 20.9697302}, {"type": "node", "id": 4946138632, "lat": 52.2285253, "lon": 20.9697265}, {"type": "node", "id": 4946138633, "lat": 52.2285114, "lon": 20.9694707}, {"type": "node", "id": 4946580512, "lat": 52.2374304, "lon": 20.9554325}, {"type": "node", "id": 4951883348, "lat": 52.2105652, "lon": 20.9983614, "tags": {"amenity": "bicycle_rental", "capacity": "14", "name": "Veturilo - Pole Mokotowskie", "network": "Veturilo", "operator": "Nextbike Polska", "ref": "9714"}}, {"type": "node", "id": 4957486554, "lat": 52.2459855, "lon": 20.9625825}, {"type": "node", "id": 4957486555, "lat": 52.2459687, "lon": 20.9625586}, {"type": "node", "id": 4957486556, "lat": 52.2460325, "lon": 20.9624386}, {"type": "node", "id": 4957486557, "lat": 52.2460493, "lon": 20.9624625}, {"type": "node", "id": 4962826923, "lat": 52.2356872, "lon": 20.9966886}, {"type": "node", "id": 4962826924, "lat": 52.2356682, "lon": 20.9964217}, {"type": "node", "id": 4962826925, "lat": 52.2356891, "lon": 20.9964177}, {"type": "node", "id": 4980044960, "lat": 52.2999939, "lon": 21.0425284, "tags": {"amenity": "bicycle_rental", "capacity": "21", "fee": "yes", "name": "P\u0119tla Br\u00f3dno-Podgrodzie", "network": "Veturilo", "operator": "Nextbike Polska", "operator:type": "private", "payment:credit_cards": "yes", "ref": "9631"}}, {"type": "node", "id": 5022838117, "lat": 52.2561392, "lon": 20.9684907}, {"type": "node", "id": 5022838118, "lat": 52.2561599, "lon": 20.9685113}, {"type": "node", "id": 5022838119, "lat": 52.2562064, "lon": 20.9683105}, {"type": "node", "id": 5022838120, "lat": 52.2562271, "lon": 20.9683311}, {"type": "node", "id": 5025141132, "lat": 52.2506999, "lon": 21.0310481, "tags": {"amenity": "bicycle_rental", "capacity": "25", "name": "Sierakowskiego - K\u0142opotowskiego", "network": "Veturilo", "operator": "Nextbike Polska", "ref": "9667"}}, {"type": "node", "id": 5036767192, "lat": 52.2485681, "lon": 21.0296496, "tags": {"amenity": "bicycle_rental", "brand": "Ko\u0142obrzeski Rower Miejski", "brand:wikidata": "Q97373105", "brand:wikipedia": "pl:Ko\u0142obrzeski Rower Miejski", "capacity": "16", "name": "Okrzei - Panie\u0144ska", "network": "Ko\u0142obrzeski Rower Miejski", "network:wikidata": "Q97373105", "network:wikipedia": "pl:Ko\u0142obrzeski Rower Miejski", "operator": "Nextbike Polska", "ref": "9666"}}, {"type": "node", "id": 5037486771, "lat": 52.2519925, "lon": 21.0382737, "tags": {"amenity": "bicycle_rental", "capacity": "18", "name": "Targowa - Z\u0105bkowska", "network": "Veturilo", "operator": "Nextbike Polska", "ref": "9668"}}, {"type": "node", "id": 5046642413, "lat": 52.2734385, "lon": 21.0770068, "tags": {"amenity": "bicycle_rental", "capacity": "15", "name": "Bukowiecka - Zamkowa", "network": "Veturilo", "operator": "Nextbike Polska", "ref": "9646"}}, {"type": "node", "id": 5051332093, "lat": 52.2725971, "lon": 21.0631881, "tags": {"amenity": "bicycle_rental", "capacity": "20", "name": "Radzymi\u0144ska -Trocka", "network": "Veturilo", "operator": "Nextbike Polska", "ref": "9645"}}, {"type": "node", "id": 5051486097, "lat": 52.2602571, "lon": 21.046836, "tags": {"amenity": "bicycle_rental", "capacity": "18", "name": "al. Solidarno\u015bci - Szwedzka", "network": "Veturilo", "operator": "Nextbike Polska", "ref": "9690", "source": "http://www.veturilo.waw.pl/lokalizacje/"}}, {"type": "node", "id": 5058823838, "lat": 52.2042516, "lon": 21.0144639, "tags": {"amenity": "bicycle_rental", "capacity": "24", "name": "Madali\u0144skiego - Kazimierzowska", "network": "Veturilo", "operator": "Nextbike Polska", "ref": "9564", "source": "http://www.veturilo.waw.pl/lokalizacje/"}}, {"type": "node", "id": 5058823839, "lat": 52.2479629, "lon": 21.0196251, "tags": {"amenity": "bicycle_rental", "capacity": "30", "name": "Bulwar \u2013 most \u015al\u0105sko \u2013 D\u0105browski", "network": "Veturilo", "operator": "Nextbike Polska", "ref": "9569", "source": "http://www.veturilo.waw.pl/lokalizacje/"}}, {"type": "node", "id": 5058823840, "lat": 52.2396118, "lon": 21.031253, "tags": {"amenity": "bicycle_rental", "capacity": "30", "name": "Metro Centrum Nauki Kopernik", "network": "Veturilo", "operator": "Nextbike Polska", "ref": "9700", "source": "http://www.veturilo.waw.pl/lokalizacje/"}}, {"type": "node", "id": 5070988020, "lat": 52.2585897, "lon": 20.9710194, "tags": {"amenity": "bicycle_rental", "capacity": "15", "name": "Przasnyska - Rydygiera", "network": "Veturilo", "operator": "Nextbike Polska", "ref": "9428"}}, {"type": "node", "id": 5082258419, "lat": 52.1826136, "lon": 20.998391, "tags": {"amenity": "bicycle_rental", "capacity": "20", "name": "EMPARK", "network": "Veturilo", "operator": "Nextbike Polska", "ref": "6427", "source": "http://www.veturilo.waw.pl/lokalizacje/"}}, {"type": "node", "id": 5084362706, "lat": 52.2376048, "lon": 21.1200716, "tags": {"amenity": "bicycle_rental", "brand": "Ko\u0142obrzeski Rower Miejski", "brand:wikidata": "Q97373105", "brand:wikipedia": "pl:Ko\u0142obrzeski Rower Miejski", "capacity": "16", "name": "P\u0119tla Goc\u0142awek", "network": "Ko\u0142obrzeski Rower Miejski", "network:wikidata": "Q97373105", "network:wikipedia": "pl:Ko\u0142obrzeski Rower Miejski", "operator": "Nextbike Polska", "ref": "9688", "source": "http://www.veturilo.waw.pl/lokalizacje/"}}, {"type": "node", "id": 5084438889, "lat": 52.2071476, "lon": 21.0313512, "tags": {"amenity": "bicycle_rental", "capacity": "30", "name": "Belwederska - Gagarina", "network": "Veturilo", "operator": "Nextbike Polska", "ref": "9566", "source": "http://www.veturilo.waw.pl/lokalizacje/"}}, {"type": "node", "id": 5084438890, "lat": 52.2475561, "lon": 20.9568309, "tags": {"amenity": "bicycle_rental", "capacity": "21", "name": "al. Prymasa Tysi\u0105clecia - Obozowa", "network": "Veturilo", "operator": "Nextbike Polska", "ref": "9665", "source": "http://www.veturilo.waw.pl/lokalizacje/"}}, {"type": "node", "id": 5089953498, "lat": 52.2923911, "lon": 21.0569315, "tags": {"amenity": "bicycle_rental", "capacity": "30", "name": "Kondratowicza - Przy Grodzisku", "network": "Veturilo", "operator": "Nextbike Polska", "ref": "9635", "source": "http://www.veturilo.waw.pl/lokalizacje/"}}, {"type": "node", "id": 5092151753, "lat": 52.3202471, "lon": 21.0079214, "tags": {"amenity": "bicycle_rental", "capacity": "15", "name": "CH Marywilska 44", "network": "Veturilo", "operator": "Nextbike Polska", "ref": "6428"}}, {"type": "node", "id": 5092268139, "lat": 52.3031462, "lon": 20.9892266, "tags": {"amenity": "bicycle_rental", "capacity": "30", "name": "Modli\u0144ska - \u017bera\u0144ska", "network": "Veturilo", "operator": "Nextbike Polska", "ref": "9629"}}, {"type": "node", "id": 5098053427, "lat": 52.2498637, "lon": 21.0429183, "tags": {"amenity": "bicycle_rental", "capacity": "18", "name": "Targowa - Kijowska", "network": "Veturilo", "operator": "Nextbike Polska", "ref": "9673"}}, {"type": "node", "id": 5100883968, "lat": 52.2419574, "lon": 21.015981, "tags": {"amenity": "bicycle_rental", "capacity": "15", "name": "E-bike - Karowa \u2013 Krakowskie Przedmie\u015bcie", "network": "Veturilo", "operator": "Nextbike Polska", "ref": "9710", "rental": "ebike", "source": "https://www.veturilo.waw.pl/mapa-stacji/"}}, {"type": "node", "id": 5101702103, "lat": 52.2697779, "lon": 21.0512809, "tags": {"amenity": "bicycle_rental", "capacity": "17", "name": "Metro Targ\u00f3wek Mieszkaniowy", "network": "Veturilo", "operator": "Nextbike Polska", "ref": "9644"}}, {"type": "node", "id": 5108086725, "lat": 52.2596787, "lon": 21.0530131, "tags": {"amenity": "bicycle_rental", "capacity": "24", "name": "Radzymi\u0144ska - \u0141om\u017cy\u0144ska", "network": "Veturilo", "operator": "Nextbike Polska", "ref": "9671", "source": "http://www.veturilo.waw.pl/lokalizacje/"}}, {"type": "node", "id": 5108086726, "lat": 52.2558789, "lon": 21.0495677, "tags": {"amenity": "bicycle_rental", "capacity": "26", "name": "Radzymi\u0144ska - Wiosenna", "network": "Veturilo", "operator": "Nextbike Polska", "ref": "9670", "source": "http://www.veturilo.waw.pl/lokalizacje/"}}, {"type": "node", "id": 5117464830, "lat": 52.2350954, "lon": 21.0078988, "tags": {"name": "\u015awi\u0119tokrzyska", "name:be": "\u0428\u0432\u0435\u043d\u0442\u0430\u043a\u0448\u044b\u0441\u043a\u0430", "name:pl": "\u015awi\u0119tokrzyska", "name:ru": "\u0421\u0432\u0435\u043d\u0442\u043e\u043a\u0448\u0438\u0441\u043a\u0430", "name:uk": "\u0421\u0432\u0435\u043d\u0442\u043e\u043a\u0448\u0438\u0441\u044c\u043a\u0430", "network": "Warsaw Metro", "public_transport": "station", "railway": "station", "ref": "A-14;C-11", "station": "subway", "subway": "yes", "wheelchair": "yes", "wikidata": "Q638914", "wikipedia": "pl:\u015awi\u0119tokrzyska (stacja metra)"}}, {"type": "node", "id": 5183296329, "lat": 52.2488118, "lon": 20.9201268, "tags": {"amenity": "bicycle_rental", "capacity": "22", "name": "Radiowa - Wroc\u0142awska", "network": "Veturilo", "operator": "Nextbike Polska", "ref": "9722"}}, {"type": "node", "id": 5221374767, "lat": 52.2361387, "lon": 21.0220225, "tags": {"amenity": "bicycle_rental", "capacity": "20", "name": "Ordynacka - Uniwersytet Muzyczny", "network": "Veturilo", "operator": "Nextbike Polska", "ref": "9408", "wheelchair": "no"}}, {"type": "node", "id": 5310449779, "lat": 52.2574955, "lon": 20.9945939}, {"type": "node", "id": 5322601951, "lat": 52.2447078, "lon": 21.0875969, "tags": {"amenity": "bus_station", "bus": "yes", "name": "P\u0119tla Wiatraczna", "name:ru": "\u041f\u0435\u0442\u043b\u044f \u0412\u044f\u0442\u0440\u0430\u0447\u043d\u0430", "name:uk": "\u041f\u0435\u0442\u043b\u044f \u0412\u044f\u0442\u0440\u0430\u0447\u043d\u0430", "public_transport": "station", "wheelchair": "yes"}}, {"type": "node", "id": 5326909307, "lat": 52.2300383, "lon": 20.9515703}, {"type": "node", "id": 5326909308, "lat": 52.2300287, "lon": 20.9515608}, {"type": "node", "id": 5326909309, "lat": 52.2301644, "lon": 20.9511869}, {"type": "node", "id": 5326909310, "lat": 52.230174, "lon": 20.9511963}, {"type": "node", "id": 5341730689, "lat": 52.1522407, "lon": 21.0563864}, {"type": "node", "id": 5341730690, "lat": 52.1522237, "lon": 21.0563522}, {"type": "node", "id": 5341730691, "lat": 52.152084, "lon": 21.056536}, {"type": "node", "id": 5341730692, "lat": 52.152101, "lon": 21.0565703}, {"type": "node", "id": 5357107143, "lat": 52.2612211, "lon": 20.9862564, "tags": {"amenity": "bicycle_rental", "capacity": "15", "name": "Zaj\u0105czka - Bitwy Pod Rokitn\u0105", "network": "Veturilo", "operator": "Nextbike Polska", "ref": "9421"}}, {"type": "node", "id": 5428975314, "lat": 52.3241775, "lon": 21.0565768, "tags": {"amenity": "bicycle_rental", "capacity": "26", "name": "Skarbka z G\u00f3r - Berensona", "network": "Veturilo", "operator": "Nextbike Polska", "ref": "9623"}}, {"type": "node", "id": 5428975315, "lat": 52.3484107, "lon": 20.941856, "tags": {"amenity": "bicycle_rental", "capacity": "16", "name": "Aluzyjna - Tr\u0105by", "network": "Veturilo", "operator": "Nextbike Polska", "ref": "9624"}}, {"type": "node", "id": 5428975316, "lat": 52.3212355, "lon": 20.9477497, "tags": {"amenity": "bicycle_rental", "capacity": "30", "name": "Bia\u0142o\u0142\u0119cki O\u015brodek Sportu", "network": "Veturilo", "operator": "Nextbike Polska", "ref": "9626"}}, {"type": "node", "id": 5432952736, "lat": 52.2798584, "lon": 20.9734039, "tags": {"amenity": "bicycle_rental", "capacity": "16", "name": "Klaudyny - Rudzka", "network": "Veturilo", "operator": "Nextbike Polska", "ref": "9699"}}, {"type": "node", "id": 5476149095, "lat": 52.2562488, "lon": 21.0295956}, {"type": "node", "id": 5476149096, "lat": 52.2562332, "lon": 21.0295616}, {"type": "node", "id": 5476149097, "lat": 52.2563388, "lon": 21.0294325}, {"type": "node", "id": 5476149098, "lat": 52.2563453, "lon": 21.0294468}, {"type": "node", "id": 5476149099, "lat": 52.2563122, "lon": 21.0294989, "tags": {"amenity": "bicycle_rental", "capacity": "16", "name": "Jagiello\u0144ska - Ratuszowa", "network": "Veturilo", "operator": "Nextbike Polska", "ref": "9657"}}, {"type": "node", "id": 5523660922, "lat": 52.2296909, "lon": 21.004321}, {"type": "node", "id": 5548653080, "lat": 52.1786881, "lon": 21.0017725}, {"type": "node", "id": 5548653081, "lat": 52.1786954, "lon": 21.0017345}, {"type": "node", "id": 5548653082, "lat": 52.1788953, "lon": 21.0018782}, {"type": "node", "id": 5548653083, "lat": 52.1789026, "lon": 21.0018402}, {"type": "node", "id": 5568665109, "lat": 52.3336604, "lon": 20.9421801}, {"type": "node", "id": 5568665110, "lat": 52.3337208, "lon": 20.9421972}, {"type": "node", "id": 5569329207, "lat": 52.1241883, "lon": 21.1026308, "tags": {"amenity": "bicycle_rental", "capacity": "22", "name": "Przycz\u00f3\u0142kowa - Ptysiowa", "network": "Veturilo", "operator": "Nextbike Polska", "ref": "9726"}}, {"type": "node", "id": 5569329208, "lat": 52.1162732, "lon": 21.0876418, "tags": {"amenity": "bicycle_rental", "capacity": "23", "name": "Park Kultury w Powsinie", "network": "Veturilo", "operator": "Nextbike Polska", "ref": "9728"}}, {"type": "node", "id": 5569329209, "lat": 52.1170423, "lon": 21.0926331, "tags": {"amenity": "bicycle_rental", "capacity": "26", "name": "Opie\u0144ki \u2013 Ma\u015blak\u00f3w", "network": "Veturilo", "operator": "Nextbike Polska", "ref": "9727"}}, {"type": "node", "id": 5569343049, "lat": 52.2032941, "lon": 21.0478694, "tags": {"amenity": "bicycle_rental", "capacity": "23", "name": "AGORA", "network": "Veturilo", "operator": "Nextbike Polska", "ref": "6440"}}, {"type": "node", "id": 5569417499, "lat": 52.1864482, "lon": 21.0254449, "tags": {"amenity": "bicycle_rental", "capacity": "17", "name": "Pu\u0142awska - Idzikowskiego", "network": "Veturilo", "operator": "Nextbike Polska", "ref": "9585"}}, {"type": "node", "id": 5569417500, "lat": 52.1711653, "lon": 21.0061514, "tags": {"amenity": "bicycle_rental", "capacity": "15", "name": "Gintrowskiego - Gotarda", "network": "Veturilo", "operator": "Nextbike Polska", "ref": "9593"}}, {"type": "node", "id": 5569417501, "lat": 52.1631462, "lon": 20.9935505, "tags": {"amenity": "bicycle_rental", "capacity": "15", "name": "Central Park Ursyn\u00f3w", "network": "Veturilo", "operator": "Nextbike Polska", "ref": "6405"}}, {"type": "node", "id": 5569454146, "lat": 52.2053893, "lon": 20.9845224, "tags": {"amenity": "bicycle_rental", "capacity": "17", "name": "\u017bwirki i Wigury - Ksi\u0119cia Trojdena", "network": "Veturilo", "operator": "Nextbike Polska", "ref": "9556"}}, {"type": "node", "id": 5569454147, "lat": 52.1981141, "lon": 20.9833801, "tags": {"amenity": "bicycle_rental", "brand": "Ko\u0142obrzeski Rower Miejski", "brand:wikidata": "Q97373105", "brand:wikipedia": "pl:Ko\u0142obrzeski Rower Miejski", "capacity": "18", "name": "\u017bwirki i Wigury - Rac\u0142awicka", "network": "Ko\u0142obrzeski Rower Miejski", "network:wikidata": "Q97373105", "network:wikipedia": "pl:Ko\u0142obrzeski Rower Miejski", "operator": "Nextbike Polska", "ref": "9562"}}, {"type": "node", "id": 5569454148, "lat": 52.2018018, "lon": 20.9998696, "tags": {"amenity": "bicycle_rental", "capacity": "15", "name": "Wo\u0142oska - Kulskiego", "network": "Veturilo", "operator": "Nextbike Polska", "ref": "9563"}}, {"type": "node", "id": 5569454149, "lat": 52.1957584, "lon": 21.0025088, "tags": {"amenity": "bicycle_rental", "capacity": "16", "name": "Wo\u0142oska - Ody\u0144ca", "network": "Veturilo", "operator": "Nextbike Polska", "ref": "9401"}}, {"type": "node", "id": 5569454150, "lat": 52.1995109, "lon": 21.0241239, "tags": {"amenity": "bicycle_rental", "capacity": "18", "name": "Pu\u0142awska - Dolna", "network": "Veturilo", "operator": "Nextbike Polska", "ref": "9571"}}, {"type": "node", "id": 5569574678, "lat": 52.234534, "lon": 21.0387258, "tags": {"amenity": "bicycle_rental", "capacity": "15", "name": "E-bike - Wio\u015blarska - Ludna", "network": "Veturilo", "operator": "Nextbike Polska", "ref": "9704", "rental": "ebike"}}, {"type": "node", "id": 5569574679, "lat": 52.2279582, "lon": 21.0233958, "tags": {"amenity": "bicycle_rental", "capacity": "15", "name": "E-bike - Plac Trzech Krzy\u017cy", "network": "Veturilo", "operator": "Nextbike Polska", "ref": "9705", "rental": "ebike"}}, {"type": "node", "id": 5569574680, "lat": 52.2260513, "lon": 21.0066399, "tags": {"amenity": "bicycle_rental", "capacity": "15", "name": "Emilii Plater - Wsp\u00f3lna", "network": "Veturilo", "operator": "Nextbike Polska", "ref": "9518"}}, {"type": "node", "id": 5569574681, "lat": 52.220672, "lon": 21.0045558, "tags": {"amenity": "bicycle_rental", "capacity": "30", "name": "al. Niepodleg\u0142o\u015bci - Nowowiejska", "network": "Veturilo", "operator": "Nextbike Polska", "ref": "9535"}}, {"type": "node", "id": 5569574682, "lat": 52.2168156, "lon": 21.0046625, "tags": {"amenity": "bicycle_rental", "capacity": "30", "name": "al. Armii Ludowej - al. Niepodleg\u0142o\u015bci", "network": "Veturilo", "operator": "Nextbike Polska", "ref": "9536"}}, {"type": "node", "id": 5569574683, "lat": 52.2127264, "lon": 21.0034186, "tags": {"amenity": "bicycle_rental", "capacity": "24", "name": "Biblioteka Narodowa", "network": "Veturilo", "operator": "Nextbike Polska", "ref": "9552"}}, {"type": "node", "id": 5569574684, "lat": 52.2060989, "lon": 20.9703304, "tags": {"amenity": "bicycle_rental", "capacity": "16", "name": "Dickensa - Geodet\u00f3w", "network": "Veturilo", "operator": "Nextbike Polska", "ref": "9555"}}, {"type": "node", "id": 5569630368, "lat": 52.2377609, "lon": 21.0255294, "tags": {"amenity": "bicycle_rental", "capacity": "15", "name": "E-bike - Topiel \u2013 Tamka", "network": "Veturilo", "operator": "Nextbike Polska", "ref": "9701", "rental": "ebike"}}, {"type": "node", "id": 5569630369, "lat": 52.2368526, "lon": 21.0174465, "tags": {"amenity": "bicycle_rental", "capacity": "15", "name": "E-bike - Metro Nowy \u015awiat-Uniwersytet", "network": "Veturilo", "operator": "Nextbike Polska", "ref": "9707", "rental": "ebike"}}, {"type": "node", "id": 5569630370, "lat": 52.2309057, "lon": 21.0036767, "tags": {"amenity": "bicycle_rental", "capacity": "30", "name": "Emilii Plater - Z\u0142ota", "network": "Veturilo", "operator": "Nextbike Polska", "ref": "9501"}}, {"type": "node", "id": 5569630372, "lat": 52.2315205, "lon": 20.9892431, "tags": {"amenity": "bicycle_rental", "capacity": "15", "name": "Prosta - Wronia", "network": "Veturilo", "operator": "Nextbike Polska", "ref": "9479"}}, {"type": "node", "id": 5569630373, "lat": 52.2264111, "lon": 20.9836292, "tags": {"amenity": "bicycle_rental", "capacity": "16", "name": "Kolejowa", "network": "Veturilo", "operator": "Nextbike Polska", "ref": "9498"}}, {"type": "node", "id": 5569630374, "lat": 52.2278093, "lon": 21.0007471, "tags": {"amenity": "bicycle_rental", "capacity": "18", "name": "Warszawa \u015ar\u00f3dmie\u015bcie WKD", "network": "Veturilo", "operator": "Nextbike Polska", "ref": "9514"}}, {"type": "node", "id": 5569630375, "lat": 52.235823, "lon": 21.0317567, "tags": {"amenity": "bicycle_rental", "capacity": "15", "name": "Solec - Jaracza", "network": "Veturilo", "operator": "Nextbike Polska", "ref": "9508"}}, {"type": "node", "id": 5569699476, "lat": 52.2575279, "lon": 20.9195459, "tags": {"amenity": "bicycle_rental", "capacity": "22", "name": "Powsta\u0144c\u00f3w \u015al\u0105skich - Wroc\u0142awska", "network": "Veturilo", "operator": "Nextbike Polska", "ref": "9723"}}, {"type": "node", "id": 5569699477, "lat": 52.2494576, "lon": 20.8977368, "tags": {"amenity": "bicycle_rental", "capacity": "22", "name": "Urbanowicza - Kocjana", "network": "Veturilo", "operator": "Nextbike Polska", "ref": "9721"}}, {"type": "node", "id": 5569699478, "lat": 52.2207228, "lon": 20.8978254, "tags": {"amenity": "bicycle_rental", "capacity": "22", "name": "Lazurowa - Sternicza", "network": "Veturilo", "operator": "Nextbike Polska", "ref": "9718"}}, {"type": "node", "id": 5569699479, "lat": 52.2341472, "lon": 20.9348693, "tags": {"amenity": "bicycle_rental", "capacity": "16", "name": "Jana Olbrachta - Antka Rozpylacza", "network": "Veturilo", "operator": "Nextbike Polska", "ref": "9459"}}, {"type": "node", "id": 5569699480, "lat": 52.2249834, "lon": 20.9454882, "tags": {"amenity": "bicycle_rental", "capacity": "21", "name": "Jana Kazimierza - Giz\u00f3w", "network": "Veturilo", "opening_hours": "24/7", "operator": "Nextbike Polska", "ref": "9471"}}, {"type": "node", "id": 5569699481, "lat": 52.2273727, "lon": 20.9568289, "tags": {"amenity": "bicycle_rental", "capacity": "27", "name": "al. Prymasa Tysi\u0105clecia - Kasprzaka", "network": "Veturilo", "operator": "Nextbike Polska", "ref": "9433"}}, {"type": "node", "id": 5569699482, "lat": 52.2396252, "lon": 21.0003608, "tags": {"amenity": "bicycle_rental", "capacity": "16", "name": "Ptasia - Zimna", "network": "Veturilo", "operator": "Nextbike Polska", "ref": "9485"}}, {"type": "node", "id": 5569699483, "lat": 52.2422996, "lon": 21.0272138, "tags": {"amenity": "bicycle_rental", "capacity": "15", "name": "E-bike - Centrum Nauki Kopernik", "network": "Veturilo", "operator": "Nextbike Polska", "ref": "9703", "rental": "ebike"}}, {"type": "node", "id": 5569728667, "lat": 52.2535578, "lon": 20.9799251, "tags": {"amenity": "bicycle_rental", "capacity": "20", "name": "Pow\u0105zkowska - Burakowska", "network": "Veturilo", "operator": "Nextbike Polska", "ref": "9429"}}, {"type": "node", "id": 5569728668, "lat": 52.2643672, "lon": 20.9723747, "tags": {"amenity": "bicycle_rental", "capacity": "16", "name": "Broniewskiego - Krasi\u0144skiego", "network": "Veturilo", "operator": "Nextbike Polska", "ref": "9418"}}, {"type": "node", "id": 5569728669, "lat": 52.2591719, "lon": 20.9607162, "tags": {"amenity": "bicycle_rental", "capacity": "30", "name": "Pow\u0105zkowska - Krasi\u0144skiego", "network": "Veturilo", "operator": "Nextbike Polska", "ref": "9426"}}, {"type": "node", "id": 5569728670, "lat": 52.2733604, "lon": 20.9944734, "tags": {"amenity": "bicycle_rental", "capacity": "16", "name": "Gwia\u017adzista - Promyka", "network": "Veturilo", "operator": "Nextbike Polska", "ref": "9412"}}, {"type": "node", "id": 5569728671, "lat": 52.2787155, "lon": 20.9917461, "tags": {"amenity": "bicycle_rental", "capacity": "14", "name": "Veturilko - K\u0119pa Potocka", "network": "Veturilo", "not:brand:wikidata": "Q23955689", "operator": "Nextbike Polska", "ref": "9711"}}, {"type": "node", "id": 5569785019, "lat": 52.2449353, "lon": 21.0227391, "tags": {"amenity": "bicycle_rental", "capacity": "15", "name": "E-bike - Karowa \u2013 Wybrze\u017ce Ko\u015bciuszkowskie", "network": "Veturilo", "operator": "Nextbike Polska", "ref": "9709", "rental": "ebike"}}, {"type": "node", "id": 5569785020, "lat": 52.2456455, "lon": 21.017485, "tags": {"amenity": "bicycle_rental", "capacity": "15", "name": "E-bike - Sowia", "network": "Veturilo", "operator": "Nextbike Polska", "ref": "9702", "rental": "ebike"}}, {"type": "node", "id": 5569785421, "lat": 52.2444275, "lon": 20.991759, "tags": {"amenity": "bicycle_rental", "capacity": "16", "name": "al. Jana Paw\u0142a II - Nowolipki", "network": "Veturilo", "operator": "Nextbike Polska", "ref": "9457"}}, {"type": "node", "id": 5569785422, "lat": 52.2410459, "lon": 20.9832028, "tags": {"amenity": "bicycle_rental", "capacity": "16", "name": "Wolno\u015b\u0107 - Bellottiego", "network": "Veturilo", "operator": "Nextbike Polska", "ref": "9455"}}, {"type": "node", "id": 5569785423, "lat": 52.2442239, "lon": 20.9779349, "tags": {"amenity": "bicycle_rental", "capacity": "20", "name": "Okopowa - Anielewicza", "network": "Veturilo", "operator": "Nextbike Polska", "ref": "9440"}}, {"type": "node", "id": 5569785424, "lat": 52.2485988, "lon": 20.9835488, "tags": {"amenity": "bicycle_rental", "capacity": "15", "name": "Smocza - Mi\u0142a", "network": "Veturilo", "operator": "Nextbike Polska", "ref": "9441"}}, {"type": "node", "id": 5569785425, "lat": 52.2489905, "lon": 20.9949722, "tags": {"amenity": "bicycle_rental", "capacity": "15", "name": "Anielewicza - Zamenhofa", "network": "Veturilo", "operator": "Nextbike Polska", "ref": "9444"}}, {"type": "node", "id": 5569785426, "lat": 52.2534642, "lon": 20.9923705, "tags": {"amenity": "bicycle_rental", "capacity": "13", "name": "Stawki - Dubois", "network": "Veturilo", "operator": "Nextbike Polska", "ref": "9436"}}, {"type": "node", "id": 5569785427, "lat": 52.2515266, "lon": 21.0027587, "tags": {"amenity": "bicycle_rental", "capacity": "18", "name": "Bonifraterska - Franciszka\u0144ska", "network": "Veturilo", "operator": "Nextbike Polska", "ref": "9446"}}, {"type": "node", "id": 5571199731, "lat": 52.2886267, "lon": 21.0312119, "tags": {"amenity": "bicycle_rental", "capacity": "30", "name": "Rembieli\u0144ska - Wyszogrodzka", "network": "Veturilo", "operator": "Nextbike Polska", "ref": "9637"}}, {"type": "node", "id": 5571199732, "lat": 52.2877071, "lon": 21.0214321, "tags": {"amenity": "bicycle_rental", "capacity": "23", "name": "Wysockiego - Poborza\u0144ska", "network": "Veturilo", "operator": "Nextbike Polska", "ref": "9636"}}, {"type": "node", "id": 5571199733, "lat": 52.2812202, "lon": 21.0257999, "tags": {"amenity": "bicycle_rental", "capacity": "17", "name": "Wysockiego - Matki Teresy z Kalkuty", "network": "Veturilo", "operator": "Nextbike Polska", "ref": "9639"}}, {"type": "node", "id": 5571199734, "lat": 52.2714011, "lon": 21.015689, "tags": {"amenity": "bicycle_rental", "capacity": "16", "name": "Jagiello\u0144ska - ALK", "network": "Veturilo", "operator": "Nextbike Polska", "ref": "9642"}}, {"type": "node", "id": 5571199735, "lat": 52.2655394, "lon": 21.0311287, "tags": {"amenity": "bicycle_rental", "capacity": "15", "name": "Namys\u0142owska - Darwina", "network": "Veturilo", "operator": "Nextbike Polska", "ref": "9651"}}, {"type": "node", "id": 5571199736, "lat": 52.2614329, "lon": 21.0376174, "tags": {"amenity": "bicycle_rental", "capacity": "30", "name": "11 Listopada - Ratuszowa", "network": "Veturilo", "operator": "Nextbike Polska", "ref": "9658"}}, {"type": "node", "id": 5571199737, "lat": 52.2631523, "lon": 21.0382472, "tags": {"amenity": "bicycle_rental", "capacity": "18", "name": "11 listopada - \u015arodkowa", "network": "Veturilo", "operator": "Nextbike Polska", "ref": "9659"}}, {"type": "node", "id": 5571199738, "lat": 52.2629705, "lon": 21.0341235, "tags": {"amenity": "bicycle_rental", "capacity": "16", "name": "Namys\u0142owska - Szymanowskiego", "network": "Veturilo", "operator": "Nextbike Polska", "ref": "9655"}}, {"type": "node", "id": 5571199739, "lat": 52.2604102, "lon": 21.0414416, "tags": {"amenity": "bicycle_rental", "capacity": "15", "name": "Stalowa - Czynszowa", "network": "Veturilo", "operator": "Nextbike Polska", "ref": "9680"}}, {"type": "node", "id": 5571199740, "lat": 52.2579035, "lon": 21.0400227, "tags": {"amenity": "bicycle_rental", "capacity": "16", "name": "Wile\u0144ska - Rzeszotarskiej", "network": "Veturilo", "operator": "Nextbike Polska", "ref": "9664"}}, {"type": "node", "id": 5571199741, "lat": 52.2583941, "lon": 21.058491, "tags": {"amenity": "bicycle_rental", "capacity": "30", "name": "P\u0119tla Kaw\u0119czy\u0144ska-Bazylika", "network": "Veturilo", "operator": "Nextbike Polska", "ref": "9672"}}, {"type": "node", "id": 5571199742, "lat": 52.2546382, "lon": 21.0437268, "tags": {"amenity": "bicycle_rental", "capacity": "25", "name": "Fabryka W\u00f3dek Koneser", "network": "Veturilo", "operator": "Nextbike Polska", "ref": "9669"}}, {"type": "node", "id": 5571199743, "lat": 52.2526857, "lon": 21.0290181, "tags": {"amenity": "bicycle_rental", "capacity": "14", "name": "Veturilko - Park Praski", "network": "Veturilo", "operator": "Nextbike Polska", "ref": "9713"}}, {"type": "node", "id": 5571199744, "lat": 52.2471492, "lon": 21.0566058, "tags": {"amenity": "bicycle_rental", "capacity": "30", "name": "Grochowska - Mi\u0144ska", "network": "Veturilo", "operator": "Nextbike Polska", "ref": "9677"}}, {"type": "node", "id": 5571199745, "lat": 52.2497098, "lon": 21.0918235, "tags": {"amenity": "bicycle_rental", "capacity": "26", "name": "Szaser\u00f3w \u2013 Garwoli\u0144ska", "network": "Veturilo", "operator": "Nextbike Polska", "ref": "9698"}}, {"type": "node", "id": 5571199746, "lat": 52.2502183, "lon": 21.0771578, "tags": {"amenity": "bicycle_rental", "capacity": "24", "name": "Dwernickiego - Siennicka", "network": "Veturilo", "operator": "Nextbike Polska", "ref": "9679"}}, {"type": "node", "id": 5571199747, "lat": 52.2422305, "lon": 21.0710501, "tags": {"amenity": "bicycle_rental", "capacity": "15", "name": "Waszyngtona - Kinowa", "network": "Veturilo", "operator": "Nextbike Polska", "ref": "9683"}}, {"type": "node", "id": 5571199748, "lat": 52.2348011, "lon": 21.0998131, "tags": {"amenity": "bicycle_rental", "capacity": "23", "name": "Ostrobramska - Zamieniecka", "network": "Veturilo", "operator": "Nextbike Polska", "ref": "9692"}}, {"type": "node", "id": 5571199749, "lat": 52.2295888, "lon": 21.094487, "tags": {"amenity": "bicycle_rental", "capacity": "20", "name": "Fieldorfa - Bukowskiego", "network": "Veturilo", "operator": "Nextbike Polska", "ref": "9695"}}, {"type": "node", "id": 5571199750, "lat": 52.2222598, "lon": 21.0907554, "tags": {"amenity": "bicycle_rental", "capacity": "15", "name": "Meissnera - Fieldorfa", "network": "Veturilo", "operator": "Nextbike Polska", "ref": "9697"}}, {"type": "node", "id": 5571199751, "lat": 52.2357823, "lon": 21.0803258, "tags": {"amenity": "bicycle_rental", "capacity": "20", "name": "al. Stan\u00f3w Zjednoczonych - Ostrobramska", "network": "Veturilo", "operator": "Nextbike Polska", "ref": "9661"}}, {"type": "node", "id": 5571199752, "lat": 52.2258292, "lon": 21.0600735, "tags": {"amenity": "bicycle_rental", "capacity": "15", "name": "Brukselska - PROM", "network": "Veturilo", "operator": "Nextbike Polska", "ref": "9689"}}, {"type": "node", "id": 5571199753, "lat": 52.2301604, "lon": 21.0679841, "tags": {"amenity": "bicycle_rental", "capacity": "26", "name": "al. Stan\u00f3w Zjednoczonych - Mi\u0119dzynarodowa", "network": "Veturilo", "operator": "Nextbike Polska", "ref": "9691"}}, {"type": "node", "id": 5571199754, "lat": 52.2384442, "lon": 21.0508823, "tags": {"amenity": "bicycle_rental", "capacity": "14", "name": "Veturilko - Rondo Waszyngtona - Stadion Narodowy", "network": "Veturilo", "operator": "Nextbike Polska", "ref": "9715"}}, {"type": "node", "id": 5571669910, "lat": 52.2435423, "lon": 21.0067257, "tags": {"amenity": "bicycle_rental", "capacity": "17", "name": "Senatorska - Biela\u0144ska", "network": "Veturilo", "operator": "Nextbike Polska", "ref": "9466"}}, {"type": "node", "id": 5571669911, "lat": 52.2401787, "lon": 20.9878537, "tags": {"amenity": "bicycle_rental", "capacity": "15", "name": "Wola-Ratusz", "network": "Veturilo", "operator": "Nextbike Polska", "ref": "9460"}}, {"type": "node", "id": 5571669912, "lat": 52.2430496, "lon": 20.9805098, "tags": {"amenity": "bicycle_rental", "capacity": "20", "name": "Dzielna - Bellottiego", "network": "Veturilo", "operator": "Nextbike Polska", "ref": "9454"}}, {"type": "node", "id": 5571669913, "lat": 52.2692842, "lon": 20.9838197, "tags": {"amenity": "bicycle_rental", "capacity": "21", "name": "Metro Plac Wilsona", "network": "Veturilo", "operator": "Nextbike Polska", "ref": "9416"}}, {"type": "node", "id": 5571669914, "lat": 52.281608, "lon": 20.9498193, "tags": {"amenity": "bicycle_rental", "capacity": "30", "name": "Metro Stare Bielany", "network": "Veturilo", "operator": "Nextbike Polska", "ref": "9407"}}, {"type": "node", "id": 5571669915, "lat": 52.2336018, "lon": 21.0146436, "tags": {"amenity": "bicycle_rental", "capacity": "16", "name": "G\u00f3rskiego - Szpitalna", "network": "Veturilo", "operator": "Nextbike Polska", "ref": "9406"}}, {"type": "node", "id": 5572191950, "lat": 52.259165, "lon": 21.0262561, "tags": {"amenity": "bicycle_rental", "capacity": "20", "name": "Jagiello\u0144ska - Plac Hallera", "network": "Veturilo", "operator": "Nextbike Polska", "ref": "9653"}}, {"type": "node", "id": 5572191951, "lat": 52.2641767, "lon": 21.0262012, "tags": {"amenity": "bicycle_rental", "capacity": "21", "name": "Darwina - Nusbauma-Hilarowicza", "network": "Veturilo", "operator": "Nextbike Polska", "ref": "9650"}}, {"type": "node", "id": 5572191952, "lat": 52.2864473, "lon": 21.0402223, "tags": {"amenity": "bicycle_rental", "capacity": "15", "name": "Chodecka - \u017buromi\u0144ska", "network": "Veturilo", "operator": "Nextbike Polska", "ref": "9638"}}, {"type": "node", "id": 5572191954, "lat": 52.3226749, "lon": 20.9447774, "tags": {"amenity": "bicycle_rental", "capacity": "16", "name": "\u015awiatowida - Mehoffera", "network": "Veturilo", "operator": "Nextbike Polska", "ref": "9625"}}, {"type": "node", "id": 5572191955, "lat": 52.1426823, "lon": 21.0448185, "tags": {"amenity": "bicycle_rental", "capacity": "22", "name": "Dereniowa - P\u0142askowickiej", "network": "Veturilo", "operator": "Nextbike Polska", "ref": "9615"}}, {"type": "node", "id": 5572191956, "lat": 52.1573109, "lon": 21.0439332, "tags": {"amenity": "bicycle_rental", "capacity": "30", "name": "Roso\u0142a - Ciszewskiego - SGGW", "network": "Veturilo", "operator": "Nextbike Polska", "ref": "9608"}}, {"type": "node", "id": 5572191957, "lat": 52.1733966, "lon": 21.0319244, "tags": {"amenity": "bicycle_rental", "capacity": "30", "name": "Wa\u0142brzyska - Wr\u00f3bla", "network": "Veturilo", "operator": "Nextbike Polska", "ref": "959"}}, {"type": "node", "id": 5572191958, "lat": 52.1732466, "lon": 21.0257137, "tags": {"amenity": "bicycle_rental", "capacity": "24", "name": "Metro S\u0142u\u017cew", "network": "Veturilo", "operator": "Nextbike Polska", "ref": "9595"}}, {"type": "node", "id": 5572191959, "lat": 52.1702585, "lon": 20.9960291, "tags": {"amenity": "bicycle_rental", "capacity": "30", "name": "P\u0119tla Bokserska", "network": "Veturilo", "operator": "Nextbike Polska", "ref": "9592"}}, {"type": "node", "id": 5572191960, "lat": 52.1993449, "lon": 21.0122269, "tags": {"amenity": "bicycle_rental", "capacity": "30", "name": "Metro Rac\u0142awicka", "network": "Veturilo", "operator": "Nextbike Polska", "ref": "9570"}}, {"type": "node", "id": 5572191961, "lat": 52.1937468, "lon": 20.9914157, "tags": {"amenity": "bicycle_rental", "capacity": "18", "name": "Etiudy Rewolucyjnej - Mi\u0105czy\u0144ska", "network": "Veturilo", "operator": "Nextbike Polska", "ref": "9568"}}, {"type": "node", "id": 5572191962, "lat": 52.2017055, "lon": 20.9821191, "tags": {"amenity": "bicycle_rental", "capacity": "15", "name": "Sanocka - Pruszkowska", "network": "Veturilo", "operator": "Nextbike Polska", "ref": "9561"}}, {"type": "node", "id": 5572191963, "lat": 52.205527, "lon": 20.9988216, "tags": {"amenity": "bicycle_rental", "capacity": "17", "name": "Rakowiecka - \u015aw. A. Boboli", "network": "Veturilo", "operator": "Nextbike Polska", "ref": "9557"}}, {"type": "node", "id": 5572191964, "lat": 52.2169171, "lon": 21.0200429, "tags": {"amenity": "bicycle_rental", "capacity": "15", "name": "Marsza\u0142kowska - Litewska", "network": "Veturilo", "operator": "Nextbike Polska", "ref": "9553"}}, {"type": "node", "id": 5572191965, "lat": 52.2107137, "lon": 20.9848718, "tags": {"amenity": "bicycle_rental", "capacity": "29", "name": "Stefana Banacha - UW", "network": "Veturilo", "operator": "Nextbike Polska", "ref": "9551"}}, {"type": "node", "id": 5572191966, "lat": 52.2109197, "lon": 20.9759154, "tags": {"amenity": "bicycle_rental", "capacity": "20", "name": "Gr\u00f3jecka - Bitwy Warszawskiej 1920 roku", "network": "Veturilo", "operator": "Nextbike Polska", "ref": "9549"}}, {"type": "node", "id": 5572191967, "lat": 52.2238264, "lon": 21.0208725, "tags": {"amenity": "bicycle_rental", "capacity": "22", "name": "Mokotowska - Pi\u0119kna", "network": "Veturilo", "operator": "Nextbike Polska", "ref": "9544"}}, {"type": "node", "id": 5572191969, "lat": 52.2196956, "lon": 21.0157303, "tags": {"amenity": "bicycle_rental", "capacity": "20", "name": "ul. Wary\u0144skiego-ul. Nowowiejska-Metro Politechnika", "network": "Veturilo", "operator": "Nextbike Polska", "ref": "9541"}}, {"type": "node", "id": 5572191970, "lat": 52.2190796, "lon": 20.9890205, "tags": {"amenity": "bicycle_rental", "capacity": "22", "name": "Raszy\u0144ska - Filtrowa", "network": "Veturilo", "operator": "Nextbike Polska", "ref": "9534"}}, {"type": "node", "id": 5572191971, "lat": 52.2178584, "lon": 20.9775689, "tags": {"amenity": "bicycle_rental", "capacity": "15", "name": "Kopi\u0144ska - Bia\u0142obrzeska", "network": "Veturilo", "operator": "Nextbike Polska", "ref": "9531"}}, {"type": "node", "id": 5572191972, "lat": 52.2171981, "lon": 20.9713635, "tags": {"amenity": "bicycle_rental", "capacity": "22", "name": "Szcz\u0119\u015bliwicka - APS", "network": "Veturilo", "operator": "Nextbike Polska", "ref": "9530"}}, {"type": "node", "id": 5572191973, "lat": 52.2262436, "lon": 21.0136083, "tags": {"amenity": "bicycle_rental", "capacity": "15", "name": "Marsza\u0142kowska - Ho\u017ca", "network": "Veturilo", "operator": "Nextbike Polska", "ref": "9522"}}, {"type": "node", "id": 5572191974, "lat": 52.2240567, "lon": 20.9975821, "tags": {"amenity": "bicycle_rental", "capacity": "30", "name": "Lindleya - szpital", "network": "Veturilo", "operator": "Nextbike Polska", "ref": "9513"}}, {"type": "node", "id": 5572191975, "lat": 52.2248569, "lon": 20.9897849, "tags": {"amenity": "bicycle_rental", "capacity": "24", "name": "Plac Zawiszy", "network": "Veturilo", "operator": "Nextbike Polska", "ref": "9511"}}, {"type": "node", "id": 5572191976, "lat": 52.2221967, "lon": 20.9867808, "tags": {"amenity": "bicycle_rental", "capacity": "23", "name": "Ochota-Ratusz", "network": "Veturilo", "operator": "Nextbike Polska", "ref": "9510"}}, {"type": "node", "id": 5572191977, "lat": 52.2219662, "lon": 20.9788487, "tags": {"amenity": "bicycle_rental", "capacity": "30", "name": "al. Jerozolimskie - Niemcewicza", "network": "Veturilo", "operator": "Nextbike Polska", "ref": "9509"}}, {"type": "node", "id": 5572191978, "lat": 52.2338367, "lon": 21.0202843, "tags": {"amenity": "bicycle_rental", "capacity": "24", "name": "Ga\u0142czy\u0144skiego - Foksal", "network": "Veturilo", "operator": "Nextbike Polska", "ref": "9506"}}, {"type": "node", "id": 5572191980, "lat": 52.2382516, "lon": 21.0184518, "tags": {"amenity": "bicycle_rental", "capacity": "22", "name": "Obo\u017ana - Kopernika", "network": "Veturilo", "operator": "Nextbike Polska", "ref": "9495"}}, {"type": "node", "id": 5572191981, "lat": 52.2358103, "lon": 21.0136635, "tags": {"amenity": "bicycle_rental", "capacity": "20", "name": "Plac Powsta\u0144c\u00f3w Warszawy", "network": "Veturilo", "operator": "Nextbike Polska", "ref": "9492"}}, {"type": "node", "id": 5572191982, "lat": 52.2396633, "lon": 21.0119679, "tags": {"amenity": "bicycle_rental", "capacity": "16", "name": "Plac Ma\u0142achowskiego", "network": "Veturilo", "operator": "Nextbike Polska", "ref": "9491"}}, {"type": "node", "id": 5572191983, "lat": 52.2328577, "lon": 20.9806627, "tags": {"amenity": "bicycle_rental", "capacity": "10", "name": "Muzeum Powstania Warszawskiego", "network": "Veturilo", "operator": "Nextbike Polska", "ref": "9477"}}, {"type": "node", "id": 5572278467, "lat": 52.1806595, "lon": 20.9927908, "tags": {"amenity": "bicycle_rental", "capacity": "15", "name": "T-Mobile", "network": "Veturilo", "operator": "Nextbike Polska", "ref": "6421"}}, {"type": "node", "id": 5572278468, "lat": 52.23441, "lon": 20.9993657, "tags": {"amenity": "bicycle_rental", "capacity": "11", "name": "Spektrum Tower", "network": "Veturilo", "operator": "Nextbike Polska", "ref": "6418"}}, {"type": "node", "id": 5572278469, "lat": 52.1786952, "lon": 21.0028178, "tags": {"amenity": "bicycle_rental", "capacity": "20", "name": "Galeria Mokot\u00f3w wej\u015bcie g\u0142\u00f3wne", "network": "Veturilo", "operator": "Nextbike Polska", "ref": "6409"}}, {"type": "node", "id": 5572278470, "lat": 52.2348666, "lon": 21.0089823, "tags": {"amenity": "bicycle_rental", "capacity": "16", "name": "Metro \u015awi\u0119tokrzyska", "network": "Veturilo", "operator": "Nextbike Polska", "ref": "9490"}}, {"type": "node", "id": 5572278471, "lat": 52.1777447, "lon": 20.997936, "tags": {"amenity": "bicycle_rental", "capacity": "15", "name": "New City", "network": "Veturilo", "operator": "Nextbike Polska", "ref": "6414"}}, {"type": "node", "id": 5572278472, "lat": 52.2278257, "lon": 20.901441, "tags": {"amenity": "bicycle_rental", "capacity": "22", "name": "Cz\u0142uchowska - Roz\u0142ogi", "network": "Veturilo", "operator": "Nextbike Polska", "ref": "9719"}}, {"type": "node", "id": 5572278474, "lat": 52.2175506, "lon": 21.009705, "tags": {"amenity": "bicycle_rental", "capacity": "19", "name": "al. Armii Ludowej - Rektorska", "network": "Veturilo", "operator": "Nextbike Polska", "ref": "9587"}}, {"type": "node", "id": 5573719318, "lat": 52.2537573, "lon": 21.0188627, "tags": {"amenity": "ferry_terminal", "cargo": "bicycle", "ferry": "yes", "name": "Zoo", "public_transport": "station", "wheelchair": "yes"}}, {"type": "node", "id": 5584443783, "lat": 52.2709138, "lon": 20.9325563, "tags": {"amenity": "bicycle_rental", "capacity": "30", "name": "al. Reymonta - Conrada", "network": "Veturilo", "operator": "Nextbike Polska", "payment:app": "yes", "ref": "9420", "source": "http://www.veturilo.waw.pl/lokalizacje/"}}, {"type": "node", "id": 5599171857, "lat": 52.2920271, "lon": 20.9300245, "tags": {"name": "Metro M\u0142ociny", "note": "obszar tej stacji wykracza poza budynek", "public_transport": "station", "tram": "yes"}}, {"type": "node", "id": 5616140521, "lat": 52.2410405, "lon": 20.9832762, "tags": {"amenity": "bicycle_rental", "opening_hours": "24/7"}}, {"type": "node", "id": 5622365627, "lat": 52.1545283, "lon": 21.0064998, "tags": {"amenity": "bicycle_rental", "capacity": "15", "name": "Platan Park", "network": "Veturilo", "operator": "Nextbike Polska", "ref": "6441"}}, {"type": "node", "id": 5635221555, "lat": 52.2210478, "lon": 20.9192622, "tags": {"amenity": "bicycle_rental", "capacity": "30", "name": "Powsta\u0144c\u00f3w \u015al\u0105skich - Po\u0142czy\u0144ska", "network": "Veturilo", "operator": "Nextbike Polska", "ref": "9470"}}, {"type": "node", "id": 5701731901, "lat": 52.2835359, "lon": 21.0720847, "tags": {"amenity": "bicycle_rental", "capacity": "30", "name": "Blokowa - DK Zacisze", "network": "Veturilo", "operator": "Nextbike Polska", "ref": "9640", "source": "http://www.veturilo.waw.pl/lokalizacje/"}}, {"type": "node", "id": 5824920107, "lat": 52.181135, "lon": 20.992429, "tags": {"amenity": "bicycle_rental", "capacity": "20", "name": "Marynarska 12", "network": "Veturilo", "operator": "Nextbike Polska", "ref": "6444"}}, {"type": "node", "id": 5824920108, "lat": 52.1889385, "lon": 20.9851159, "tags": {"amenity": "bicycle_rental", "capacity": "20", "name": "Wi\u015bniowy Business Park", "network": "Veturilo", "operator": "Nextbike Polska", "ref": "6443"}}, {"type": "node", "id": 5828769598, "lat": 52.2575926, "lon": 20.9944627}, {"type": "node", "id": 5860755011, "lat": 52.2346626, "lon": 21.094724, "tags": {"amenity": "bicycle_rental", "capacity": "15", "name": "PKN Orlen - Filomat\u00f3w", "network": "Veturilo", "operator": "Nextbike Polska", "ref": "6439"}}, {"type": "node", "id": 5860755012, "lat": 52.2261093, "lon": 21.1480647, "tags": {"amenity": "bicycle_rental", "capacity": "15", "name": "PKN Orlen - Wydawnicza", "network": "Veturilo", "operator": "Nextbike Polska", "ref": "6438"}}, {"type": "node", "id": 5860755015, "lat": 52.2237771, "lon": 21.059546, "tags": {"amenity": "bicycle_rental", "capacity": "15", "name": "PKN Orlen - Wersalska", "network": "Veturilo", "operator": "Nextbike Polska", "ref": "6435"}}, {"type": "node", "id": 5860755016, "lat": 52.2505046, "lon": 21.0662501, "tags": {"amenity": "bicycle_rental", "capacity": "15", "name": "PKN Orlen - Chodakowska", "network": "Veturilo", "operator": "Nextbike Polska", "ref": "6434"}}, {"type": "node", "id": 5860755019, "lat": 52.2448334, "lon": 21.0051589, "tags": {"amenity": "bicycle_rental", "capacity": "15", "name": "PKN Orlen - Biela\u0144ska", "network": "Veturilo", "operator": "Nextbike Polska", "ref": "6430"}}, {"type": "node", "id": 5877935681, "lat": 52.2392129, "lon": 20.8969724, "tags": {"amenity": "bicycle_rental", "capacity": "15", "name": "PKN Orlen - Lazurowa", "network": "Veturilo", "operator": "Nextbike Polska", "ref": "6432"}}, {"type": "node", "id": 5907821373, "lat": 52.2393568, "lon": 20.9423473, "tags": {"name": "Ksi\u0119cia Janusza", "name:ru": "\u041a\u0441\u0435\u043d\u0446\u044f \u042f\u043d\u0443\u0448\u0430", "name:uk": "\u041a\u0441\u0435\u043d\u0446\u044f \u042f\u043d\u0443\u0448\u0430", "network": "Warsaw Metro", "operator": "Metro Warszawskie", "public_transport": "station", "railway": "station", "ref": "C-6", "station": "subway", "subway": "yes", "wheelchair": "limited", "wikidata": "Q28674112", "wikipedia": "pl:Ksi\u0119cia Janusza (stacja metra)"}}, {"type": "node", "id": 5907821374, "lat": 52.2378984, "lon": 20.9592385, "tags": {"name": "M\u0142yn\u00f3w", "name:ru": "\u041c\u043b\u044b\u043d\u0443\u0432", "name:uk": "\u041c\u043b\u0438\u043d\u0443\u0432", "network": "Warsaw Metro", "operator": "Metro Warszawskie", "public_transport": "station", "railway": "station", "ref": "C-7", "station": "subway", "subway": "yes", "wheelchair": "limited", "wikidata": "Q28676558", "wikipedia": "pl:M\u0142yn\u00f3w (stacja metra)"}}, {"type": "node", "id": 5929292018, "lat": 52.2385825, "lon": 20.9826528, "tags": {"amenity": "bicycle_rental", "capacity": "15", "name": "PKN Orlen - Al. Solidarno\u015bci", "network": "Veturilo", "operator": "Nextbike Polska", "ref": "6436"}}, {"type": "node", "id": 5929292019, "lat": 52.2758629, "lon": 20.9154934, "tags": {"amenity": "bicycle_rental", "capacity": "24", "name": "Bogus\u0142awskiego - Rodziny Po\u0142anieckich", "network": "Veturilo", "operator": "Nextbike Polska", "ref": "9736"}}, {"type": "node", "id": 5943435212, "lat": 52.2694928, "lon": 20.9420515, "tags": {"amenity": "bicycle_rental", "capacity": "24", "name": "Kochanowskiego - Galla Anonima", "network": "Veturilo", "operator": "Nextbike Polska", "ref": "9737"}}, {"type": "node", "id": 5943435213, "lat": 52.24636, "lon": 21.132392, "tags": {"amenity": "bicycle_rental", "capacity": "22", "name": "Niepo\u0142omicka \u2013 Che\u0142m\u017cy\u0144ska", "network": "Veturilo", "operator": "Nextbike Polska", "ref": "9735"}}, {"type": "node", "id": 5943435214, "lat": 52.252957, "lon": 21.168053, "tags": {"amenity": "bicycle_rental", "capacity": "22", "name": "Komandos\u00f3w \u2013 Niedzia\u0142kowskiego", "network": "Veturilo", "operator": "Nextbike Polska", "ref": "9734"}}, {"type": "node", "id": 5943435215, "lat": 52.256664, "lon": 21.158074, "tags": {"amenity": "bicycle_rental", "capacity": "22", "name": "PKP Rembert\u00f3w \u2013 Marsa", "network": "Veturilo", "operator": "Nextbike Polska", "ref": "9733", "wheelchair": "yes"}}, {"type": "node", "id": 5943435216, "lat": 52.257566, "lon": 21.157515, "tags": {"amenity": "bicycle_rental", "capacity": "22", "name": "PKP Rembert\u00f3w \u2013 Cyrulik\u00f3w", "network": "Veturilo", "operator": "Nextbike Polska", "ref": "9732"}}, {"type": "node", "id": 5943435217, "lat": 52.2712325, "lon": 21.149725, "tags": {"amenity": "bicycle_rental", "capacity": "22", "name": "Paderewskiego \u2013 Czwartak\u00f3w", "network": "Veturilo", "operator": "Nextbike Polska", "ref": "9731"}}, {"type": "node", "id": 5943435218, "lat": 52.264875, "lon": 21.169444, "tags": {"amenity": "bicycle_rental", "capacity": "22", "name": "Rondo Fieldorfa ,,Nila\u2019\u2019", "network": "Veturilo", "operator": "Nextbike Polska", "ref": "9730"}}, {"type": "node", "id": 5943435219, "lat": 52.26227, "lon": 21.177595, "tags": {"amenity": "bicycle_rental", "capacity": "22", "name": "Frontowa \u2013 Czerwonych Beret\u00f3w", "network": "Veturilo", "operator": "Nextbike Polska", "ref": "9729"}}, {"type": "node", "id": 5943435220, "lat": 52.302851, "lon": 20.92942, "tags": {"amenity": "bicycle_rental", "capacity": "30", "name": "Ksi\u0105\u017c\u0105t Mazowieckich - Herold\u00f3w", "network": "Veturilo", "operator": "Nextbike Polska", "ref": "9579"}}, {"type": "node", "id": 5975983230, "lat": 52.2488615, "lon": 21.0055777, "tags": {"amenity": "bicycle_rental", "capacity": "30", "name": "Plac Krasi\u0144skich", "network": "Veturilo", "operator": "Nextbike Polska", "ref": "9447"}}, {"type": "node", "id": 6053348692, "lat": 52.2634539, "lon": 21.0453302, "tags": {"name": "Szwedzka", "name:ru": "\u0428\u0432\u0435\u0434\u0441\u043a\u0430", "name:uk": "\u0428\u0432\u0435\u0434\u0441\u044c\u043a\u0430", "network": "Metro Warszawskie", "public_transport": "station", "railway": "station", "ref": "C-16", "station": "subway", "subway": "yes", "wheelchair": "no", "wikidata": "Q24947468", "wikipedia": "pl:Szwedzka (stacja metra)"}}, {"type": "node", "id": 6087963944, "lat": 52.2465017, "lon": 21.0113686, "tags": {"amenity": "bicycle_rental", "capacity": "15", "name": "E-bike - Miodowa", "network": "Veturilo", "operator": "Nextbike Polska", "ref": "9708", "rental": "ebike"}}, {"type": "node", "id": 6316780712, "lat": 52.2986248, "lon": 21.0331039, "tags": {"amenity": "bicycle_rental", "capacity": "16", "name": "\u0141abiszy\u0144ska - OSiR Targ\u00f3wek", "network": "Veturilo", "operator": "Nextbike Polska", "ref": "9744"}}, {"type": "node", "id": 6402528374, "lat": 52.2879594, "lon": 20.9787584, "tags": {"amenity": "bicycle_rental"}}, {"type": "node", "id": 6464177533, "lat": 52.207779, "lon": 20.9631526}, {"type": "node", "id": 6464177536, "lat": 52.2075919, "lon": 20.9637773}, {"type": "node", "id": 6464177537, "lat": 52.2076327, "lon": 20.9640261}, {"type": "node", "id": 6464193060, "lat": 52.2075903, "lon": 20.963879}, {"type": "node", "id": 6498633483, "lat": 52.2838301, "lon": 20.9029429, "tags": {"amenity": "bicycle_rental", "capacity": "22", "name": "Arkuszowa", "network": "Veturilo", "operator": "Nextbike Polska", "ref": "9741"}}, {"type": "node", "id": 6547037074, "lat": 52.1968813, "lon": 20.9235903}, {"type": "node", "id": 6547037075, "lat": 52.1968891, "lon": 20.9234995}, {"type": "node", "id": 6547037076, "lat": 52.1969979, "lon": 20.923519}, {"type": "node", "id": 6547037077, "lat": 52.1969908, "lon": 20.9236101}, {"type": "node", "id": 6564265270, "lat": 52.2695853, "lon": 21.0514129, "tags": {"name": "Targ\u00f3wek Mieszkaniowy", "name:ru": "\u0422\u0430\u0440\u0433\u0443\u0432\u0435\u043a \u041c\u0435\u0448\u043a\u0430\u043d\u0451\u0432\u044b", "name:uk": "\u0422\u0430\u0440\u0491\u0443\u0432\u0435\u043a- \u041c'\u0454\u0448\u043a\u0430\u043d\u044c\u043e\u0432\u0438", "network": "Metro Warszawskie", "public_transport": "station", "railway": "station", "ref": "C-17", "station": "subway", "subway": "yes", "wheelchair": "yes", "wikidata": "Q25415168", "wikipedia": "pl:Targ\u00f3wek Mieszkaniowy (stacja metra)"}}, {"type": "node", "id": 6631369491, "lat": 52.281164, "lon": 20.9236411, "tags": {"amenity": "bicycle_rental", "capacity": "22", "fee": "yes", "name": "W\u00f3lczy\u0144ska - Conrada", "network": "Veturillo", "operator": "Nextbike Polska", "payment:credit_cards": "yes"}}, {"type": "node", "id": 6695735938, "lat": 52.1852454, "lon": 21.0016341, "tags": {"amenity": "bicycle_rental", "capacity": "15", "name": "Eko - Rowery NFO\u015aiGW", "network": "Veturilo", "operator": "Nextbike Polska", "ref": "6447"}}, {"type": "node", "id": 6783110153, "lat": 52.2931701, "lon": 20.9294011, "tags": {"amenity": "bicycle_rental", "network": "Veturilo", "operator": "Nextbike Polska", "source": "http://www.veturilo.waw.pl/lokalizacje/"}}, {"type": "node", "id": 6848096297, "lat": 52.2202243, "lon": 21.0179017, "tags": {"amenity": "bicycle_rental"}}, {"type": "node", "id": 6944998109, "lat": 52.2560347, "lon": 20.9722548, "tags": {"name": "Warszawa Pow\u0105zki", "public_transport": "station", "railway": "halt"}}, {"type": "node", "id": 7211653335, "lat": 52.2815198, "lon": 21.0258787, "tags": {"amenity": "bicycle_rental"}}, {"type": "node", "id": 7426506357, "lat": 52.2175523, "lon": 21.009834}, {"type": "node", "id": 7426506358, "lat": 52.2175651, "lon": 21.0095793}, {"type": "node", "id": 7426506359, "lat": 52.2175483, "lon": 21.009577}, {"type": "node", "id": 7426506360, "lat": 52.2175355, "lon": 21.0098318}, {"type": "node", "id": 7504180114, "lat": 52.2551739, "lon": 21.0366476}, {"type": "node", "id": 7504180142, "lat": 52.2556785, "lon": 21.0387975}, {"type": "node", "id": 7515926824, "lat": 52.2252007, "lon": 20.9857491, "tags": {"name": "Warszawa G\u0142\u00f3wna", "name:ru": "\u0412\u0430\u0440\u0448\u0430\u0432\u0430 \u0413\u043b\u0443\u0432\u043d\u0430", "name:uk": "\u0412\u0430\u0440\u0448\u0430\u0432\u0430 \u0413\u043e\u043b\u043e\u0432\u043d\u0438\u0439", "public_transport": "station", "railway": "station", "train": "yes", "wheelchair": "yes", "wikidata": "Q18180267", "wikipedia": "pl:Warszawa G\u0142\u00f3wna Osobowa"}}, {"type": "node", "id": 7827694956, "lat": 52.1945461, "lon": 20.9820927, "tags": {"amenity": "bicycle_rental", "capacity": "22", "name": "PKP \u017bwirki i Wigury", "network": "Veturilo", "operator": "Nextbike Polska", "ref": "6443"}}, {"type": "node", "id": 7941947667, "lat": 52.3500836, "lon": 20.945614, "tags": {"amenity": "bicycle_rental", "capacity": "16", "name": "Biedronka Modli\u0144ska", "network": "Veturilo", "operator": "Nextbike Polska", "ref": "6452"}}, {"type": "node", "id": 7996064514, "lat": 52.2016491, "lon": 21.0358185}, {"type": "node", "id": 7996064515, "lat": 52.2016087, "lon": 21.0358749}, {"type": "node", "id": 7996064516, "lat": 52.2015273, "lon": 21.0359446}, {"type": "node", "id": 7996064517, "lat": 52.2015428, "lon": 21.0359934}, {"type": "node", "id": 7996064518, "lat": 52.201571, "lon": 21.0359744}, {"type": "node", "id": 7996064519, "lat": 52.2015888, "lon": 21.0359921}, {"type": "node", "id": 8187655764, "lat": 52.2282914, "lon": 21.0021225}, {"type": "node", "id": 8187655866, "lat": 52.2290219, "lon": 21.0015966}, {"type": "node", "id": 8205041426, "lat": 52.2282003, "lon": 21.0025182}, {"type": "node", "id": 8247986330, "lat": 52.3345415, "lon": 20.9420213}, {"type": "node", "id": 8286392818, "lat": 52.2053112, "lon": 20.9422822, "tags": {"name": "Warszawa Aleje Jerozolimskie WKD", "operator": "WKD", "public_transport": "station", "railway": "halt", "wikidata": "Q2832591", "wikipedia": "nl:Station Warszawa Aleje Jerozolimskie WKD"}}, {"type": "node", "id": 8333523897, "lat": 52.239033, "lon": 20.8969458, "tags": {"amenity": "bicycle_rental"}}, {"type": "node", "id": 8406143543, "lat": 52.2053923, "lon": 20.9844635, "tags": {"amenity": "bicycle_rental", "capacity": "18", "network": "Veturillo"}}, {"type": "node", "id": 8510693581, "lat": 52.2592207, "lon": 21.0261447}, {"type": "node", "id": 8510693582, "lat": 52.2592349, "lon": 21.026175}, {"type": "node", "id": 8510693583, "lat": 52.2591052, "lon": 21.0263378}, {"type": "node", "id": 8510693584, "lat": 52.2590908, "lon": 21.0263071}, {"type": "node", "id": 8520247973, "lat": 52.2563803, "lon": 21.0294348}, {"type": "node", "id": 8549812386, "lat": 52.292328, "lon": 21.040979, "tags": {"amenity": "bicycle_rental", "capacity": "23"}}, {"type": "node", "id": 8618198158, "lat": 52.1589099, "lon": 21.0509533, "tags": {"amenity": "bicycle_rental", "capacity": "16", "name": "Nowoursynowska - Ciszewskiego", "network": "Veturilo", "operator": "Nextbike Polska", "ref": "9606"}}, {"type": "node", "id": 8804881455, "lat": 52.1795508, "lon": 21.0246905}, {"type": "node", "id": 8804881456, "lat": 52.1796948, "lon": 21.0247808}, {"type": "node", "id": 8804927380, "lat": 52.1802021, "lon": 21.0232781}, {"type": "node", "id": 8964017838, "lat": 52.2087496, "lon": 21.0663428, "tags": {"amenity": "bicycle_rental", "capacity": "24", "name": "Grupy AK Krybar", "network": "Veturilo", "operator": "Nextbike Polska", "ref": "9626"}}, {"type": "node", "id": 9089857075, "lat": 52.2293769, "lon": 21.0029638}, {"type": "node", "id": 9094605727, "lat": 52.2291393, "lon": 21.0018484}, {"type": "node", "id": 9094605728, "lat": 52.2296383, "lon": 21.0042189}, {"type": "node", "id": 9094605729, "lat": 52.2296815, "lon": 21.0041951}, {"type": "node", "id": 9094605730, "lat": 52.229706, "lon": 21.0043137}, {"type": "node", "id": 9094629207, "lat": 52.2293656, "lon": 21.004594}, {"type": "node", "id": 9094629208, "lat": 52.2288144, "lon": 21.0047992}, {"type": "node", "id": 9198077900, "lat": 52.2786447, "lon": 20.9341099}, {"type": "node", "id": 9198077901, "lat": 52.2786862, "lon": 20.9337484}, {"type": "node", "id": 9198077902, "lat": 52.2786636, "lon": 20.9337424}, {"type": "node", "id": 9198077903, "lat": 52.2786218, "lon": 20.9341033}, {"type": "node", "id": 9243334767, "lat": 52.223538, "lon": 21.1014547}, {"type": "node", "id": 9243334768, "lat": 52.2235272, "lon": 21.1014949}, {"type": "node", "id": 9243334769, "lat": 52.2233742, "lon": 21.1013634}, {"type": "node", "id": 9243334770, "lat": 52.2233866, "lon": 21.1013245}, {"type": "node", "id": 9358391545, "lat": 52.2690517, "lon": 21.0379926}, {"type": "node", "id": 9384015107, "lat": 52.2921857, "lon": 21.0419657}, {"type": "node", "id": 9384015108, "lat": 52.2921636, "lon": 21.0422472}, {"type": "node", "id": 9384015109, "lat": 52.2922016, "lon": 21.0422534}, {"type": "node", "id": 9415651926, "lat": 52.2343855, "lon": 20.9990793, "tags": {"amenity": "bicycle_rental", "brand": "Veturilo", "brand:wikidata": "Q3847868", "brand:wikipedia": "pl:Veturilo", "capacity": "13", "network": "Veturilo", "network:wikidata": "Q3847868", "network:wikipedia": "pl:Veturilo", "not:brand:wikidata": "Q97373105", "operator": "Nextbike Polska"}}, {"type": "node", "id": 9547046558, "lat": 52.2157063, "lon": 20.960214, "tags": {"amenity": "bicycle_rental", "brand": "Veturilo", "brand:wikidata": "Q3847868", "brand:wikipedia": "pl:Veturilo", "name": "STACJA NR 9587 Rondo Zes\u0142a\u0144c\u00f3w Syberyjskich", "network": "Veturilo", "network:wikidata": "Q3847868", "network:wikipedia": "pl:Veturilo", "not:brand:wikidata": "Q23955689", "operator": "Nextbike Polska"}}, {"type": "way", "id": 24635942, "nodes": [267797363, 1835260515, 2850587774, 267797364, 267797365, 8804881455, 3220333415, 8804881456, 267797366, 2850587772, 8804927380, 267797363], "tags": {"amenity": "bus_station", "name": "Metro Wilanowska", "old_name": "Dworzec Po\u0142udniowy", "public_transport": "station", "wheelchair": "yes", "wikidata": "Q9371140", "wikipedia": "pl:Warszawa Po\u0142udnie"}}, {"type": "way", "id": 119390001, "nodes": [1341665899, 1341665904, 3407820475, 33210562, 1936866228, 6464177533, 1341665915, 6464177536, 6464193060, 6464177537, 1341665896, 1341665897, 3386279560, 1341665910, 1341665899], "tags": {"amenity": "bus_station", "bus": "yes", "public_transport": "station"}}, {"type": "way", "id": 120074450, "nodes": [1347242592, 1347242643, 1347242689, 1836562367, 5568665110, 5568665109, 1347242672, 1347242554, 1347242596, 1347242565, 8247986330, 3042068567, 1347242639, 1347242631, 1347242645, 3042068589, 1347242592], "tags": {"area": "yes", "name": "Nowodwory", "public_transport": "station", "wikidata": "Q106767024"}}, {"type": "way", "id": 132142879, "nodes": [286630104, 7504180142, 3405698732, 286630105, 3439437719, 3439437718, 3439437720, 286630091, 1395906796, 1454216331, 3405698727, 286630092, 7504180114, 1454216328, 286630093, 1454216303, 286630104], "tags": {"level": "0", "name": "Warszawa Wile\u0144ska", "public_transport": "station", "railway": "station", "wheelchair": "yes", "wikidata": "Q2772800", "wikipedia": "pl:Warszawa Wile\u0144ska"}}, {"type": "way", "id": 191561069, "nodes": [1769856476, 3073050662, 3073050663, 2021459341, 2021459344, 2021459347, 1769856508, 3193695641, 1769856507, 1769856505, 1769856502, 1769856500, 1769856497, 1769856476], "tags": {"amenity": "bus_station", "bus": "yes", "name": "Metro Marymont", "public_transport": "station", "wheelchair": "yes"}}, {"type": "way", "id": 191570763, "nodes": [2021550242, 2021550243, 2021550241, 2021550234, 2021550221, 2021550211, 2021550240, 2021550242], "tags": {"amenity": "bus_station", "bus": "yes", "name": "\u017bera\u0144 FSO", "public_transport": "station", "wheelchair": "yes"}}, {"type": "way", "id": 234269547, "nodes": [2425383301, 2425383299, 2425383298, 2425383303, 2425383306, 2425383308, 2425383307, 2425383305, 2425383301], "tags": {"area": "yes", "name": "Tarchomin Ko\u015bcielny", "network": "ZTM Warszawa", "operator": "Tramwaje Warszawskie Sp. z o.o.", "public_transport": "station", "wikidata": "Q108036379"}}, {"type": "way", "id": 279673468, "nodes": [2838813914, 2838813915, 2838813912, 2838813911, 2838813914], "tags": {"addr:city": "Warszawa", "addr:city:simc": "0918123", "addr:housenumber": "1", "addr:street": "Modli\u0144ska", "addr:street:sym_ul": "13171", "building": "transportation", "building:levels": "1", "public_transport": "station", "roof:shape": "flat", "source:addr": "mapa.um.warszawa.pl", "tram": "yes"}}, {"type": "way", "id": 296612485, "nodes": [3004074596, 3004074590, 3004074589, 3004074595, 3004074596], "tags": {"amenity": "bicycle_rental", "capacity": "22", "name": "Wybrze\u017ce Helskie - ZOO", "network": "Veturilo", "operator": "Nextbike Polska", "ref": "9648", "source": "http://www.veturilo.waw.pl/lokalizacje/"}}, {"type": "way", "id": 297367145, "nodes": [3012412158, 2503128155, 2820201747, 3012412154, 3012412158], "tags": {"amenity": "bicycle_rental", "capacity": "24", "name": "Rondo Starzy\u0144skiego", "network": "Veturilo", "not:brand:wikidata": "Q23955689", "operator": "Nextbike Polska", "ref": "9649", "source": "http://www.veturilo.waw.pl/lokalizacje/"}}, {"type": "way", "id": 299205269, "nodes": [3031548250, 3031548248, 3031548251, 3031548253, 3031548250], "tags": {"amenity": "bicycle_rental", "capacity": "19", "name": "Broniewskiego - W\u0142o\u015bcia\u0144ska", "network": "Veturilo", "operator": "Nextbike Polska", "ref": "9417", "rmikke:checked": "2015.08.27", "source": "http://www.veturilo.waw.pl/lokalizacje/"}}, {"type": "way", "id": 334115996, "nodes": [3412080203, 3412080204, 3412080207, 3412080206, 262833583, 3412080203], "tags": {"amenity": "bicycle_rental", "capacity": "22", "name": "Rondo de Gaulle'a", "network": "Veturilo", "operator": "Nextbike Polska", "ref": "9524", "source": "http://www.veturilo.waw.pl/lokalizacje/"}}, {"type": "way", "id": 334122384, "nodes": [3412132264, 3412132262, 3412132263, 3412132265, 3412132264], "tags": {"amenity": "bicycle_rental", "capacity": "24", "name": "al. Jerozolimskie - rejon Rotundy", "network": "Veturilo", "operator": "Nextbike Polska", "ref": "9521"}}, {"type": "way", "id": 335551516, "nodes": [3426505650, 3426505648, 3426505652, 3426505653, 3426505650], "tags": {"amenity": "bicycle_rental", "capacity": "24", "name": "Rondo Jazdy Polskiej", "network": "Veturilo", "operator": "Nextbike Polska", "ref": "9540", "source": "http://nextbike.net/maps/nextbike-official.xml?city=210"}}, {"type": "way", "id": 352190192, "nodes": [3579525847, 3579525848, 3579525846, 3579525845, 3579525847], "tags": {"amenity": "bicycle_rental", "capacity": "36", "name": "Arkadia", "network": "Veturilo", "operator": "Nextbike Polska", "ref": "6401", "rmikke:checked": "2015.08.27", "source": "http://www.veturilo.waw.pl/lokalizacje/"}}, {"type": "way", "id": 360840461, "nodes": [3653992590, 3653992588, 3653992556, 3653992561, 3653992590], "tags": {"amenity": "bicycle_rental", "capacity": "24", "name": "Plac Unii Lubelskiej", "network": "Veturilo", "operator": "Nextbike Polska", "ref": "9559"}}, {"type": "way", "id": 361010178, "nodes": [3655416300, 3655416301, 3655416302, 3655416303, 3655416300], "tags": {"amenity": "bicycle_rental", "capacity": "26", "name": "Plac na Rozdro\u017cu", "network": "Veturilo", "operator": "Nextbike Polska", "ref": "9545"}}, {"type": "way", "id": 364700421, "nodes": [3687452500, 3687452481, 3687452462, 3687452486, 3687452500], "tags": {"amenity": "bicycle_rental", "capacity": "22", "name": "Metro Kabaty", "network": "Veturilo", "operator": "Nextbike Polska", "ref": "9621"}}, {"type": "way", "id": 365770376, "nodes": [276303027, 3695788573, 3695788570, 3697783474, 3697783477, 276303027], "tags": {"amenity": "bicycle_rental", "capacity": "15", "name": "Ksi\u0105\u017c\u0119ca - Rozbrat", "network": "Veturilo", "operator": "Nextbike Polska", "ref": "9529", "source": "http://www.veturilo.waw.pl/lokalizacje/"}}, {"type": "way", "id": 382462740, "nodes": [3856619140, 3856619139, 2306376274, 3856619138, 3856619140], "tags": {"amenity": "bicycle_rental", "capacity": "15", "name": "\u017belazna - Ch\u0142odna", "network": "Veturilo", "operator": "Nextbike Polska", "ref": "9480", "source": "http://www.veturilo.waw.pl/lokalizacje/"}}, {"type": "way", "id": 390519513, "nodes": [3936724285, 3936724291, 9358391545, 3936724287, 3936724285], "tags": {"amenity": "bicycle_rental", "capacity": "22", "name": "Rondo \u017baba", "network": "Veturilo", "operator": "Nextbike Polska", "ref": "9652", "source": "http://www.veturilo.waw.pl/lokalizacje/"}}, {"type": "way", "id": 435951665, "nodes": [2445361960, 3947733127, 3947732903, 3947732950, 2445361960], "tags": {"amenity": "bicycle_rental", "capacity": "16", "name": "al. Wilanowska - Przycz\u00f3\u0142kowa", "network": "Veturilo", "operator": "Nextbike Polska", "ref": "9598", "source": "http://www.veturilo.waw.pl/lokalizacje/"}}, {"type": "way", "id": 438013864, "nodes": [4357821857, 4357821845, 1836353694, 4357821854, 4357821857], "tags": {"amenity": "bicycle_rental", "capacity": "20", "name": "Topiel - Tamka", "network": "Veturilo", "operator": "Nextbike Polska", "ref": "9507", "source": "http://www.veturilo.waw.pl/lokalizacje/"}}, {"type": "way", "id": 438832783, "nodes": [3264473546, 4364879317, 4364879316, 4364879315, 3264473546], "tags": {"amenity": "bicycle_rental", "capacity": "22", "name": "My\u015bliborska - al. Kukli\u0144skiego", "network": "Veturilo", "operator": "Nextbike Polska", "ref": "9628", "source": "http://www.veturilo.waw.pl/lokalizacje/"}}, {"type": "way", "id": 487069490, "nodes": [4795849505, 4795849504, 4795849503, 4795849502, 4795849501, 4795849505], "tags": {"amenity": "bicycle_rental", "capacity": "26", "name": "Metro Rondo Daszy\u0144skiego", "network": "Veturilo", "operator": "Nextbike Polska", "ref": "9478"}}, {"type": "way", "id": 494098000, "nodes": [4859116869, 4859116870, 4859116871, 4859116872, 4859116869], "tags": {"amenity": "bicycle_rental", "capacity": "18", "name": "Smolna - PKP Powi\u015ble", "network": "Veturilo", "operator": "Nextbike Polska", "ref": "9526"}}, {"type": "way", "id": 504452113, "nodes": [4946138633, 4448850899, 4946138631, 4946138632, 4946138633], "tags": {"amenity": "bicycle_rental", "capacity": "25", "name": "Kasprzaka - Skierniewicka", "network": "Veturilo", "operator": "Nextbike Polska", "ref": "9475"}}, {"type": "way", "id": 504508940, "nodes": [3741435026, 3479402898, 3479401789, 4946580512, 3741434124, 3741435026], "tags": {"amenity": "bicycle_rental", "capacity": "29", "name": "al. Prymasa Tysi\u0105clecia - G\u00f3rczewska", "network": "Veturilo", "operator": "Nextbike Polska", "ref": "9473"}}, {"type": "way", "id": 505926567, "nodes": [4957486557, 4957486556, 4957486555, 4957486554, 4957486557], "tags": {"amenity": "bicycle_rental", "capacity": "19", "name": "Obozowa - Radziwie", "network": "Veturilo", "operator": "Nextbike Polska", "ref": "9434"}}, {"type": "way", "id": 506574888, "nodes": [4962826925, 4962826924, 4962826923, 1836607630, 4962826925], "tags": {"amenity": "bicycle_rental", "capacity": "30", "name": "al. Jana Paw\u0142a II - Grzybowska", "network": "Veturilo", "operator": "Nextbike Polska", "ref": "9483", "rmikke:checked": "20150904", "source": "http://www.veturilo.waw.pl/lokalizacje/"}}, {"type": "way", "id": 514009262, "nodes": [5022838119, 5022838120, 5022838118, 5022838117, 5022838119], "tags": {"amenity": "bicycle_rental", "capacity": "16", "name": "Pow\u0105zkowska - Plac Niemena", "network": "Veturilo", "operator": "Nextbike Polska", "ref": "9427", "source": "http://www.veturilo.waw.pl/lokalizacje/"}}, {"type": "way", "id": 549757247, "nodes": [5828769598, 3073527851, 5310449779, 3036562819, 5828769598], "tags": {"amenity": "bicycle_rental", "capacity": "30", "name": "Metro Dworzec Gda\u0144ski", "network": "Veturilo", "operator": "Nextbike Polska", "ref": "9430", "source": "http://www.veturilo.waw.pl/lokalizacje/"}}, {"type": "way", "id": 551591859, "nodes": [5326909310, 5326909309, 5326909308, 5326909307, 5326909310], "tags": {"amenity": "bicycle_rental", "capacity": "30", "name": "Wolska - Elekcyjna", "network": "Veturilo", "operator": "Nextbike Polska", "ref": "9472"}}, {"type": "way", "id": 553372535, "nodes": [5341730692, 5341730691, 5341730690, 5341730689, 5341730692], "tags": {"amenity": "bicycle_rental", "capacity": "23", "name": "Roso\u0142a - Weso\u0142a", "network": "Veturilo", "operator": "Nextbike Polska", "ref": "9613", "source": "http://www.veturilo.waw.pl/lokalizacje/"}}, {"type": "way", "id": 575701389, "nodes": [2653818446, 2653818442, 2195123417, 2480943503, 2480943502, 2195123415, 2653818436, 2198886090, 1775517767, 8205041426, 2198886091, 2454461683, 8187655764, 2355318891, 2198886703, 2454461693, 8187655866, 2454271791, 9094605727, 338486376, 2474993638, 9089857075, 9094605728, 9094605729, 9094605730, 5523660922, 2659287831, 2659287832, 2659287828, 9094629207, 248460733, 248460734, 9094629208, 2480943515, 2480943513, 2653812222, 2926418612, 2198886093, 2198886088, 2653818445, 2653818444, 1480552448, 2653818446], "tags": {"alt_name": "Dworzec Centralny", "int_name": "Warsaw Central Railway Station", "name": "Warszawa Centralna", "name:be": "\u0412\u0430\u0440\u0448\u0430\u0432\u0430 \u0426\u044d\u043d\u0442\u0440\u0430\u043b\u044c\u043d\u0430\u044f", "name:cs": "Var\u0161ava centr\u00e1ln\u00ed n\u00e1dra\u017e\u00ed", "name:de": "Warschau Hauptbahnhof", "name:en": "Warsaw Central", "name:pl": "Warszawa Centralna", "name:ru": "\u0426\u0435\u043d\u0442\u0440\u0430\u043b\u044c\u043d\u044b\u0439 \u0416\u0435\u043b\u0435\u0437\u043d\u043e\u0434\u043e\u0440\u043e\u0436\u043d\u044b\u0439 \u0412\u043e\u043a\u0437\u0430\u043b", "official_name": "Dworzec Centralny im. Stanis\u0142awa Moniuszki", "operator": "Polskie Koleje Pa\u0144stwowe", "platforms": "4", "public_transport": "station", "railway": "station", "train": "yes", "uic_name": "Warszawa Centralna", "uic_ref": "5100065", "wheelchair": "yes", "wikidata": "Q693034", "wikipedia": "pl:Warszawa Centralna"}}, {"type": "way", "id": 582694982, "nodes": [5548653083, 5548653081, 5548653080, 5548653082, 5548653083], "tags": {"amenity": "bicycle_rental", "capacity": "26", "name": "Wo\u0142oska - Marynarska", "network": "Veturilo", "operator": "Nextbike Polska", "ref": "9588"}}, {"type": "way", "id": 697092736, "nodes": [6547037077, 6547037074, 6547037075, 6547037076, 6547037077], "tags": {"amenity": "bicycle_rental", "capacity": "22", "name": "Kleszczowa - Kra\u0144cowa", "network": "Veturilo", "operator": "Nextbike Polska", "ref": "9717"}}, {"type": "way", "id": 793924714, "nodes": [7426506360, 7426506359, 7426506358, 7426506357, 7426506360], "tags": {"amenity": "bicycle_rental", "capacity": "19", "name": "al. Armii Ludowej - Rektorska", "network": "Veturilo", "operator": "Nextbike Polska", "ref": "9587"}}, {"type": "way", "id": 857655669, "nodes": [7996064514, 7996064519, 7996064518, 7996064517, 7996064516, 7996064515, 7996064514], "tags": {"amenity": "bicycle_rental"}}, {"type": "way", "id": 917337104, "nodes": [8510693582, 8510693581, 8510693584, 8510693583, 8510693582], "tags": {"amenity": "bicycle_rental"}}, {"type": "way", "id": 917337150, "nodes": [5476149095, 8520247973, 3025515948, 5476149098, 5476149097, 5476149096, 5476149095], "tags": {"amenity": "bicycle_rental"}}, {"type": "way", "id": 996123908, "nodes": [9198077903, 9198077902, 9198077901, 9198077900, 9198077903], "tags": {"amenity": "bicycle_rental", "landuse": "grass"}}, {"type": "way", "id": 1001430641, "nodes": [9243334770, 9243334769, 9243334768, 9243334767, 9243334770], "tags": {"amenity": "bicycle_rental", "network": "Veturilo", "operator": "Nextbike", "operator:type": "public"}}, {"type": "way", "id": 1017387642, "nodes": [3219569537, 9384015107, 9384015108, 9384015109, 3219569537], "tags": {"amenity": "bicycle_rental", "brand": "Veturilo", "brand:wikidata": "Q3847868", "brand:wikipedia": "pl:Veturilo", "capacity": "23", "covered": "no", "name": "Kondratowicza - Chodecka", "network": "Veturilo", "network:wikidata": "Q3847868", "network:wikipedia": "pl:Veturilo", "operator": "Nextbike Polska"}}]}