{"version": 0.6, "generator": "Overpass API 0.7.57 93a4d346", "osm3s": {"timestamp_osm_base": "2022-03-09T14:37:57Z", "copyright": "The data included in this document is from www.openstreetmap.org. The data is made available under ODbL."}, "elements": [{"type": "node", "id": 262833583, "lat": 52.2314331, "lon": 21.0212989}, {"type": "node", "id": 276303027, "lat": 52.2300877, "lon": 21.0301125}, {"type": "node", "id": 1734997736, "lat": 52.2582253, "lon": 20.8984832, "tags": {"amenity": "bicycle_rental", "capacity": "21", "name": "P\u0119tla Stare Bemowo", "network": "Veturilo", "operator": "Nextbike Polska", "ref": "9423"}}, {"type": "node", "id": 1735000340, "lat": 52.2526197, "lon": 20.9135393, "tags": {"amenity": "bicycle_rental", "capacity": "30", "name": "Powsta\u0144c\u00f3w \u015al\u0105skich - Radiowa", "network": "Veturilo", "operator": "Nextbike Polska", "ref": "9431"}}, {"type": "node", "id": 1779313804, "lat": 52.2284837, "lon": 20.9149684, "tags": {"amenity": "bicycle_rental", "capacity": "16", "name": "Powsta\u0144c\u00f3w \u015al\u0105skich - Cz\u0142uchowska", "network": "Veturilo", "operator": "Nextbike Polska", "ref": "9458"}}, {"type": "node", "id": 1779313805, "lat": 52.2332172, "lon": 20.9057421, "tags": {"amenity": "bicycle_rental", "capacity": "22", "name": "Park G\u00f3rczewska", "network": "Veturilo", "operator": "Nextbike Polska", "ref": "9720"}}, {"type": "node", "id": 1779313806, "lat": 52.2388249, "lon": 20.9139604, "tags": {"amenity": "bicycle_rental", "brand": "Ko\u0142obrzeski Rower Miejski", "brand:wikidata": "Q97373105", "brand:wikipedia": "pl:Ko\u0142obrzeski Rower Miejski", "capacity": "20", "name": "Bemowo - Ratusz", "network": "Ko\u0142obrzeski Rower Miejski", "network:wikidata": "Q97373105", "network:wikipedia": "pl:Ko\u0142obrzeski Rower Miejski", "operator": "Nextbike Polska", "ref": "9450", "source": "http://www.veturilo.waw.pl/lokalizacje/"}}, {"type": "node", "id": 1779313807, "lat": 52.2520637, "lon": 20.9237004, "tags": {"amenity": "bicycle_rental", "capacity": "27", "name": "Wroc\u0142awska \u2013 Bailly", "network": "Veturilo", "operator": "Nextbike Polska", "ref": "9439"}}, {"type": "node", "id": 1779313808, "lat": 52.2575672, "lon": 20.9323304, "tags": {"amenity": "bicycle_rental", "capacity": "22", "name": "Obro\u0144c\u00f3w Tobruku - Pieni\u0105\u017cka", "network": "Veturilo", "operator": "veturilo", "ref": "9425", "website": "https://www.veturilo.waw.pl"}}, {"type": "node", "id": 1779313809, "lat": 52.2605317, "lon": 20.9243303, "tags": {"amenity": "bicycle_rental", "capacity": "25", "name": "P\u0119tla Nowe Bemowo", "network": "Veturilo", "operator": "Nextbike Polska", "ref": "9424"}}, {"type": "node", "id": 1836332040, "lat": 52.2384534, "lon": 21.0067534, "tags": {"amenity": "bicycle_rental", "capacity": "19", "name": "Marsza\u0142kowska - Kr\u00f3lewska", "network": "Veturilo", "operator": "Nextbike Polska", "ref": "9488", "source": "http://www.veturilo.waw.pl/lokalizacje/"}}, {"type": "node", "id": 1836353689, "lat": 52.2412866, "lon": 21.0281181, "tags": {"amenity": "bicycle_rental", "capacity": "30", "name": "Centrum Nauki Kopernik", "network": "Veturilo", "operator": "Nextbike Polska", "ref": "9497", "source": "http://www.veturilo.waw.pl/lokalizacje/"}}, {"type": "node", "id": 1836353694, "lat": 52.2375127, "lon": 21.025698}, {"type": "node", "id": 1836358792, "lat": 52.2345758, "lon": 21.0342986, "tags": {"amenity": "bicycle_rental", "capacity": "24", "name": "Solec - al. 3 Maja", "network": "Veturilo", "operator": "Nextbike Polska", "ref": "9528", "source": "http://www.veturilo.waw.pl/lokalizacje/"}}, {"type": "node", "id": 1836370615, "lat": 52.2339551, "lon": 21.0299624, "tags": {"amenity": "bicycle_rental", "capacity": "26", "name": "Herberta - PKP Powi\u015ble", "network": "Veturilo", "operator": "Nextbike Polska", "ref": "9527", "source": "http://www.veturilo.waw.pl/lokalizacje/"}}, {"type": "node", "id": 1836376619, "lat": 52.2281917, "lon": 21.0179229, "tags": {"amenity": "bicycle_rental", "capacity": "28", "name": "Krucza - Wsp\u00f3lna", "network": "Veturilo", "operator": "Nextbike Polska", "ref": "9523", "source": "http://www.veturilo.waw.pl/lokalizacje/"}}, {"type": "node", "id": 1836378563, "lat": 52.2299714, "lon": 21.010779, "tags": {"amenity": "bicycle_rental", "capacity": "30", "name": "Metro Centrum", "network": "Veturilo", "operator": "Nextbike Polska", "ref": "9519", "source": "http://www.veturilo.waw.pl/lokalizacje/"}}, {"type": "node", "id": 1836380633, "lat": 52.2310386, "lon": 21.0167656, "tags": {"amenity": "bicycle_rental", "capacity": "20", "name": "Bracka - Krucza", "network": "Veturilo", "operator": "Nextbike Polska", "ref": "9504", "source": "http://www.veturilo.waw.pl/lokalizacje/"}}, {"type": "node", "id": 1836514043, "lat": 52.2329272, "lon": 21.0101665, "tags": {"amenity": "bicycle_rental", "capacity": "22", "name": "Marsza\u0142kowska - Z\u0142ota", "network": "Veturilo", "operator": "Nextbike Polska", "ref": "9503", "source": "http://www.veturilo.waw.pl/lokalizacje/"}}, {"type": "node", "id": 1836519871, "lat": 52.2430009, "lon": 21.0018166, "tags": {"amenity": "bicycle_rental", "capacity": "30", "name": "Plac Bankowy - Ratusz", "network": "Veturilo", "operator": "Nextbike Polska", "ref": "9465", "source": "http://www.veturilo.waw.pl/lokalizacje/"}}, {"type": "node", "id": 1836525834, "lat": 52.2442572, "lon": 21.0015592, "tags": {"amenity": "bicycle_rental", "capacity": "30", "name": "Marsza\u0142kowska - al. Solidarno\u015bci", "network": "Veturilo", "operator": "Nextbike Polska", "ref": "9464", "source": "http://www.veturilo.waw.pl/lokalizacje/"}}, {"type": "node", "id": 1836527573, "lat": 52.2449444, "lon": 21.0012669, "tags": {"amenity": "bicycle_rental", "capacity": "30", "name": "Andersa - D\u0142uga", "network": "Veturilo", "operator": "Nextbike Polska", "ref": "9463", "source": "http://www.veturilo.waw.pl/lokalizacje/"}}, {"type": "node", "id": 1836529171, "lat": 52.2445557, "lon": 20.9999839, "tags": {"amenity": "bicycle_rental", "capacity": "17", "name": "Plac Bankowy - Kino Muran\u00f3w", "network": "Veturilo", "operator": "Nextbike Polska", "ref": "9462", "source": "http://www.veturilo.waw.pl/lokalizacje/"}}, {"type": "node", "id": 1836531487, "lat": 52.246318, "lon": 21.0113163, "tags": {"amenity": "bicycle_rental", "capacity": "24", "name": "Miodowa", "network": "Veturilo", "operator": "Nextbike Polska", "ref": "9467", "source": "http://www.veturilo.waw.pl/lokalizacje/"}}, {"type": "node", "id": 1836535425, "lat": 52.2541244, "lon": 21.0093662, "tags": {"amenity": "bicycle_rental", "capacity": "26", "name": "Ko\u015bcielna - Piesza", "network": "Veturilo", "operator": "Nextbike Polska", "ref": "9448", "source": "http://www.veturilo.waw.pl/lokalizacje/"}}, {"type": "node", "id": 1836539038, "lat": 52.249247, "lon": 20.997206, "tags": {"amenity": "bicycle_rental", "capacity": "20", "name": "Anielewicza - Andersa", "network": "Veturilo", "operator": "Nextbike Polska", "ref": "9445", "source": "http://www.veturilo.waw.pl/lokalizacje/"}}, {"type": "node", "id": 1836544908, "lat": 52.2540948, "lon": 20.9980983, "tags": {"amenity": "bicycle_rental", "capacity": "30", "name": "Andersa - Muranowska", "network": "Veturilo", "operator": "Nextbike Polska", "ref": "9437", "source": "www.veturilo.waw.pl/lokalizacje/"}}, {"type": "node", "id": 1836545868, "lat": 52.2514348, "lon": 20.9857586, "tags": {"amenity": "bicycle_rental", "capacity": "23", "name": "al. Jana Paw\u0142a II - Stawki", "network": "Veturilo", "operator": "Nextbike Polska", "ref": "9435", "source": "www.veturilo.waw.pl/lokalizacje/"}}, {"type": "node", "id": 1836563076, "lat": 52.2471139, "lon": 20.9894344, "tags": {"amenity": "bicycle_rental", "capacity": "22", "name": "al. Jana Paw\u0142a II - Anielewicza", "network": "Veturilo", "operator": "Nextbike Polska", "ref": "9443", "source": "www.veturilo.waw.pl/lokalizacje/"}}, {"type": "node", "id": 1836565021, "lat": 52.2422072, "lon": 20.9929109, "tags": {"amenity": "bicycle_rental", "capacity": "24", "name": "al. Jana Paw\u0142a II - al. Solidarno\u015bci", "network": "Veturilo", "operator": "Nextbike Polska", "ref": "9461", "source": "www.veturilo.waw.pl/lokalizacje/"}}, {"type": "node", "id": 1836570532, "lat": 52.2385596, "lon": 20.9956948, "tags": {"amenity": "bicycle_rental", "capacity": "21", "name": "al. Jana Paw\u0142a II - Plac Mirowski", "network": "Veturilo", "operator": "Nextbike Polska", "ref": "9482", "source": "http://www.veturilo.waw.pl/lokalizacje/"}}, {"type": "node", "id": 1836607630, "lat": 52.2357081, "lon": 20.9966847}, {"type": "node", "id": 1838012960, "lat": 52.1605874, "lon": 21.0723391, "tags": {"amenity": "bicycle_rental", "capacity": "16", "name": "al. Rzeczypospolitej - Klimczaka", "network": "Veturilo", "operator": "Nextbike Polska", "ref": "9600", "source": "http://www.veturilo.waw.pl/lokalizacje/"}}, {"type": "node", "id": 1838847553, "lat": 52.2858639, "lon": 20.9406427, "tags": {"amenity": "bicycle_rental", "capacity": "20", "name": "Metro Wawrzyszew", "network": "Veturilo", "operator": "Nextbike Polska", "ref": "9405", "source": "http://www.veturilo.waw.pl/lokalizacje/"}}, {"type": "node", "id": 1838850772, "lat": 52.2761345, "lon": 20.9615793, "tags": {"amenity": "bicycle_rental", "capacity": "30", "name": "Metro S\u0142odowiec", "network": "Veturilo", "operator": "Nextbike Polska", "ref": "9410", "source": "http://www.veturilo.waw.pl/lokalizacje/"}}, {"type": "node", "id": 1838851344, "lat": 52.276808, "lon": 20.948042, "tags": {"amenity": "bicycle_rental", "capacity": "28", "name": "Bielany-Ratusz", "network": "Veturilo", "operator": "Nextbike Polska", "ref": "9409", "source": "http://www.veturilo.waw.pl/lokalizacje/"}}, {"type": "node", "id": 1838851915, "lat": 52.2706266, "lon": 20.9504638, "tags": {"amenity": "bicycle_rental", "capacity": "16", "name": "Broniewskiego - Perzy\u0144skiego", "network": "Veturilo", "operator": "Nextbike Polska", "ref": "9414", "source": "http://www.veturilo.waw.pl/lokalizacje/"}}, {"type": "node", "id": 1853975662, "lat": 52.1520933, "lon": 21.0181634, "tags": {"amenity": "bicycle_rental", "capacity": "22", "name": "Pu\u0142awska - Pileckiego", "network": "Veturilo", "operator": "Nextbike Polska", "ref": "9609", "source": "http://www.veturilo.waw.pl/lokalizacje/"}}, {"type": "node", "id": 1853978654, "lat": 52.1617599, "lon": 21.0276875, "tags": {"amenity": "bicycle_rental", "capacity": "30", "fixme": "Stacja zosta\u0142a st\u0105d zabrana w czasie remontu skrzy\u017cowania, ale czy wr\u00f3ci?", "name": "Metro Ursyn\u00f3w II", "network": "Veturilo", "operator": "Nextbike Polska", "ref": "9603", "source": "http://www.veturilo.waw.pl/lokalizacje/"}}, {"type": "node", "id": 1853981632, "lat": 52.1622031, "lon": 21.0281157, "tags": {"amenity": "bicycle_rental", "capacity": "30", "name": "Metro Ursyn\u00f3w I", "network": "Veturilo", "operator": "Nextbike Polska", "ref": "9604", "source": "http://www.veturilo.waw.pl/lokalizacje/"}}, {"type": "node", "id": 1853986512, "lat": 52.1568489, "lon": 21.0338382, "tags": {"amenity": "bicycle_rental", "capacity": "27", "name": "Metro Stok\u0142osy", "network": "Veturilo", "operator": "Nextbike Polska", "ref": "9607", "source": "http://www.veturilo.waw.pl/lokalizacje/"}}, {"type": "node", "id": 1853996353, "lat": 52.1494548, "lon": 21.0333107, "tags": {"amenity": "bicycle_rental", "capacity": "22", "name": "Ciszewskiego - Pileckiego", "network": "Veturilo", "operator": "Nextbike Polska", "ref": "9610", "source": "http://www.veturilo.waw.pl/lokalizacje/"}}, {"type": "node", "id": 1853996701, "lat": 52.1492006, "lon": 21.0454755, "tags": {"amenity": "bicycle_rental", "capacity": "22", "name": "Metro Imielin", "network": "Veturilo", "operator": "Nextbike Polska", "ref": "9612", "source": "http://www.veturilo.waw.pl/lokalizacje/"}}, {"type": "node", "id": 1854001016, "lat": 52.142617, "lon": 21.0384008, "tags": {"amenity": "bicycle_rental", "capacity": "30", "name": "Pileckiego - Alternatywy", "network": "Veturilo", "operator": "Nextbike Polska", "ref": "9614", "source": "http://www.veturilo.waw.pl/lokalizacje/"}}, {"type": "node", "id": 1854028490, "lat": 52.154861, "lon": 21.0493151, "tags": {"amenity": "bicycle_rental", "capacity": "22", "name": "Roso\u0142a - Gandhi", "network": "Veturilo", "operator": "Nextbike Polska", "ref": "9611", "source": "http://www.veturilo.waw.pl/lokalizacje/"}}, {"type": "node", "id": 2244982110, "lat": 52.2363908, "lon": 21.0073452, "tags": {"amenity": "bicycle_rental", "capacity": "30", "name": "Marsza\u0142kowska - Zielna", "network": "Veturilo", "operator": "Nextbike Polska", "ref": "9489", "source": "http://www.veturilo.waw.pl/lokalizacje/"}}, {"type": "node", "id": 2244982410, "lat": 52.2358526, "lon": 21.003755, "tags": {"amenity": "bicycle_rental", "capacity": "26", "name": "Plac Grzybowski", "network": "Veturilo", "operator": "Nextbike Polska", "ref": "9487", "source": "http://www.veturilo.waw.pl/lokalizacje/"}}, {"type": "node", "id": 2244983720, "lat": 52.264418, "lon": 20.9896252, "tags": {"amenity": "bicycle_rental", "capacity": "15", "name": "Plac Inwalid\u00f3w", "network": "Veturilo", "operator": "Nextbike Polska", "ref": "9422", "source": "http://www.veturilo.waw.pl/lokalizacje/"}}, {"type": "node", "id": 2244984352, "lat": 52.2623183, "lon": 20.9802359, "tags": {"amenity": "bicycle_rental", "capacity": "30", "name": "Plac Grunwaldzki", "network": "Veturilo", "operator": "Nextbike Polska", "ref": "9420", "source": "http://www.veturilo.waw.pl/lokalizacje/"}}, {"type": "node", "id": 2244986957, "lat": 52.2558887, "lon": 21.0098349, "tags": {"amenity": "bicycle_rental", "capacity": "14", "name": "Veturilko - Sanguszki - Wybrze\u017ce Gda\u0144skie", "network": "Veturilo", "operator": "Nextbike Polska", "ref": "9716", "rmikke:checked": "20150904", "source": "http://www.veturilo.waw.pl/lokalizacje/"}}, {"type": "node", "id": 2244993447, "lat": 52.2435797, "lon": 21.0141427, "tags": {"amenity": "bicycle_rental", "capacity": "14", "name": "Krakowskie Przedmie\u015bcie - Tr\u0119backa", "network": "Veturilo", "operator": "Nextbike Polska", "ref": "9468", "source": "http://www.veturilo.waw.pl/lokalizacje/"}}, {"type": "node", "id": 2244999309, "lat": 52.2418528, "lon": 21.0240572, "tags": {"amenity": "bicycle_rental", "capacity": "19", "name": "Lipowa - Dobra 2", "network": "Veturilo", "operator": "Nextbike Polska", "ref": "94961", "source": "http://www.veturilo.waw.pl/lokalizacje/"}}, {"type": "node", "id": 2245001298, "lat": 52.2355397, "lon": 21.0180981, "tags": {"amenity": "bicycle_rental", "capacity": "24", "name": "Nowy \u015awiat - Warecka", "network": "Veturilo", "operator": "Nextbike Polska", "ref": "9505", "source": "http://www.veturilo.waw.pl/lokalizacje/"}}, {"type": "node", "id": 2260051718, "lat": 52.1800354, "lon": 21.0207429, "tags": {"amenity": "bicycle_rental", "capacity": "30", "name": "al. Niepodleg\u0142o\u015bci - al. Wilanowska", "network": "Veturilo", "operator": "Nextbike Polska", "ref": "9589", "source": "http://www.veturilo.waw.pl/lokalizacje/"}}, {"type": "node", "id": 2262430570, "lat": 52.2345126, "lon": 20.990539, "tags": {"amenity": "bicycle_rental", "capacity": "20", "name": "\u017belazna - Grzybowska", "network": "Veturilo", "operator": "Nextbike Polska", "ref": "9481", "source": "http://www.veturilo.waw.pl/lokalizacje/"}}, {"type": "node", "id": 2278200811, "lat": 52.228072, "lon": 21.0048675, "tags": {"amenity": "bicycle_rental", "capacity": "22", "name": "Al. Jerozolimskie - Emilii Plater", "network": "Veturilo", "operator": "Nextbike Polska", "ref": "9516", "source": "http://www.veturilo.waw.pl/lokalizacje/"}}, {"type": "node", "id": 2306178206, "lat": 52.2336749, "lon": 21.0028291, "tags": {"amenity": "bicycle_rental", "capacity": "26", "name": "Emilii Plater - \u015awi\u0119tokrzyska", "network": "Veturilo", "operator": "Nextbike Polska", "ref": "9486", "source": "http://www.veturilo.waw.pl/lokalizacje/"}}, {"type": "node", "id": 2306376274, "lat": 52.237265, "lon": 20.9888425}, {"type": "node", "id": 2306385125, "lat": 52.2549917, "lon": 21.0338571, "tags": {"amenity": "bicycle_rental", "capacity": "30", "name": "Plac Wile\u0144ski", "network": "Veturilo", "operator": "Nextbike Polska", "ref": "9663"}}, {"type": "node", "id": 2306385126, "lat": 52.2524203, "lon": 21.0304118, "tags": {"amenity": "bicycle_rental", "capacity": "23", "name": "Floria\u0144ska - Park Praski", "network": "Veturilo", "operator": "Nextbike Polska", "ref": "9662"}}, {"type": "node", "id": 2309748408, "lat": 52.3325145, "lon": 20.9419714, "tags": {"amenity": "bicycle_rental", "capacity": "22", "name": "Ordon\u00f3wny - \u015awiatowida", "network": "Veturilo", "operator": "Nextbike Polska", "ref": "9620", "source": "http://www.veturilo.waw.pl/lokalizacje/"}}, {"type": "node", "id": 2312710240, "lat": 52.3150029, "lon": 21.0611378, "tags": {"amenity": "bicycle_rental", "capacity": "30", "name": "Skarbka z G\u00f3r - Magiczna", "network": "Veturilo", "operator": "Nextbike Polska", "ref": "9630", "source": "http://www.veturilo.waw.pl/lokalizacje/"}}, {"type": "node", "id": 2312872493, "lat": 52.3210786, "lon": 20.9714049, "tags": {"amenity": "bicycle_rental", "capacity": "19", "name": "Bia\u0142o\u0142\u0119ka-Ratusz", "network": "Veturilo", "operator": "Nextbike Polska", "ref": "9627", "source": "http://www.veturilo.waw.pl/lokalizacje/"}}, {"type": "node", "id": 2337019754, "lat": 52.2643198, "lon": 20.9317221, "tags": {"amenity": "bicycle_rental", "capacity": "15", "name": "Galeria Bemowo", "network": "Veturilo", "operator": "Nextbike Polska", "ref": "6408", "source": "http://www.veturilo.waw.pl/lokalizacje/"}}, {"type": "node", "id": 2338662701, "lat": 52.1314421, "lon": 21.0562422, "tags": {"amenity": "bicycle_rental", "capacity": "23", "name": "Stryje\u0144skich - W\u0105wozowa", "network": "Veturilo", "operator": "Nextbike Polska", "ref": "9619", "source": "http://www.veturilo.waw.pl/lokalizacje/"}}, {"type": "node", "id": 2348481314, "lat": 52.1331951, "lon": 21.0748504, "tags": {"amenity": "bicycle_rental", "capacity": "18", "name": "W\u0105wozowa - Roso\u0142a", "network": "Veturilo", "operator": "Nextbike Polska", "ref": "9622"}}, {"type": "node", "id": 2364620963, "lat": 52.2248898, "lon": 21.0031585, "tags": {"amenity": "bicycle_rental", "capacity": "19", "name": "Oczki - WUM", "network": "Veturilo", "operator": "Nextbike Polska", "ref": "9515", "source": "http://www.veturilo.waw.pl/lokalizacje/"}}, {"type": "node", "id": 2365549705, "lat": 52.2260998, "lon": 20.996207, "tags": {"amenity": "bicycle_rental", "capacity": "15", "name": "al. Jerozolimskie - Lindleya", "network": "Veturilo", "operator": "Nextbike Polska", "ref": "9512", "source": "http://www.veturilo.waw.pl/lokalizacje/"}}, {"type": "node", "id": 2365552580, "lat": 52.2298068, "lon": 20.9940034, "tags": {"amenity": "bicycle_rental", "capacity": "30", "name": "\u017belazna - Sienna", "network": "Veturilo", "operator": "Nextbike Polska", "ref": "9499", "source": "http://www.veturilo.waw.pl/lokalizacje/"}}, {"type": "node", "id": 2377315811, "lat": 52.2669015, "lon": 21.0585975, "tags": {"amenity": "bicycle_rental", "capacity": "20", "name": "Radzymi\u0144ska - Piotra Skargi", "network": "Veturilo", "operator": "Nextbike Polska", "ref": "9647", "source": "http://www.veturilo.waw.pl/lokalizacje/"}}, {"type": "node", "id": 2385721286, "lat": 52.1420243, "lon": 21.0661516, "tags": {"amenity": "bicycle_rental", "capacity": "23", "name": "Belgradzka - Roso\u0142a", "network": "Veturilo", "operator": "Nextbike Polska", "ref": "9618", "source": "http://www.veturilo.waw.pl/lokalizacje/"}}, {"type": "node", "id": 2386844832, "lat": 52.2056041, "lon": 20.9159258, "tags": {"amenity": "bicycle_rental", "capacity": "17", "name": "PKP W\u0142ochy", "network": "Veturilo", "operator": "Nextbike Polska", "ref": "9580", "source": "https://veturilo.waw.pl/"}}, {"type": "node", "id": 2396455085, "lat": 52.1376013, "lon": 21.0505149, "tags": {"amenity": "bicycle_rental", "capacity": "15", "name": "Stryje\u0144skich - Belgradzka", "network": "Veturilo", "operator": "Nextbike Polska", "ref": "9616", "source": "http://www.veturilo.waw.pl/lokalizacje/"}}, {"type": "node", "id": 2434544130, "lat": 52.2235653, "lon": 21.0128736, "tags": {"amenity": "bicycle_rental", "capacity": "18", "name": "Pozna\u0144ska - Zesp\u00f3\u0142 Szk\u00f3\u0142 Gastronomicznych", "network": "Veturilo", "operator": "Nextbike Polska", "ref": "9539", "source": "http://www.veturilo.waw.pl/lokalizacje/"}}, {"type": "node", "id": 2445361960, "lat": 52.1654952, "lon": 21.0839797}, {"type": "node", "id": 2485604244, "lat": 52.2178869, "lon": 20.9828495, "tags": {"amenity": "bicycle_rental", "capacity": "30", "name": "Plac Narutowicza", "network": "Veturilo", "operator": "Nextbike Polska", "ref": "9532"}}, {"type": "node", "id": 2485604250, "lat": 52.2387213, "lon": 21.0508042, "tags": {"amenity": "bicycle_rental", "capacity": "18", "name": "Rondo Waszyngtona - Stadion Narodowy 1", "network": "Veturilo", "operator": "Nextbike Polska", "ref": "96821"}}, {"type": "node", "id": 2485604252, "lat": 52.2347853, "lon": 21.0536473, "tags": {"amenity": "bicycle_rental", "capacity": "15", "name": "Francuska - Walecznych", "network": "Veturilo", "operator": "Nextbike Polska", "ref": "9685"}}, {"type": "node", "id": 2503128155, "lat": 52.2631422, "lon": 21.0214268}, {"type": "node", "id": 2508070595, "lat": 52.2332733, "lon": 20.9651435, "tags": {"amenity": "bicycle_rental", "capacity": "20", "name": "Wolska - P\u0142ocka", "network": "Veturilo", "operator": "Nextbike Polska", "ref": "9474", "source": "http://www.veturilo.waw.pl/lokalizacje/"}}, {"type": "node", "id": 2624167979, "lat": 52.2226371, "lon": 21.0081451, "tags": {"amenity": "bicycle_rental", "capacity": "24", "name": "Noakowskiego - Koszykowa", "network": "Veturilo", "operator": "Nextbike Polska", "ref": "9537", "source": "http://www.veturilo.waw.pl/lokalizacje/"}}, {"type": "node", "id": 2701278877, "lat": 52.1403512, "lon": 21.0568364, "tags": {"amenity": "bicycle_rental", "capacity": "30", "name": "Metro Natolin", "network": "Veturilo", "operator": "Nextbike Polska", "ref": "9617", "source": "http://www.veturilo.waw.pl/lokalizacje/"}}, {"type": "node", "id": 2820201747, "lat": 52.2631153, "lon": 21.0213987}, {"type": "node", "id": 2822429553, "lat": 52.2909257, "lon": 20.9296457, "tags": {"amenity": "bicycle_rental", "capacity": "30", "name": "Metro M\u0142ociny", "network": "Veturilo", "operator": "Nextbike Polska", "ref": "9403", "source": "http://www.veturilo.waw.pl/lokalizacje/"}}, {"type": "node", "id": 2843039986, "lat": 52.2713734, "lon": 20.9726672, "tags": {"amenity": "bicycle_rental", "capacity": "30", "name": "Metro Marymont", "network": "Veturilo", "operator": "Nextbike Polska", "ref": "9415", "source": "http://www.veturilo.waw.pl/lokalizacje/"}}, {"type": "node", "id": 2893145206, "lat": 52.2289978, "lon": 21.0054889, "tags": {"amenity": "bicycle_rental", "capacity": "30", "name": "Emilii Plater - Al. Jerozolimskie", "network": "Veturilo", "operator": "Nextbike Polska", "ref": "9517", "source": "http://www.veturilo.waw.pl/lokalizacje/"}}, {"type": "node", "id": 3004074589, "lat": 52.2612629, "lon": 21.0157267}, {"type": "node", "id": 3004074590, "lat": 52.2612724, "lon": 21.0157549}, {"type": "node", "id": 3004074595, "lat": 52.2613576, "lon": 21.015641}, {"type": "node", "id": 3004074596, "lat": 52.2613672, "lon": 21.0156692}, {"type": "node", "id": 3012412154, "lat": 52.2632149, "lon": 21.0211432}, {"type": "node", "id": 3012412158, "lat": 52.2632418, "lon": 21.0211713}, {"type": "node", "id": 3025515948, "lat": 52.2563713, "lon": 21.0294151}, {"type": "node", "id": 3031548248, "lat": 52.2667367, "lon": 20.9637821}, {"type": "node", "id": 3031548250, "lat": 52.2667621, "lon": 20.963801}, {"type": "node", "id": 3031548251, "lat": 52.2667862, "lon": 20.963605}, {"type": "node", "id": 3031548253, "lat": 52.2668116, "lon": 20.9636239}, {"type": "node", "id": 3036562819, "lat": 52.2576538, "lon": 20.9945463}, {"type": "node", "id": 3068197978, "lat": 52.244453, "lon": 21.0839824, "tags": {"amenity": "bicycle_rental", "capacity": "30", "name": "Rondo Wiatraczna", "network": "Veturilo", "not:brand:wikidata": "Q23955689", "operator": "Nextbike Polska", "ref": "9684", "source": "http://www.veturilo.waw.pl/lokalizacje/"}}, {"type": "node", "id": 3068197979, "lat": 52.2427158, "lon": 21.1019122, "tags": {"amenity": "bicycle_rental", "capacity": "15", "name": "Plac Szembeka", "network": "Veturilo", "operator": "Nextbike Polska", "ref": "9687", "source": "http://www.veturilo.waw.pl/lokalizacje/"}}, {"type": "node", "id": 3068321793, "lat": 52.188821, "lon": 21.0176929, "tags": {"amenity": "bicycle_rental", "brand": "Ko\u0142obrzeski Rower Miejski", "brand:wikidata": "Q97373105", "brand:wikipedia": "pl:Ko\u0142obrzeski Rower Miejski", "capacity": "20", "name": "Metro Wierzbno", "network": "Ko\u0142obrzeski Rower Miejski", "network:wikidata": "Q97373105", "network:wikipedia": "pl:Ko\u0142obrzeski Rower Miejski", "operator": "Nextbike Polska", "ref": "9584", "source": "http://www.veturilo.waw.pl/lokalizacje/"}}, {"type": "node", "id": 3073527851, "lat": 52.2574774, "lon": 20.994498}, {"type": "node", "id": 3080646370, "lat": 52.1593061, "lon": 21.0865394, "tags": {"amenity": "bicycle_rental", "capacity": "18", "name": "Przycz\u00f3\u0142kowa - Branickiego", "network": "Veturilo", "operator": "Nextbike Polska", "ref": "9602", "source": "http://www.veturilo.waw.pl/lokalizacje/"}}, {"type": "node", "id": 3080646371, "lat": 52.1701236, "lon": 21.06855, "tags": {"amenity": "bicycle_rental", "capacity": "15", "name": "Jana III Sobieskiego - al. Wilanowska", "network": "Veturilo", "operator": "Nextbike Polska", "ref": "9597", "source": "http://www.veturilo.waw.pl/lokalizacje/"}}, {"type": "node", "id": 3105806056, "lat": 52.1869604, "lon": 20.8906893, "tags": {"amenity": "bicycle_rental", "capacity": "15", "name": "Sosnkowskiego - OSiR Ursus", "network": "Veturilo", "operator": "Nextbike Polska", "ref": "9576", "source": "http://www.veturilo.waw.pl/lokalizacje/"}}, {"type": "node", "id": 3105806057, "lat": 52.195978, "lon": 20.8848986, "tags": {"amenity": "bicycle_rental", "capacity": "16", "name": "PKP Ursus", "network": "Veturilo", "operator": "Nextbike Polska", "ref": "9575", "source": "http://www.veturilo.waw.pl/lokalizacje/"}}, {"type": "node", "id": 3105806058, "lat": 52.200504, "lon": 20.8937675, "tags": {"amenity": "bicycle_rental", "capacity": "15", "name": "Ursus-Ratusz", "network": "Veturilo", "not:brand:wikidata": "Q23955689", "operator": "Nextbike Polska", "ref": "9577", "source": "http://www.veturilo.waw.pl/lokalizacje/"}}, {"type": "node", "id": 3105806059, "lat": 52.1906835, "lon": 20.9000557, "tags": {"amenity": "bicycle_rental", "capacity": "17", "name": "Skoroszewska - Prystora", "network": "Veturilo", "operator": "Nextbike Polska", "ref": "9578", "source": "http://www.veturilo.waw.pl/lokalizacje/"}}, {"type": "node", "id": 3105806060, "lat": 52.1916092, "lon": 20.8690038, "tags": {"amenity": "bicycle_rental", "capacity": "15", "name": "PKP Ursus-Nied\u017awiadek", "network": "Veturilo", "operator": "Nextbike Polska", "operator:type": "public", "ref": "9574", "source": "http://www.veturilo.waw.pl/lokalizacje/"}}, {"type": "node", "id": 3105829322, "lat": 52.2220651, "lon": 21.034291, "tags": {"amenity": "bicycle_rental", "capacity": "21", "name": "My\u015bliwiecka - Rozbrat", "network": "Veturilo", "operator": "Nextbike Polska", "ref": "9547", "source": "http://www.veturilo.waw.pl/lokalizacje/"}}, {"type": "node", "id": 3120439404, "lat": 52.2206605, "lon": 20.9722835, "tags": {"amenity": "bicycle_rental", "capacity": "15", "name": "Eurocentrum", "network": "Veturilo", "operator": "Nextbike Polska", "ref": "6407", "source": "http://www.veturilo.waw.pl/lokalizacje/"}}, {"type": "node", "id": 3143515555, "lat": 52.1568716, "lon": 21.0761078, "tags": {"amenity": "bicycle_rental", "capacity": "16", "name": "al. Rzeczypospolitej - Branickiego", "network": "Veturilo", "operator": "Nextbike Polska", "ref": "9601", "source": "http://www.veturilo.waw.pl/lokalizacje/"}}, {"type": "node", "id": 3219569537, "lat": 52.2922242, "lon": 21.0419745}, {"type": "node", "id": 3264473546, "lat": 52.3132884, "lon": 20.9657017}, {"type": "node", "id": 3373231696, "lat": 52.236587, "lon": 21.0647376, "tags": {"amenity": "bicycle_rental", "capacity": "15", "name": "Mi\u0119dzynarodowa - Walecznych", "network": "Veturilo", "operator": "Nextbike Polska", "ref": "9686", "source": "http://www.veturilo.waw.pl/lokalizacje/"}}, {"type": "node", "id": 3373246384, "lat": 52.2251518, "lon": 21.0713107, "tags": {"amenity": "bicycle_rental", "capacity": "16", "name": "Afryka\u0144ska - Egipska", "network": "Veturilo", "operator": "Nextbike Polska", "ref": "9693", "rmikke:checked": "20150902", "source": "http://www.veturilo.waw.pl/lokalizacje/"}}, {"type": "node", "id": 3373246385, "lat": 52.2283273, "lon": 21.0858024, "tags": {"amenity": "bicycle_rental", "capacity": "15", "name": "Abrahama - Kapelan\u00f3w AK", "network": "Veturilo", "operator": "Nextbike Polska", "ref": "9694", "rmikke:checked": "20150902", "source": "http://www.veturilo.waw.pl/lokalizacje/"}}, {"type": "node", "id": 3388215466, "lat": 52.2471687, "lon": 21.0476916, "tags": {"amenity": "bicycle_rental", "capacity": "14", "name": "al. Zieleniecka - Teatr Powszechny", "network": "Veturilo", "operator": "Nextbike Polska", "ref": "9676", "source": "http://www.veturilo.waw.pl/lokalizacje/"}}, {"type": "node", "id": 3388215468, "lat": 52.3027504, "lon": 21.0588498, "tags": {"amenity": "bicycle_rental", "capacity": "25", "name": "Atrium Targ\u00f3wek", "network": "Veturilo", "operator": "Nextbike Polska", "ref": "6403", "source": "http://www.veturilo.waw.pl/lokalizacje/"}}, {"type": "node", "id": 3388215472, "lat": 52.273693, "lon": 21.0431816, "tags": {"amenity": "bicycle_rental", "capacity": "30", "name": "\u015aw. Wincentego \u2013 Ko\u0142owa", "network": "Veturilo", "operator": "Nextbike Polska", "ref": "9643", "source": "http://www.veturilo.waw.pl/lokalizacje/"}}, {"type": "node", "id": 3388215473, "lat": 52.2613562, "lon": 21.0306487, "tags": {"amenity": "bicycle_rental", "capacity": "28", "name": "Plac Hallera - Sawinkowa", "network": "Veturilo", "operator": "Nextbike Polska", "ref": "9654", "source": "http://www.veturilo.waw.pl/lokalizacje/"}}, {"type": "node", "id": 3388215474, "lat": 52.2951333, "lon": 21.0260783, "tags": {"amenity": "bicycle_rental", "capacity": "23", "name": "Rembieli\u0144ska - Kondratowicza", "network": "Veturilo", "note": "stacja przeniesiona w to miejsce na czas budowy stacji metra C21 Br\u00f3dno", "operator": "Nextbike Polska", "ref": "9632", "source": "http://www.veturilo.waw.pl/lokalizacje/"}}, {"type": "node", "id": 3388215476, "lat": 52.2463725, "lon": 21.06878, "tags": {"amenity": "bicycle_rental", "capacity": "15", "name": "Praga-Po\u0142udnie-Ratusz", "network": "Veturilo", "operator": "Nextbike Polska", "ref": "9678", "source": "http://www.veturilo.waw.pl/lokalizacje/"}}, {"type": "node", "id": 3388215477, "lat": 52.2527204, "lon": 21.0509587, "tags": {"amenity": "bicycle_rental", "capacity": "27", "name": "Dworzec Wschodni - Kijowska", "network": "Veturilo", "operator": "Nextbike Polska", "ref": "9674", "source": "http://www.veturilo.waw.pl/lokalizacje/"}}, {"type": "node", "id": 3388215478, "lat": 52.229716, "lon": 21.1062874, "tags": {"amenity": "bicycle_rental", "brand": "Ko\u0142obrzeski Rower Miejski", "brand:wikidata": "Q97373105", "brand:wikipedia": "pl:Ko\u0142obrzeski Rower Miejski", "capacity": "30", "name": "Rechniewskiego - Nowaka-Jeziora\u0144skiego", "network": "Ko\u0142obrzeski Rower Miejski", "network:wikidata": "Q97373105", "network:wikipedia": "pl:Ko\u0142obrzeski Rower Miejski", "operator": "Nextbike Polska", "ref": "9696", "source": "http://www.veturilo.waw.pl/lokalizacje/"}}, {"type": "node", "id": 3388215479, "lat": 52.2583733, "lon": 21.0354257, "tags": {"amenity": "bicycle_rental", "capacity": "24", "name": "Stalowa - 11 Listopada", "network": "Veturilo", "operator": "Nextbike Polska", "ref": "9660", "source": "http://www.veturilo.waw.pl/lokalizacje/"}}, {"type": "node", "id": 3388215480, "lat": 52.2371585, "lon": 21.0437623, "tags": {"amenity": "bicycle_rental", "capacity": "30", "name": "Wybrze\u017ce Szczeci\u0144skie - Stadion Narodowy", "network": "Veturilo", "operator": "Nextbike Polska", "ref": "9681", "source": "http://www.veturilo.waw.pl/lokalizacje/"}}, {"type": "node", "id": 3392688659, "lat": 52.2465494, "lon": 21.0174829, "tags": {"amenity": "bicycle_rental", "capacity": "15", "capacity:note": "Nie poprawia\u0107 pojemno\u015bci wed\u0142ug danych Veturilo. Oni w systemie maja tu 15 stojak\u00f3w, w rzeczywisto\u015bci jest 14.", "name": "Mariensztat", "network": "Veturilo", "operator": "Nextbike Polska", "ref": "9469", "source": "http://www.veturilo.waw.pl/lokalizacje/"}}, {"type": "node", "id": 3392688661, "lat": 52.2769414, "lon": 20.9845614, "tags": {"amenity": "bicycle_rental", "capacity": "15", "name": "Potocka - OSiR \u017boliborz", "network": "Veturilo", "operator": "Nextbike Polska", "ref": "9411", "source": "http://www.veturilo.waw.pl/lokalizacje/"}}, {"type": "node", "id": 3392688663, "lat": 52.2414054, "lon": 20.9291802, "tags": {"amenity": "bicycle_rental", "capacity": "20", "name": "Wola Park", "network": "Veturilo", "operator": "Nextbike Polska", "ref": "6424", "source": "http://www.veturilo.waw.pl/lokalizacje/"}}, {"type": "node", "id": 3392688667, "lat": 52.2368637, "lon": 20.9723614, "tags": {"amenity": "bicycle_rental", "capacity": "30", "name": "Leszno - M\u0142ynarska", "network": "Veturilo", "operator": "Nextbike Polska", "ref": "9453", "source": "http://www.veturilo.waw.pl/lokalizacje/"}}, {"type": "node", "id": 3392688668, "lat": 52.2902499, "lon": 20.9502549, "tags": {"amenity": "bicycle_rental", "capacity": "30", "name": "Marymoncka - Dewajtis", "network": "Veturilo", "operator": "Nextbike Polska", "ref": "9404", "source": "http://www.veturilo.waw.pl/lokalizacje/"}}, {"type": "node", "id": 3392688671, "lat": 52.2326184, "lon": 20.9971655, "tags": {"amenity": "bicycle_rental", "capacity": "29", "name": "Rondo ONZ", "network": "Veturilo", "operator": "Nextbike Polska", "ref": "9484", "source": "http://www.veturilo.waw.pl/lokalizacje/"}}, {"type": "node", "id": 3392688673, "lat": 52.2368836, "lon": 21.0176499, "tags": {"amenity": "bicycle_rental", "capacity": "20", "name": "Metro Nowy \u015awiat - Uniwersytet", "network": "Veturilo", "operator": "Nextbike Polska", "ref": "9494", "source": "http://www.veturilo.waw.pl/lokalizacje/"}}, {"type": "node", "id": 3412080203, "lat": 52.2312637, "lon": 21.0213733}, {"type": "node", "id": 3412080204, "lat": 52.2312741, "lon": 21.0214261}, {"type": "node", "id": 3412080206, "lat": 52.2314432, "lon": 21.0213254}, {"type": "node", "id": 3412080207, "lat": 52.2314635, "lon": 21.021334}, {"type": "node", "id": 3412132262, "lat": 52.2302335, "lon": 21.0126943}, {"type": "node", "id": 3412132263, "lat": 52.230245, "lon": 21.0126898}, {"type": "node", "id": 3412132264, "lat": 52.2302617, "lon": 21.0128864}, {"type": "node", "id": 3412132265, "lat": 52.2302732, "lon": 21.0128819}, {"type": "node", "id": 3426505648, "lat": 52.2174215, "lon": 21.0142682}, {"type": "node", "id": 3426505650, "lat": 52.2174223, "lon": 21.0143896}, {"type": "node", "id": 3426505652, "lat": 52.21744, "lon": 21.0142678}, {"type": "node", "id": 3426505653, "lat": 52.2174408, "lon": 21.0143893}, {"type": "node", "id": 3471234411, "lat": 52.2228943, "lon": 21.0157695, "tags": {"amenity": "bicycle_rental", "capacity": "30", "name": "Plac Konstytucji", "network": "Veturilo", "operator": "Nextbike Polska", "ref": "9543"}}, {"type": "node", "id": 3471234412, "lat": 52.2293176, "lon": 21.0113318, "tags": {"amenity": "bicycle_rental", "capacity": "24", "name": "Marsza\u0142kowska - Al. Jerozolimskie", "network": "Veturilo", "operator": "Nextbike Polska", "ref": "9520", "source": "http://www.veturilo.waw.pl/lokalizacje/"}}, {"type": "node", "id": 3479401789, "lat": 52.2374355, "lon": 20.955378}, {"type": "node", "id": 3479402898, "lat": 52.2375033, "lon": 20.9554021}, {"type": "node", "id": 3579525845, "lat": 52.2556906, "lon": 20.9842939}, {"type": "node", "id": 3579525846, "lat": 52.2557027, "lon": 20.9843297}, {"type": "node", "id": 3579525847, "lat": 52.2558076, "lon": 20.9841882}, {"type": "node", "id": 3579525848, "lat": 52.2558197, "lon": 20.984224}, {"type": "node", "id": 3652804244, "lat": 52.247645, "lon": 21.0429127, "tags": {"amenity": "bicycle_rental", "capacity": "15", "name": "Metro Stadion Narodowy", "network": "Veturilo", "operator": "Nextbike Polska", "ref": "9675", "rmikke:checked": "20150902", "source": "http://www.veturilo.waw.pl/lokalizacje/"}}, {"type": "node", "id": 3653992556, "lat": 52.2131199, "lon": 21.0211247}, {"type": "node", "id": 3653992561, "lat": 52.2131238, "lon": 21.021102}, {"type": "node", "id": 3653992588, "lat": 52.2131985, "lon": 21.0211607}, {"type": "node", "id": 3653992590, "lat": 52.2132024, "lon": 21.021138}, {"type": "node", "id": 3654886502, "lat": 52.162396, "lon": 21.0383956, "tags": {"amenity": "bicycle_rental", "capacity": "30", "name": "Jastrz\u0119bowskiego - SGGW", "network": "Veturilo", "operator": "Nextbike Polska", "ref": "9605", "source": "http://www.veturilo.waw.pl/lokalizacje/"}}, {"type": "node", "id": 3655416300, "lat": 52.2199108, "lon": 21.0257049}, {"type": "node", "id": 3655416301, "lat": 52.2199441, "lon": 21.0257265}, {"type": "node", "id": 3655416302, "lat": 52.2199851, "lon": 21.0255583}, {"type": "node", "id": 3655416303, "lat": 52.2199518, "lon": 21.0255367}, {"type": "node", "id": 3655417635, "lat": 52.2278425, "lon": 21.023511, "tags": {"amenity": "bicycle_rental", "capacity": "23", "name": "Plac Trzech Krzy\u017cy", "network": "Veturilo", "operator": "Nextbike Polska", "ref": "9525"}}, {"type": "node", "id": 3659251244, "lat": 52.2962743, "lon": 20.9583624, "tags": {"amenity": "bicycle_rental", "capacity": "30", "name": "Dewajtis - UKSW", "network": "Veturilo", "operator": "Nextbike Polska", "ref": "9402"}}, {"type": "node", "id": 3668990332, "lat": 52.1561385, "lon": 20.9963341, "tags": {"amenity": "bicycle_rental", "capacity": "25", "name": "Poleczki Park", "network": "Veturilo", "operator": "Nextbike Polska", "ref": "6415"}}, {"type": "node", "id": 3675094158, "lat": 52.2393877, "lon": 21.0168074, "tags": {"amenity": "bicycle_rental", "capacity": "24", "name": "Krakowskie Przedmie\u015bcie - Traugutta", "network": "Veturilo", "operator": "Nextbike Polska", "ref": "9493", "source": "http://www.veturilo.waw.pl/lokalizacje/"}}, {"type": "node", "id": 3675094159, "lat": 52.2393415, "lon": 21.016829, "tags": {"amenity": "bicycle_rental", "capacity": "15", "name": "E-bike - Krakowskie Przedmie\u015bcie \u2013 Traugutta", "network": "Veturilo", "operator": "Nextbike Polska", "ref": "9706", "rental": "ebike"}}, {"type": "node", "id": 3675169379, "lat": 52.2165714, "lon": 20.9879727, "tags": {"amenity": "bicycle_rental", "capacity": "20", "name": "Raszy\u0144ska - Wawelska", "network": "Veturilo", "operator": "Nextbike Polska", "ref": "9533", "source": "http://www.veturilo.waw.pl/lokalizacje/"}}, {"type": "node", "id": 3675169380, "lat": 52.2538648, "lon": 21.0232639, "tags": {"amenity": "bicycle_rental", "capacity": "14", "name": "Ratuszowa - ZOO", "network": "Veturilo", "operator": "Nextbike Polska", "ref": "9656", "source": "http://www.veturilo.waw.pl/lokalizacje/"}}, {"type": "node", "id": 3675218852, "lat": 52.174381, "lon": 21.0129882, "tags": {"amenity": "bicycle_rental", "capacity": "30", "name": "al. Lotnik\u00f3w - Kaczmarskiego", "network": "Veturilo", "operator": "Nextbike Polska", "ref": "9594", "source": "http://www.veturilo.waw.pl/lokalizacje/"}}, {"type": "node", "id": 3675218853, "lat": 52.2276574, "lon": 21.0443116, "tags": {"amenity": "bicycle_rental", "capacity": "30", "name": "Port Czerniakowski", "network": "Veturilo", "operator": "Nextbike Polska", "ref": "9548", "source": "http://www.veturilo.waw.pl/lokalizacje/"}}, {"type": "node", "id": 3675218855, "lat": 52.2248937, "lon": 21.0269445, "tags": {"amenity": "bicycle_rental", "capacity": "20", "name": "Matejki - Wiejska", "network": "Veturilo", "operator": "Nextbike Polska", "ref": "9546", "source": "http://www.veturilo.waw.pl/lokalizacje/"}}, {"type": "node", "id": 3675218856, "lat": 52.2129835, "lon": 20.9820471, "tags": {"amenity": "bicycle_rental", "capacity": "24", "name": "Pasteura - Winnicka - UW", "network": "Veturilo", "operator": "Nextbike Polska", "ref": "9550", "source": "http://www.veturilo.waw.pl/lokalizacje/"}}, {"type": "node", "id": 3676859610, "lat": 52.1924433, "lon": 20.959705, "tags": {"amenity": "bicycle_rental", "capacity": "15", "name": "W\u0142ochy-Ratusz", "network": "Veturilo", "operator": "Nextbike Polska", "ref": "9582", "source": "http://www.veturilo.waw.pl/lokalizacje/"}}, {"type": "node", "id": 3676859611, "lat": 52.2099065, "lon": 21.006812, "tags": {"amenity": "bicycle_rental", "capacity": "26", "name": "al. Niepodleg\u0142o\u015bci - Batorego", "network": "Veturilo", "operator": "Nextbike Polska", "ref": "9558", "repair": "yes", "source": "http://www.veturilo.waw.pl/lokalizacje/"}}, {"type": "node", "id": 3676859613, "lat": 52.194587, "lon": 20.9668845, "tags": {"amenity": "bicycle_rental", "brand": "Ko\u0142obrzeski Rower Miejski", "brand:wikidata": "Q97373105", "brand:wikipedia": "pl:Ko\u0142obrzeski Rower Miejski", "capacity": "15", "name": "1 Sierpnia - DK W\u0142ochy", "network": "Ko\u0142obrzeski Rower Miejski", "network:wikidata": "Q97373105", "network:wikipedia": "pl:Ko\u0142obrzeski Rower Miejski", "operator": "Nextbike Polska", "ref": "9583", "source": "http://www.veturilo.waw.pl/lokalizacje/"}}, {"type": "node", "id": 3676859614, "lat": 52.2677872, "lon": 21.0021127, "tags": {"amenity": "bicycle_rental", "capacity": "15", "name": "Wybrze\u017ce Gdy\u0144skie - KS Sp\u00f3jnia", "network": "Veturilo", "operator": "Nextbike Polska", "ref": "9419", "source": "http://www.veturilo.waw.pl/lokalizacje/"}}, {"type": "node", "id": 3676859619, "lat": 52.219834, "lon": 21.0116365, "tags": {"amenity": "bicycle_rental", "brand": "Ko\u0142obrzeski Rower Miejski", "brand:wikidata": "Q97373105", "brand:wikipedia": "pl:Ko\u0142obrzeski Rower Miejski", "capacity": "27", "name": "Plac Politechniki", "network": "Ko\u0142obrzeski Rower Miejski", "network:wikidata": "Q97373105", "network:wikipedia": "pl:Ko\u0142obrzeski Rower Miejski", "operator": "Nextbike Polska", "ref": "9538", "source": "http://www.veturilo.waw.pl/lokalizacje/"}}, {"type": "node", "id": 3676859620, "lat": 52.1647096, "lon": 21.1092471, "tags": {"amenity": "bicycle_rental", "capacity": "16", "name": "Vogla - Syta", "network": "Veturilo", "operator": "Nextbike Polska", "ref": "9599", "source": "http://www.veturilo.waw.pl/lokalizacje/"}}, {"type": "node", "id": 3676859621, "lat": 52.2386624, "lon": 21.0507192, "tags": {"amenity": "bicycle_rental", "capacity": "27", "name": "Rondo Waszyngtona - Stadion Narodowy", "network": "Veturilo", "operator": "Nextbike Polska", "ref": "9682", "source": "http://www.veturilo.waw.pl/lokalizacje/"}}, {"type": "node", "id": 3676859622, "lat": 52.1872964, "lon": 21.0625961, "tags": {"amenity": "bicycle_rental", "capacity": "15", "name": "Sadyba Best Mall", "network": "Veturilo", "operator": "Nextbike Polska", "ref": "6417", "source": "http://www.veturilo.waw.pl/lokalizacje/"}}, {"type": "node", "id": 3676859624, "lat": 52.2011449, "lon": 20.935338, "tags": {"amenity": "bicycle_rental", "capacity": "19", "name": "al. Jerozolimskie - Popularna", "network": "Veturilo", "operator": "Nextbike Polska", "ref": "9581", "source": "http://www.veturilo.waw.pl/lokalizacje/"}}, {"type": "node", "id": 3676863425, "lat": 52.1757105, "lon": 20.9960301, "tags": {"amenity": "bicycle_rental", "capacity": "15", "name": "IRIS", "network": "Veturilo", "operator": "Nextbike Polska", "ref": "6410", "source": "http://www.veturilo.waw.pl/lokalizacje/"}}, {"type": "node", "id": 3676863426, "lat": 52.1998175, "lon": 21.0509796, "tags": {"amenity": "bicycle_rental", "capacity": "15", "name": "Czerniakowska - ZUS", "network": "Veturilo", "operator": "Nextbike Polska", "ref": "9573", "source": "http://www.veturilo.waw.pl/lokalizacje/"}}, {"type": "node", "id": 3676863427, "lat": 52.2073641, "lon": 21.0479123, "tags": {"amenity": "bicycle_rental", "capacity": "25", "name": "Czerniakowska - Gagarina", "network": "Veturilo", "operator": "Nextbike Polska", "ref": "9567", "source": "http://www.veturilo.waw.pl/lokalizacje/"}}, {"type": "node", "id": 3676863428, "lat": 52.2015929, "lon": 21.0359215, "tags": {"amenity": "bicycle_rental", "capacity": "15", "name": "Sobieskiego - Che\u0142mska", "network": "Veturilo", "operator": "Nextbike Polska", "ref": "9572", "source": "http://www.veturilo.waw.pl/lokalizacje/"}}, {"type": "node", "id": 3676863429, "lat": 52.1818981, "lon": 21.0564216, "tags": {"amenity": "bicycle_rental", "capacity": "22", "name": "Sobieskiego - \u015bw. Bonifacego", "network": "Veturilo", "operator": "Nextbike Polska", "ref": "9591", "source": "http://www.veturilo.waw.pl/lokalizacje/"}}, {"type": "node", "id": 3676863431, "lat": 52.2418882, "lon": 21.0241792, "tags": {"amenity": "bicycle_rental", "capacity": "19", "name": "Lipowa - Dobra", "network": "Veturilo", "operator": "Nextbike Polska", "ref": "9496", "source": "http://www.veturilo.waw.pl/lokalizacje/"}}, {"type": "node", "id": 3676863432, "lat": 52.205562, "lon": 21.0230564, "tags": {"amenity": "bicycle_rental", "capacity": "19", "name": "Pu\u0142awska - Dworkowa", "network": "Veturilo", "operator": "Nextbike Polska", "ref": "9565", "source": "http://www.veturilo.waw.pl/lokalizacje/"}}, {"type": "node", "id": 3676863435, "lat": 52.2083537, "lon": 20.9631279, "tags": {"amenity": "bicycle_rental", "capacity": "19", "name": "P\u0119tla Szcz\u0119\u015bliwice", "network": "Veturilo", "operator": "Nextbike Polska", "ref": "9554", "source": "http://www.veturilo.waw.pl/lokalizacje/"}}, {"type": "node", "id": 3676863437, "lat": 52.2558262, "lon": 21.0100602, "tags": {"amenity": "bicycle_rental", "capacity": "28", "name": "Sanguszki - Wybrze\u017ce Gda\u0144skie", "network": "Veturilo", "operator": "Nextbike Polska", "ref": "9438", "rmikke:checked": "20150904", "source": "http://www.veturilo.waw.pl/lokalizacje/"}}, {"type": "node", "id": 3676863438, "lat": 52.1778762, "lon": 21.0495039, "tags": {"amenity": "bicycle_rental", "capacity": "23", "name": "P\u0119tla Stegny", "network": "Veturilo", "operator": "Nextbike Polska", "ref": "9590", "source": "http://www.veturilo.waw.pl/lokalizacje/"}}, {"type": "node", "id": 3676902224, "lat": 52.2132356, "lon": 20.9550317, "tags": {"amenity": "bicycle_rental", "capacity": "20", "name": "Blue City", "network": "Veturilo", "operator": "Nextbike Polska", "ref": "6404", "source": "http://www.veturilo.waw.pl/lokalizacje/"}}, {"type": "node", "id": 3676904126, "lat": 52.1809329, "lon": 20.9916662, "tags": {"amenity": "bicycle_rental", "capacity": "15", "name": "Citi", "network": "Veturilo", "operator": "Nextbike Polska", "ref": "6406", "source": "http://www.veturilo.waw.pl/lokalizacje/"}}, {"type": "node", "id": 3687452462, "lat": 52.1310253, "lon": 21.0655965}, {"type": "node", "id": 3687452481, "lat": 52.131068, "lon": 21.0655595}, {"type": "node", "id": 3687452486, "lat": 52.1310705, "lon": 21.0653025}, {"type": "node", "id": 3687452500, "lat": 52.1311063, "lon": 21.0653189}, {"type": "node", "id": 3695788570, "lat": 52.2300574, "lon": 21.0303112}, {"type": "node", "id": 3695788573, "lat": 52.2300696, "lon": 21.0301196}, {"type": "node", "id": 3697783474, "lat": 52.2300741, "lon": 21.030313}, {"type": "node", "id": 3697783477, "lat": 52.2300909, "lon": 21.030143}, {"type": "node", "id": 3735092677, "lat": 52.1840293, "lon": 21.0098793, "tags": {"amenity": "bicycle_rental", "capacity": "15", "name": "Nestle House", "network": "Veturilo", "operator": "Nextbike Polska", "ref": "6413", "source": "http://www.veturilo.waw.pl/lokalizacje/"}}, {"type": "node", "id": 3741434124, "lat": 52.2376032, "lon": 20.9554803}, {"type": "node", "id": 3741435026, "lat": 52.2376091, "lon": 20.9554427}, {"type": "node", "id": 3751740708, "lat": 52.1894151, "lon": 20.9454465, "tags": {"amenity": "bicycle_rental", "capacity": "15", "name": "The Park Warsaw", "network": "Veturilo", "operator": "Nextbike Polska", "ref": "6420"}}, {"type": "node", "id": 3856619138, "lat": 52.2372738, "lon": 20.988811}, {"type": "node", "id": 3856619139, "lat": 52.2373424, "lon": 20.9889001}, {"type": "node", "id": 3856619140, "lat": 52.2373512, "lon": 20.9888686}, {"type": "node", "id": 3936724285, "lat": 52.2689357, "lon": 21.038215}, {"type": "node", "id": 3936724287, "lat": 52.2689519, "lon": 21.0382399}, {"type": "node", "id": 3936724291, "lat": 52.2690358, "lon": 21.0379707}, {"type": "node", "id": 3947732903, "lat": 52.1656258, "lon": 21.0839304}, {"type": "node", "id": 3947732950, "lat": 52.1656266, "lon": 21.0839724}, {"type": "node", "id": 3947733127, "lat": 52.1654944, "lon": 21.0839377}, {"type": "node", "id": 4054801241, "lat": 52.1802026, "lon": 21.0027114, "tags": {"amenity": "bicycle_rental", "capacity": "15", "name": "Galeria Mokot\u00f3w wej\u015bcie ul. Wo\u0142oska", "network": "Veturilo", "operator": "Nextbike Polska", "ref": "6425", "source": "https://www.veturilo.waw.pl/lokalizacje/"}}, {"type": "node", "id": 4278149984, "lat": 52.2302504, "lon": 20.9819847, "tags": {"amenity": "bicycle_rental", "capacity": "20", "name": "Proximo", "network": "Veturilo", "operator": "Nextbike Polska", "ref": "6416", "source": "https://www.veturilo.waw.pl/lokalizacje/"}}, {"type": "node", "id": 4357821845, "lat": 52.2375264, "lon": 21.025743}, {"type": "node", "id": 4357821854, "lat": 52.2376726, "lon": 21.0255689}, {"type": "node", "id": 4357821857, "lat": 52.2376862, "lon": 21.0256138}, {"type": "node", "id": 4360818589, "lat": 52.2298083, "lon": 20.9797795, "tags": {"addr:city": "Warszawa", "addr:housenumber": "70", "addr:street": "Prosta", "amenity": "bicycle_rental", "capacity": "20", "name": "BikeSmart", "network": "JLL Tenants Going Green", "operator": "BikeSmart", "website": "http://bikesmart.pl"}}, {"type": "node", "id": 4364879315, "lat": 52.3131845, "lon": 20.9654647}, {"type": "node", "id": 4364879316, "lat": 52.313209, "lon": 20.9654362}, {"type": "node", "id": 4364879317, "lat": 52.3133128, "lon": 20.9656731}, {"type": "node", "id": 4377569240, "lat": 52.2303313, "lon": 20.9804966, "tags": {"addr:city": "Warszawa", "addr:housenumber": "2", "addr:street": "Hrubieszowska", "amenity": "bicycle_rental", "capacity": "7", "name": "BikeSmart", "network": "JLL Tenants Going Green", "operator": "BikeSmart", "website": "www.bikesmart.pl"}}, {"type": "node", "id": 4377571956, "lat": 52.181904, "lon": 21.021956, "tags": {"addr:city": "Warszawa", "addr:housenumber": "182", "addr:street": "Pu\u0142awska", "amenity": "bicycle_rental", "capacity": "20", "name": "BikeSmart", "network": "JLL Tenants Going Green", "operator": "BikeSmart", "website": "www.bikesmart.pl"}}, {"type": "node", "id": 4377590990, "lat": 52.202114, "lon": 20.9395635, "tags": {"amenity": "bicycle_rental", "capacity": "20", "name": "BikeSmart", "network": "JLL Tenants Going Green", "operator": "BikeSmart"}}, {"type": "node", "id": 4377596341, "lat": 52.1905498, "lon": 20.982812, "tags": {"amenity": "bicycle_rental", "capacity": "25", "name": "BikeSmart", "network": "Ale Jazda Business Garden", "operator": "BikeSmart", "website": "www.bikesmart.pl"}}, {"type": "node", "id": 4448850899, "lat": 52.228487, "lon": 20.9694739}, {"type": "node", "id": 4711670171, "lat": 52.2757488, "lon": 21.0561751, "tags": {"amenity": "bicycle_rental", "capacity": "22", "name": "Metro Trocka", "network": "Veturilo", "note": "Stacja z tym numerem jest przy Metrze, wi\u0119c przenios\u0142em z p\u0119tli", "operator": "Nextbike Polska", "ref": "9641"}}, {"type": "node", "id": 4734958655, "lat": 52.238693, "lon": 20.9422933, "tags": {"amenity": "bicycle_rental", "capacity": "18", "name": "Okocimska - Olbrachta", "network": "Veturilo", "operator": "Nextbike Polska", "ref": "9451"}}, {"type": "node", "id": 4735839367, "lat": 52.2506132, "lon": 21.0533466, "tags": {"amenity": "bicycle_rental", "capacity": "15", "name": "Dworzec Wschodni - Lubelska", "network": "Veturilo", "operator": "Nextbike Polska", "ref": "9452", "source": "https://www.veturilo.waw.pl/mapa-stacji/"}}, {"type": "node", "id": 4778191258, "lat": 52.2465518, "lon": 20.9429552, "tags": {"amenity": "bicycle_rental", "capacity": "16", "name": "Obozowa - Cio\u0142ka", "network": "Veturilo", "operator": "Nextbike Polska", "ref": "9432"}}, {"type": "node", "id": 4795849501, "lat": 52.2297566, "lon": 20.9832048}, {"type": "node", "id": 4795849502, "lat": 52.2297538, "lon": 20.9830922}, {"type": "node", "id": 4795849503, "lat": 52.2297222, "lon": 20.9831045}, {"type": "node", "id": 4795849504, "lat": 52.2297256, "lon": 20.9834397}, {"type": "node", "id": 4795849505, "lat": 52.2297512, "lon": 20.9834432}, {"type": "node", "id": 4827098207, "lat": 52.2325296, "lon": 20.9833316, "tags": {"amenity": "bicycle_rental", "capacity": "20", "name": "Warsaw Spire", "network": "Veturilo", "operator": "Nextbike Polska", "ref": "6423", "source": "http://www.veturilo.waw.pl/lokalizacje/"}}, {"type": "node", "id": 4852470326, "lat": 52.1882199, "lon": 21.0499259, "tags": {"amenity": "bicycle_rental", "capacity": "15", "name": "Sobieskiego - Mangalia", "network": "Veturilo", "operator": "Nextbike Polska", "ref": "9586", "source": "www.veturilo.waw.pl/mapa-stacji/"}}, {"type": "node", "id": 4859116869, "lat": 52.2332373, "lon": 21.0261318}, {"type": "node", "id": 4859116870, "lat": 52.2331219, "lon": 21.0261972}, {"type": "node", "id": 4859116871, "lat": 52.2331191, "lon": 21.0261837}, {"type": "node", "id": 4859116872, "lat": 52.2332344, "lon": 21.0261183}, {"type": "node", "id": 4918457123, "lat": 52.2461606, "lon": 20.9853876, "tags": {"amenity": "bicycle_rental", "capacity": "17", "name": "Smocza - Anielewicza", "network": "Veturilo", "operator": "Nextbike Polska", "ref": "9442"}}, {"type": "node", "id": 4918481421, "lat": 52.2435404, "lon": 20.9873837, "tags": {"amenity": "bicycle_rental", "capacity": "16", "name": "Smocza - Nowolipki", "network": "Veturilo", "operator": "Nextbike Polska", "ref": "9456"}}, {"type": "node", "id": 4919499600, "lat": 52.2985265, "lon": 21.0241251, "tags": {"amenity": "bicycle_rental", "capacity": "15", "name": "Factory Annopol", "network": "Veturilo", "operator": "Nextbike Polska", "ref": "6426", "source": "http://www.veturilo.waw.pl/"}}, {"type": "node", "id": 4945646572, "lat": 52.2289111, "lon": 20.978466, "tags": {"amenity": "bicycle_rental", "capacity": "15", "name": "Kasprzaka - Karolkowa", "network": "Veturilo", "operator": "Nextbike Polska", "ref": "9476"}}, {"type": "node", "id": 4946138631, "lat": 52.2285019, "lon": 20.9697302}, {"type": "node", "id": 4946138632, "lat": 52.2285253, "lon": 20.9697265}, {"type": "node", "id": 4946138633, "lat": 52.2285114, "lon": 20.9694707}, {"type": "node", "id": 4946580512, "lat": 52.2374304, "lon": 20.9554325}, {"type": "node", "id": 4951883348, "lat": 52.2105652, "lon": 20.9983614, "tags": {"amenity": "bicycle_rental", "capacity": "14", "name": "Veturilo - Pole Mokotowskie", "network": "Veturilo", "operator": "Nextbike Polska", "ref": "9714"}}, {"type": "node", "id": 4957486554, "lat": 52.2459855, "lon": 20.9625825}, {"type": "node", "id": 4957486555, "lat": 52.2459687, "lon": 20.9625586}, {"type": "node", "id": 4957486556, "lat": 52.2460325, "lon": 20.9624386}, {"type": "node", "id": 4957486557, "lat": 52.2460493, "lon": 20.9624625}, {"type": "node", "id": 4962826923, "lat": 52.2356872, "lon": 20.9966886}, {"type": "node", "id": 4962826924, "lat": 52.2356682, "lon": 20.9964217}, {"type": "node", "id": 4962826925, "lat": 52.2356891, "lon": 20.9964177}, {"type": "node", "id": 4980044960, "lat": 52.2999939, "lon": 21.0425284, "tags": {"amenity": "bicycle_rental", "capacity": "21", "fee": "yes", "name": "P\u0119tla Br\u00f3dno-Podgrodzie", "network": "Veturilo", "operator": "Nextbike Polska", "operator:type": "private", "payment:credit_cards": "yes", "ref": "9631"}}, {"type": "node", "id": 5022838117, "lat": 52.2561392, "lon": 20.9684907}, {"type": "node", "id": 5022838118, "lat": 52.2561599, "lon": 20.9685113}, {"type": "node", "id": 5022838119, "lat": 52.2562064, "lon": 20.9683105}, {"type": "node", "id": 5022838120, "lat": 52.2562271, "lon": 20.9683311}, {"type": "node", "id": 5025141132, "lat": 52.2506999, "lon": 21.0310481, "tags": {"amenity": "bicycle_rental", "capacity": "25", "name": "Sierakowskiego - K\u0142opotowskiego", "network": "Veturilo", "operator": "Nextbike Polska", "ref": "9667"}}, {"type": "node", "id": 5036767192, "lat": 52.2485681, "lon": 21.0296496, "tags": {"amenity": "bicycle_rental", "brand": "Ko\u0142obrzeski Rower Miejski", "brand:wikidata": "Q97373105", "brand:wikipedia": "pl:Ko\u0142obrzeski Rower Miejski", "capacity": "16", "name": "Okrzei - Panie\u0144ska", "network": "Ko\u0142obrzeski Rower Miejski", "network:wikidata": "Q97373105", "network:wikipedia": "pl:Ko\u0142obrzeski Rower Miejski", "operator": "Nextbike Polska", "ref": "9666"}}, {"type": "node", "id": 5037486771, "lat": 52.2519925, "lon": 21.0382737, "tags": {"amenity": "bicycle_rental", "capacity": "18", "name": "Targowa - Z\u0105bkowska", "network": "Veturilo", "operator": "Nextbike Polska", "ref": "9668"}}, {"type": "node", "id": 5046642413, "lat": 52.2734385, "lon": 21.0770068, "tags": {"amenity": "bicycle_rental", "capacity": "15", "name": "Bukowiecka - Zamkowa", "network": "Veturilo", "operator": "Nextbike Polska", "ref": "9646"}}, {"type": "node", "id": 5051332093, "lat": 52.2725971, "lon": 21.0631881, "tags": {"amenity": "bicycle_rental", "capacity": "20", "name": "Radzymi\u0144ska -Trocka", "network": "Veturilo", "operator": "Nextbike Polska", "ref": "9645"}}, {"type": "node", "id": 5051486097, "lat": 52.2602571, "lon": 21.046836, "tags": {"amenity": "bicycle_rental", "capacity": "18", "name": "al. Solidarno\u015bci - Szwedzka", "network": "Veturilo", "operator": "Nextbike Polska", "ref": "9690", "source": "http://www.veturilo.waw.pl/lokalizacje/"}}, {"type": "node", "id": 5058823838, "lat": 52.2042516, "lon": 21.0144639, "tags": {"amenity": "bicycle_rental", "capacity": "24", "name": "Madali\u0144skiego - Kazimierzowska", "network": "Veturilo", "operator": "Nextbike Polska", "ref": "9564", "source": "http://www.veturilo.waw.pl/lokalizacje/"}}, {"type": "node", "id": 5058823839, "lat": 52.2479629, "lon": 21.0196251, "tags": {"amenity": "bicycle_rental", "capacity": "30", "name": "Bulwar \u2013 most \u015al\u0105sko \u2013 D\u0105browski", "network": "Veturilo", "operator": "Nextbike Polska", "ref": "9569", "source": "http://www.veturilo.waw.pl/lokalizacje/"}}, {"type": "node", "id": 5058823840, "lat": 52.2396118, "lon": 21.031253, "tags": {"amenity": "bicycle_rental", "capacity": "30", "name": "Metro Centrum Nauki Kopernik", "network": "Veturilo", "operator": "Nextbike Polska", "ref": "9700", "source": "http://www.veturilo.waw.pl/lokalizacje/"}}, {"type": "node", "id": 5070988020, "lat": 52.2585897, "lon": 20.9710194, "tags": {"amenity": "bicycle_rental", "capacity": "15", "name": "Przasnyska - Rydygiera", "network": "Veturilo", "operator": "Nextbike Polska", "ref": "9428"}}, {"type": "node", "id": 5082258419, "lat": 52.1826136, "lon": 20.998391, "tags": {"amenity": "bicycle_rental", "capacity": "20", "name": "EMPARK", "network": "Veturilo", "operator": "Nextbike Polska", "ref": "6427", "source": "http://www.veturilo.waw.pl/lokalizacje/"}}, {"type": "node", "id": 5084362706, "lat": 52.2376048, "lon": 21.1200716, "tags": {"amenity": "bicycle_rental", "brand": "Ko\u0142obrzeski Rower Miejski", "brand:wikidata": "Q97373105", "brand:wikipedia": "pl:Ko\u0142obrzeski Rower Miejski", "capacity": "16", "name": "P\u0119tla Goc\u0142awek", "network": "Ko\u0142obrzeski Rower Miejski", "network:wikidata": "Q97373105", "network:wikipedia": "pl:Ko\u0142obrzeski Rower Miejski", "operator": "Nextbike Polska", "ref": "9688", "source": "http://www.veturilo.waw.pl/lokalizacje/"}}, {"type": "node", "id": 5084438889, "lat": 52.2071476, "lon": 21.0313512, "tags": {"amenity": "bicycle_rental", "capacity": "30", "name": "Belwederska - Gagarina", "network": "Veturilo", "operator": "Nextbike Polska", "ref": "9566", "source": "http://www.veturilo.waw.pl/lokalizacje/"}}, {"type": "node", "id": 5084438890, "lat": 52.2475561, "lon": 20.9568309, "tags": {"amenity": "bicycle_rental", "capacity": "21", "name": "al. Prymasa Tysi\u0105clecia - Obozowa", "network": "Veturilo", "operator": "Nextbike Polska", "ref": "9665", "source": "http://www.veturilo.waw.pl/lokalizacje/"}}, {"type": "node", "id": 5089953498, "lat": 52.2923911, "lon": 21.0569315, "tags": {"amenity": "bicycle_rental", "capacity": "30", "name": "Kondratowicza - Przy Grodzisku", "network": "Veturilo", "operator": "Nextbike Polska", "ref": "9635", "source": "http://www.veturilo.waw.pl/lokalizacje/"}}, {"type": "node", "id": 5092151753, "lat": 52.3202471, "lon": 21.0079214, "tags": {"amenity": "bicycle_rental", "capacity": "15", "name": "CH Marywilska 44", "network": "Veturilo", "operator": "Nextbike Polska", "ref": "6428"}}, {"type": "node", "id": 5092268139, "lat": 52.3031462, "lon": 20.9892266, "tags": {"amenity": "bicycle_rental", "capacity": "30", "name": "Modli\u0144ska - \u017bera\u0144ska", "network": "Veturilo", "operator": "Nextbike Polska", "ref": "9629"}}, {"type": "node", "id": 5098053427, "lat": 52.2498637, "lon": 21.0429183, "tags": {"amenity": "bicycle_rental", "capacity": "18", "name": "Targowa - Kijowska", "network": "Veturilo", "operator": "Nextbike Polska", "ref": "9673"}}, {"type": "node", "id": 5100883968, "lat": 52.2419574, "lon": 21.015981, "tags": {"amenity": "bicycle_rental", "capacity": "15", "name": "E-bike - Karowa \u2013 Krakowskie Przedmie\u015bcie", "network": "Veturilo", "operator": "Nextbike Polska", "ref": "9710", "rental": "ebike", "source": "https://www.veturilo.waw.pl/mapa-stacji/"}}, {"type": "node", "id": 5101702103, "lat": 52.2697779, "lon": 21.0512809, "tags": {"amenity": "bicycle_rental", "capacity": "17", "name": "Metro Targ\u00f3wek Mieszkaniowy", "network": "Veturilo", "operator": "Nextbike Polska", "ref": "9644"}}, {"type": "node", "id": 5108086725, "lat": 52.2596787, "lon": 21.0530131, "tags": {"amenity": "bicycle_rental", "capacity": "24", "name": "Radzymi\u0144ska - \u0141om\u017cy\u0144ska", "network": "Veturilo", "operator": "Nextbike Polska", "ref": "9671", "source": "http://www.veturilo.waw.pl/lokalizacje/"}}, {"type": "node", "id": 5108086726, "lat": 52.2558789, "lon": 21.0495677, "tags": {"amenity": "bicycle_rental", "capacity": "26", "name": "Radzymi\u0144ska - Wiosenna", "network": "Veturilo", "operator": "Nextbike Polska", "ref": "9670", "source": "http://www.veturilo.waw.pl/lokalizacje/"}}, {"type": "node", "id": 5183296329, "lat": 52.2488118, "lon": 20.9201268, "tags": {"amenity": "bicycle_rental", "capacity": "22", "name": "Radiowa - Wroc\u0142awska", "network": "Veturilo", "operator": "Nextbike Polska", "ref": "9722"}}, {"type": "node", "id": 5221374767, "lat": 52.2361387, "lon": 21.0220225, "tags": {"amenity": "bicycle_rental", "capacity": "20", "name": "Ordynacka - Uniwersytet Muzyczny", "network": "Veturilo", "operator": "Nextbike Polska", "ref": "9408", "wheelchair": "no"}}, {"type": "node", "id": 5310449779, "lat": 52.2574955, "lon": 20.9945939}, {"type": "node", "id": 5326909307, "lat": 52.2300383, "lon": 20.9515703}, {"type": "node", "id": 5326909308, "lat": 52.2300287, "lon": 20.9515608}, {"type": "node", "id": 5326909309, "lat": 52.2301644, "lon": 20.9511869}, {"type": "node", "id": 5326909310, "lat": 52.230174, "lon": 20.9511963}, {"type": "node", "id": 5341730689, "lat": 52.1522407, "lon": 21.0563864}, {"type": "node", "id": 5341730690, "lat": 52.1522237, "lon": 21.0563522}, {"type": "node", "id": 5341730691, "lat": 52.152084, "lon": 21.056536}, {"type": "node", "id": 5341730692, "lat": 52.152101, "lon": 21.0565703}, {"type": "node", "id": 5357107143, "lat": 52.2612211, "lon": 20.9862564, "tags": {"amenity": "bicycle_rental", "capacity": "15", "name": "Zaj\u0105czka - Bitwy Pod Rokitn\u0105", "network": "Veturilo", "operator": "Nextbike Polska", "ref": "9421"}}, {"type": "node", "id": 5428975314, "lat": 52.3241775, "lon": 21.0565768, "tags": {"amenity": "bicycle_rental", "capacity": "26", "name": "Skarbka z G\u00f3r - Berensona", "network": "Veturilo", "operator": "Nextbike Polska", "ref": "9623"}}, {"type": "node", "id": 5428975315, "lat": 52.3484107, "lon": 20.941856, "tags": {"amenity": "bicycle_rental", "capacity": "16", "name": "Aluzyjna - Tr\u0105by", "network": "Veturilo", "operator": "Nextbike Polska", "ref": "9624"}}, {"type": "node", "id": 5428975316, "lat": 52.3212355, "lon": 20.9477497, "tags": {"amenity": "bicycle_rental", "capacity": "30", "name": "Bia\u0142o\u0142\u0119cki O\u015brodek Sportu", "network": "Veturilo", "operator": "Nextbike Polska", "ref": "9626"}}, {"type": "node", "id": 5432952736, "lat": 52.2798584, "lon": 20.9734039, "tags": {"amenity": "bicycle_rental", "capacity": "16", "name": "Klaudyny - Rudzka", "network": "Veturilo", "operator": "Nextbike Polska", "ref": "9699"}}, {"type": "node", "id": 5476149095, "lat": 52.2562488, "lon": 21.0295956}, {"type": "node", "id": 5476149096, "lat": 52.2562332, "lon": 21.0295616}, {"type": "node", "id": 5476149097, "lat": 52.2563388, "lon": 21.0294325}, {"type": "node", "id": 5476149098, "lat": 52.2563453, "lon": 21.0294468}, {"type": "node", "id": 5476149099, "lat": 52.2563122, "lon": 21.0294989, "tags": {"amenity": "bicycle_rental", "capacity": "16", "name": "Jagiello\u0144ska - Ratuszowa", "network": "Veturilo", "operator": "Nextbike Polska", "ref": "9657"}}, {"type": "node", "id": 5548653080, "lat": 52.1786881, "lon": 21.0017725}, {"type": "node", "id": 5548653081, "lat": 52.1786954, "lon": 21.0017345}, {"type": "node", "id": 5548653082, "lat": 52.1788953, "lon": 21.0018782}, {"type": "node", "id": 5548653083, "lat": 52.1789026, "lon": 21.0018402}, {"type": "node", "id": 5569329207, "lat": 52.1241883, "lon": 21.1026308, "tags": {"amenity": "bicycle_rental", "capacity": "22", "name": "Przycz\u00f3\u0142kowa - Ptysiowa", "network": "Veturilo", "operator": "Nextbike Polska", "ref": "9726"}}, {"type": "node", "id": 5569329208, "lat": 52.1162732, "lon": 21.0876418, "tags": {"amenity": "bicycle_rental", "capacity": "23", "name": "Park Kultury w Powsinie", "network": "Veturilo", "operator": "Nextbike Polska", "ref": "9728"}}, {"type": "node", "id": 5569329209, "lat": 52.1170423, "lon": 21.0926331, "tags": {"amenity": "bicycle_rental", "capacity": "26", "name": "Opie\u0144ki \u2013 Ma\u015blak\u00f3w", "network": "Veturilo", "operator": "Nextbike Polska", "ref": "9727"}}, {"type": "node", "id": 5569343049, "lat": 52.2032941, "lon": 21.0478694, "tags": {"amenity": "bicycle_rental", "capacity": "23", "name": "AGORA", "network": "Veturilo", "operator": "Nextbike Polska", "ref": "6440"}}, {"type": "node", "id": 5569417499, "lat": 52.1864482, "lon": 21.0254449, "tags": {"amenity": "bicycle_rental", "capacity": "17", "name": "Pu\u0142awska - Idzikowskiego", "network": "Veturilo", "operator": "Nextbike Polska", "ref": "9585"}}, {"type": "node", "id": 5569417500, "lat": 52.1711653, "lon": 21.0061514, "tags": {"amenity": "bicycle_rental", "capacity": "15", "name": "Gintrowskiego - Gotarda", "network": "Veturilo", "operator": "Nextbike Polska", "ref": "9593"}}, {"type": "node", "id": 5569417501, "lat": 52.1631462, "lon": 20.9935505, "tags": {"amenity": "bicycle_rental", "capacity": "15", "name": "Central Park Ursyn\u00f3w", "network": "Veturilo", "operator": "Nextbike Polska", "ref": "6405"}}, {"type": "node", "id": 5569454146, "lat": 52.2053893, "lon": 20.9845224, "tags": {"amenity": "bicycle_rental", "capacity": "17", "name": "\u017bwirki i Wigury - Ksi\u0119cia Trojdena", "network": "Veturilo", "operator": "Nextbike Polska", "ref": "9556"}}, {"type": "node", "id": 5569454147, "lat": 52.1981141, "lon": 20.9833801, "tags": {"amenity": "bicycle_rental", "brand": "Ko\u0142obrzeski Rower Miejski", "brand:wikidata": "Q97373105", "brand:wikipedia": "pl:Ko\u0142obrzeski Rower Miejski", "capacity": "18", "name": "\u017bwirki i Wigury - Rac\u0142awicka", "network": "Ko\u0142obrzeski Rower Miejski", "network:wikidata": "Q97373105", "network:wikipedia": "pl:Ko\u0142obrzeski Rower Miejski", "operator": "Nextbike Polska", "ref": "9562"}}, {"type": "node", "id": 5569454148, "lat": 52.2018018, "lon": 20.9998696, "tags": {"amenity": "bicycle_rental", "capacity": "15", "name": "Wo\u0142oska - Kulskiego", "network": "Veturilo", "operator": "Nextbike Polska", "ref": "9563"}}, {"type": "node", "id": 5569454149, "lat": 52.1957584, "lon": 21.0025088, "tags": {"amenity": "bicycle_rental", "capacity": "16", "name": "Wo\u0142oska - Ody\u0144ca", "network": "Veturilo", "operator": "Nextbike Polska", "ref": "9401"}}, {"type": "node", "id": 5569454150, "lat": 52.1995109, "lon": 21.0241239, "tags": {"amenity": "bicycle_rental", "capacity": "18", "name": "Pu\u0142awska - Dolna", "network": "Veturilo", "operator": "Nextbike Polska", "ref": "9571"}}, {"type": "node", "id": 5569574678, "lat": 52.234534, "lon": 21.0387258, "tags": {"amenity": "bicycle_rental", "capacity": "15", "name": "E-bike - Wio\u015blarska - Ludna", "network": "Veturilo", "operator": "Nextbike Polska", "ref": "9704", "rental": "ebike"}}, {"type": "node", "id": 5569574679, "lat": 52.2279582, "lon": 21.0233958, "tags": {"amenity": "bicycle_rental", "capacity": "15", "name": "E-bike - Plac Trzech Krzy\u017cy", "network": "Veturilo", "operator": "Nextbike Polska", "ref": "9705", "rental": "ebike"}}, {"type": "node", "id": 5569574680, "lat": 52.2260513, "lon": 21.0066399, "tags": {"amenity": "bicycle_rental", "capacity": "15", "name": "Emilii Plater - Wsp\u00f3lna", "network": "Veturilo", "operator": "Nextbike Polska", "ref": "9518"}}, {"type": "node", "id": 5569574681, "lat": 52.220672, "lon": 21.0045558, "tags": {"amenity": "bicycle_rental", "capacity": "30", "name": "al. Niepodleg\u0142o\u015bci - Nowowiejska", "network": "Veturilo", "operator": "Nextbike Polska", "ref": "9535"}}, {"type": "node", "id": 5569574682, "lat": 52.2168156, "lon": 21.0046625, "tags": {"amenity": "bicycle_rental", "capacity": "30", "name": "al. Armii Ludowej - al. Niepodleg\u0142o\u015bci", "network": "Veturilo", "operator": "Nextbike Polska", "ref": "9536"}}, {"type": "node", "id": 5569574683, "lat": 52.2127264, "lon": 21.0034186, "tags": {"amenity": "bicycle_rental", "capacity": "24", "name": "Biblioteka Narodowa", "network": "Veturilo", "operator": "Nextbike Polska", "ref": "9552"}}, {"type": "node", "id": 5569574684, "lat": 52.2060989, "lon": 20.9703304, "tags": {"amenity": "bicycle_rental", "capacity": "16", "name": "Dickensa - Geodet\u00f3w", "network": "Veturilo", "operator": "Nextbike Polska", "ref": "9555"}}, {"type": "node", "id": 5569630368, "lat": 52.2377609, "lon": 21.0255294, "tags": {"amenity": "bicycle_rental", "capacity": "15", "name": "E-bike - Topiel \u2013 Tamka", "network": "Veturilo", "operator": "Nextbike Polska", "ref": "9701", "rental": "ebike"}}, {"type": "node", "id": 5569630369, "lat": 52.2368526, "lon": 21.0174465, "tags": {"amenity": "bicycle_rental", "capacity": "15", "name": "E-bike - Metro Nowy \u015awiat-Uniwersytet", "network": "Veturilo", "operator": "Nextbike Polska", "ref": "9707", "rental": "ebike"}}, {"type": "node", "id": 5569630370, "lat": 52.2309057, "lon": 21.0036767, "tags": {"amenity": "bicycle_rental", "capacity": "30", "name": "Emilii Plater - Z\u0142ota", "network": "Veturilo", "operator": "Nextbike Polska", "ref": "9501"}}, {"type": "node", "id": 5569630372, "lat": 52.2315205, "lon": 20.9892431, "tags": {"amenity": "bicycle_rental", "capacity": "15", "name": "Prosta - Wronia", "network": "Veturilo", "operator": "Nextbike Polska", "ref": "9479"}}, {"type": "node", "id": 5569630373, "lat": 52.2264111, "lon": 20.9836292, "tags": {"amenity": "bicycle_rental", "capacity": "16", "name": "Kolejowa", "network": "Veturilo", "operator": "Nextbike Polska", "ref": "9498"}}, {"type": "node", "id": 5569630374, "lat": 52.2278093, "lon": 21.0007471, "tags": {"amenity": "bicycle_rental", "capacity": "18", "name": "Warszawa \u015ar\u00f3dmie\u015bcie WKD", "network": "Veturilo", "operator": "Nextbike Polska", "ref": "9514"}}, {"type": "node", "id": 5569630375, "lat": 52.235823, "lon": 21.0317567, "tags": {"amenity": "bicycle_rental", "capacity": "15", "name": "Solec - Jaracza", "network": "Veturilo", "operator": "Nextbike Polska", "ref": "9508"}}, {"type": "node", "id": 5569699476, "lat": 52.2575279, "lon": 20.9195459, "tags": {"amenity": "bicycle_rental", "capacity": "22", "name": "Powsta\u0144c\u00f3w \u015al\u0105skich - Wroc\u0142awska", "network": "Veturilo", "operator": "Nextbike Polska", "ref": "9723"}}, {"type": "node", "id": 5569699477, "lat": 52.2494576, "lon": 20.8977368, "tags": {"amenity": "bicycle_rental", "capacity": "22", "name": "Urbanowicza - Kocjana", "network": "Veturilo", "operator": "Nextbike Polska", "ref": "9721"}}, {"type": "node", "id": 5569699478, "lat": 52.2207228, "lon": 20.8978254, "tags": {"amenity": "bicycle_rental", "capacity": "22", "name": "Lazurowa - Sternicza", "network": "Veturilo", "operator": "Nextbike Polska", "ref": "9718"}}, {"type": "node", "id": 5569699479, "lat": 52.2341472, "lon": 20.9348693, "tags": {"amenity": "bicycle_rental", "capacity": "16", "name": "Jana Olbrachta - Antka Rozpylacza", "network": "Veturilo", "operator": "Nextbike Polska", "ref": "9459"}}, {"type": "node", "id": 5569699480, "lat": 52.2249834, "lon": 20.9454882, "tags": {"amenity": "bicycle_rental", "capacity": "21", "name": "Jana Kazimierza - Giz\u00f3w", "network": "Veturilo", "opening_hours": "24/7", "operator": "Nextbike Polska", "ref": "9471"}}, {"type": "node", "id": 5569699481, "lat": 52.2273727, "lon": 20.9568289, "tags": {"amenity": "bicycle_rental", "capacity": "27", "name": "al. Prymasa Tysi\u0105clecia - Kasprzaka", "network": "Veturilo", "operator": "Nextbike Polska", "ref": "9433"}}, {"type": "node", "id": 5569699482, "lat": 52.2396252, "lon": 21.0003608, "tags": {"amenity": "bicycle_rental", "capacity": "16", "name": "Ptasia - Zimna", "network": "Veturilo", "operator": "Nextbike Polska", "ref": "9485"}}, {"type": "node", "id": 5569699483, "lat": 52.2422996, "lon": 21.0272138, "tags": {"amenity": "bicycle_rental", "capacity": "15", "name": "E-bike - Centrum Nauki Kopernik", "network": "Veturilo", "operator": "Nextbike Polska", "ref": "9703", "rental": "ebike"}}, {"type": "node", "id": 5569728667, "lat": 52.2535578, "lon": 20.9799251, "tags": {"amenity": "bicycle_rental", "capacity": "20", "name": "Pow\u0105zkowska - Burakowska", "network": "Veturilo", "operator": "Nextbike Polska", "ref": "9429"}}, {"type": "node", "id": 5569728668, "lat": 52.2643672, "lon": 20.9723747, "tags": {"amenity": "bicycle_rental", "capacity": "16", "name": "Broniewskiego - Krasi\u0144skiego", "network": "Veturilo", "operator": "Nextbike Polska", "ref": "9418"}}, {"type": "node", "id": 5569728669, "lat": 52.2591719, "lon": 20.9607162, "tags": {"amenity": "bicycle_rental", "capacity": "30", "name": "Pow\u0105zkowska - Krasi\u0144skiego", "network": "Veturilo", "operator": "Nextbike Polska", "ref": "9426"}}, {"type": "node", "id": 5569728670, "lat": 52.2733604, "lon": 20.9944734, "tags": {"amenity": "bicycle_rental", "capacity": "16", "name": "Gwia\u017adzista - Promyka", "network": "Veturilo", "operator": "Nextbike Polska", "ref": "9412"}}, {"type": "node", "id": 5569728671, "lat": 52.2787155, "lon": 20.9917461, "tags": {"amenity": "bicycle_rental", "capacity": "14", "name": "Veturilko - K\u0119pa Potocka", "network": "Veturilo", "not:brand:wikidata": "Q23955689", "operator": "Nextbike Polska", "ref": "9711"}}, {"type": "node", "id": 5569785019, "lat": 52.2449353, "lon": 21.0227391, "tags": {"amenity": "bicycle_rental", "capacity": "15", "name": "E-bike - Karowa \u2013 Wybrze\u017ce Ko\u015bciuszkowskie", "network": "Veturilo", "operator": "Nextbike Polska", "ref": "9709", "rental": "ebike"}}, {"type": "node", "id": 5569785020, "lat": 52.2456455, "lon": 21.017485, "tags": {"amenity": "bicycle_rental", "capacity": "15", "name": "E-bike - Sowia", "network": "Veturilo", "operator": "Nextbike Polska", "ref": "9702", "rental": "ebike"}}, {"type": "node", "id": 5569785421, "lat": 52.2444275, "lon": 20.991759, "tags": {"amenity": "bicycle_rental", "capacity": "16", "name": "al. Jana Paw\u0142a II - Nowolipki", "network": "Veturilo", "operator": "Nextbike Polska", "ref": "9457"}}, {"type": "node", "id": 5569785422, "lat": 52.2410459, "lon": 20.9832028, "tags": {"amenity": "bicycle_rental", "capacity": "16", "name": "Wolno\u015b\u0107 - Bellottiego", "network": "Veturilo", "operator": "Nextbike Polska", "ref": "9455"}}, {"type": "node", "id": 5569785423, "lat": 52.2442239, "lon": 20.9779349, "tags": {"amenity": "bicycle_rental", "capacity": "20", "name": "Okopowa - Anielewicza", "network": "Veturilo", "operator": "Nextbike Polska", "ref": "9440"}}, {"type": "node", "id": 5569785424, "lat": 52.2485988, "lon": 20.9835488, "tags": {"amenity": "bicycle_rental", "capacity": "15", "name": "Smocza - Mi\u0142a", "network": "Veturilo", "operator": "Nextbike Polska", "ref": "9441"}}, {"type": "node", "id": 5569785425, "lat": 52.2489905, "lon": 20.9949722, "tags": {"amenity": "bicycle_rental", "capacity": "15", "name": "Anielewicza - Zamenhofa", "network": "Veturilo", "operator": "Nextbike Polska", "ref": "9444"}}, {"type": "node", "id": 5569785426, "lat": 52.2534642, "lon": 20.9923705, "tags": {"amenity": "bicycle_rental", "capacity": "13", "name": "Stawki - Dubois", "network": "Veturilo", "operator": "Nextbike Polska", "ref": "9436"}}, {"type": "node", "id": 5569785427, "lat": 52.2515266, "lon": 21.0027587, "tags": {"amenity": "bicycle_rental", "capacity": "18", "name": "Bonifraterska - Franciszka\u0144ska", "network": "Veturilo", "operator": "Nextbike Polska", "ref": "9446"}}, {"type": "node", "id": 5571199731, "lat": 52.2886267, "lon": 21.0312119, "tags": {"amenity": "bicycle_rental", "capacity": "30", "name": "Rembieli\u0144ska - Wyszogrodzka", "network": "Veturilo", "operator": "Nextbike Polska", "ref": "9637"}}, {"type": "node", "id": 5571199732, "lat": 52.2877071, "lon": 21.0214321, "tags": {"amenity": "bicycle_rental", "capacity": "23", "name": "Wysockiego - Poborza\u0144ska", "network": "Veturilo", "operator": "Nextbike Polska", "ref": "9636"}}, {"type": "node", "id": 5571199733, "lat": 52.2812202, "lon": 21.0257999, "tags": {"amenity": "bicycle_rental", "capacity": "17", "name": "Wysockiego - Matki Teresy z Kalkuty", "network": "Veturilo", "operator": "Nextbike Polska", "ref": "9639"}}, {"type": "node", "id": 5571199734, "lat": 52.2714011, "lon": 21.015689, "tags": {"amenity": "bicycle_rental", "capacity": "16", "name": "Jagiello\u0144ska - ALK", "network": "Veturilo", "operator": "Nextbike Polska", "ref": "9642"}}, {"type": "node", "id": 5571199735, "lat": 52.2655394, "lon": 21.0311287, "tags": {"amenity": "bicycle_rental", "capacity": "15", "name": "Namys\u0142owska - Darwina", "network": "Veturilo", "operator": "Nextbike Polska", "ref": "9651"}}, {"type": "node", "id": 5571199736, "lat": 52.2614329, "lon": 21.0376174, "tags": {"amenity": "bicycle_rental", "capacity": "30", "name": "11 Listopada - Ratuszowa", "network": "Veturilo", "operator": "Nextbike Polska", "ref": "9658"}}, {"type": "node", "id": 5571199737, "lat": 52.2631523, "lon": 21.0382472, "tags": {"amenity": "bicycle_rental", "capacity": "18", "name": "11 listopada - \u015arodkowa", "network": "Veturilo", "operator": "Nextbike Polska", "ref": "9659"}}, {"type": "node", "id": 5571199738, "lat": 52.2629705, "lon": 21.0341235, "tags": {"amenity": "bicycle_rental", "capacity": "16", "name": "Namys\u0142owska - Szymanowskiego", "network": "Veturilo", "operator": "Nextbike Polska", "ref": "9655"}}, {"type": "node", "id": 5571199739, "lat": 52.2604102, "lon": 21.0414416, "tags": {"amenity": "bicycle_rental", "capacity": "15", "name": "Stalowa - Czynszowa", "network": "Veturilo", "operator": "Nextbike Polska", "ref": "9680"}}, {"type": "node", "id": 5571199740, "lat": 52.2579035, "lon": 21.0400227, "tags": {"amenity": "bicycle_rental", "capacity": "16", "name": "Wile\u0144ska - Rzeszotarskiej", "network": "Veturilo", "operator": "Nextbike Polska", "ref": "9664"}}, {"type": "node", "id": 5571199741, "lat": 52.2583941, "lon": 21.058491, "tags": {"amenity": "bicycle_rental", "capacity": "30", "name": "P\u0119tla Kaw\u0119czy\u0144ska-Bazylika", "network": "Veturilo", "operator": "Nextbike Polska", "ref": "9672"}}, {"type": "node", "id": 5571199742, "lat": 52.2546382, "lon": 21.0437268, "tags": {"amenity": "bicycle_rental", "capacity": "25", "name": "Fabryka W\u00f3dek Koneser", "network": "Veturilo", "operator": "Nextbike Polska", "ref": "9669"}}, {"type": "node", "id": 5571199743, "lat": 52.2526857, "lon": 21.0290181, "tags": {"amenity": "bicycle_rental", "capacity": "14", "name": "Veturilko - Park Praski", "network": "Veturilo", "operator": "Nextbike Polska", "ref": "9713"}}, {"type": "node", "id": 5571199744, "lat": 52.2471492, "lon": 21.0566058, "tags": {"amenity": "bicycle_rental", "capacity": "30", "name": "Grochowska - Mi\u0144ska", "network": "Veturilo", "operator": "Nextbike Polska", "ref": "9677"}}, {"type": "node", "id": 5571199745, "lat": 52.2497098, "lon": 21.0918235, "tags": {"amenity": "bicycle_rental", "capacity": "26", "name": "Szaser\u00f3w \u2013 Garwoli\u0144ska", "network": "Veturilo", "operator": "Nextbike Polska", "ref": "9698"}}, {"type": "node", "id": 5571199746, "lat": 52.2502183, "lon": 21.0771578, "tags": {"amenity": "bicycle_rental", "capacity": "24", "name": "Dwernickiego - Siennicka", "network": "Veturilo", "operator": "Nextbike Polska", "ref": "9679"}}, {"type": "node", "id": 5571199747, "lat": 52.2422305, "lon": 21.0710501, "tags": {"amenity": "bicycle_rental", "capacity": "15", "name": "Waszyngtona - Kinowa", "network": "Veturilo", "operator": "Nextbike Polska", "ref": "9683"}}, {"type": "node", "id": 5571199748, "lat": 52.2348011, "lon": 21.0998131, "tags": {"amenity": "bicycle_rental", "capacity": "23", "name": "Ostrobramska - Zamieniecka", "network": "Veturilo", "operator": "Nextbike Polska", "ref": "9692"}}, {"type": "node", "id": 5571199749, "lat": 52.2295888, "lon": 21.094487, "tags": {"amenity": "bicycle_rental", "capacity": "20", "name": "Fieldorfa - Bukowskiego", "network": "Veturilo", "operator": "Nextbike Polska", "ref": "9695"}}, {"type": "node", "id": 5571199750, "lat": 52.2222598, "lon": 21.0907554, "tags": {"amenity": "bicycle_rental", "capacity": "15", "name": "Meissnera - Fieldorfa", "network": "Veturilo", "operator": "Nextbike Polska", "ref": "9697"}}, {"type": "node", "id": 5571199751, "lat": 52.2357823, "lon": 21.0803258, "tags": {"amenity": "bicycle_rental", "capacity": "20", "name": "al. Stan\u00f3w Zjednoczonych - Ostrobramska", "network": "Veturilo", "operator": "Nextbike Polska", "ref": "9661"}}, {"type": "node", "id": 5571199752, "lat": 52.2258292, "lon": 21.0600735, "tags": {"amenity": "bicycle_rental", "capacity": "15", "name": "Brukselska - PROM", "network": "Veturilo", "operator": "Nextbike Polska", "ref": "9689"}}, {"type": "node", "id": 5571199753, "lat": 52.2301604, "lon": 21.0679841, "tags": {"amenity": "bicycle_rental", "capacity": "26", "name": "al. Stan\u00f3w Zjednoczonych - Mi\u0119dzynarodowa", "network": "Veturilo", "operator": "Nextbike Polska", "ref": "9691"}}, {"type": "node", "id": 5571199754, "lat": 52.2384442, "lon": 21.0508823, "tags": {"amenity": "bicycle_rental", "capacity": "14", "name": "Veturilko - Rondo Waszyngtona - Stadion Narodowy", "network": "Veturilo", "operator": "Nextbike Polska", "ref": "9715"}}, {"type": "node", "id": 5571669910, "lat": 52.2435423, "lon": 21.0067257, "tags": {"amenity": "bicycle_rental", "capacity": "17", "name": "Senatorska - Biela\u0144ska", "network": "Veturilo", "operator": "Nextbike Polska", "ref": "9466"}}, {"type": "node", "id": 5571669911, "lat": 52.2401787, "lon": 20.9878537, "tags": {"amenity": "bicycle_rental", "capacity": "15", "name": "Wola-Ratusz", "network": "Veturilo", "operator": "Nextbike Polska", "ref": "9460"}}, {"type": "node", "id": 5571669912, "lat": 52.2430496, "lon": 20.9805098, "tags": {"amenity": "bicycle_rental", "capacity": "20", "name": "Dzielna - Bellottiego", "network": "Veturilo", "operator": "Nextbike Polska", "ref": "9454"}}, {"type": "node", "id": 5571669913, "lat": 52.2692842, "lon": 20.9838197, "tags": {"amenity": "bicycle_rental", "capacity": "21", "name": "Metro Plac Wilsona", "network": "Veturilo", "operator": "Nextbike Polska", "ref": "9416"}}, {"type": "node", "id": 5571669914, "lat": 52.281608, "lon": 20.9498193, "tags": {"amenity": "bicycle_rental", "capacity": "30", "name": "Metro Stare Bielany", "network": "Veturilo", "operator": "Nextbike Polska", "ref": "9407"}}, {"type": "node", "id": 5571669915, "lat": 52.2336018, "lon": 21.0146436, "tags": {"amenity": "bicycle_rental", "capacity": "16", "name": "G\u00f3rskiego - Szpitalna", "network": "Veturilo", "operator": "Nextbike Polska", "ref": "9406"}}, {"type": "node", "id": 5572191950, "lat": 52.259165, "lon": 21.0262561, "tags": {"amenity": "bicycle_rental", "capacity": "20", "name": "Jagiello\u0144ska - Plac Hallera", "network": "Veturilo", "operator": "Nextbike Polska", "ref": "9653"}}, {"type": "node", "id": 5572191951, "lat": 52.2641767, "lon": 21.0262012, "tags": {"amenity": "bicycle_rental", "capacity": "21", "name": "Darwina - Nusbauma-Hilarowicza", "network": "Veturilo", "operator": "Nextbike Polska", "ref": "9650"}}, {"type": "node", "id": 5572191952, "lat": 52.2864473, "lon": 21.0402223, "tags": {"amenity": "bicycle_rental", "capacity": "15", "name": "Chodecka - \u017buromi\u0144ska", "network": "Veturilo", "operator": "Nextbike Polska", "ref": "9638"}}, {"type": "node", "id": 5572191954, "lat": 52.3226749, "lon": 20.9447774, "tags": {"amenity": "bicycle_rental", "capacity": "16", "name": "\u015awiatowida - Mehoffera", "network": "Veturilo", "operator": "Nextbike Polska", "ref": "9625"}}, {"type": "node", "id": 5572191955, "lat": 52.1426823, "lon": 21.0448185, "tags": {"amenity": "bicycle_rental", "capacity": "22", "name": "Dereniowa - P\u0142askowickiej", "network": "Veturilo", "operator": "Nextbike Polska", "ref": "9615"}}, {"type": "node", "id": 5572191956, "lat": 52.1573109, "lon": 21.0439332, "tags": {"amenity": "bicycle_rental", "capacity": "30", "name": "Roso\u0142a - Ciszewskiego - SGGW", "network": "Veturilo", "operator": "Nextbike Polska", "ref": "9608"}}, {"type": "node", "id": 5572191957, "lat": 52.1733966, "lon": 21.0319244, "tags": {"amenity": "bicycle_rental", "capacity": "30", "name": "Wa\u0142brzyska - Wr\u00f3bla", "network": "Veturilo", "operator": "Nextbike Polska", "ref": "959"}}, {"type": "node", "id": 5572191958, "lat": 52.1732466, "lon": 21.0257137, "tags": {"amenity": "bicycle_rental", "capacity": "24", "name": "Metro S\u0142u\u017cew", "network": "Veturilo", "operator": "Nextbike Polska", "ref": "9595"}}, {"type": "node", "id": 5572191959, "lat": 52.1702585, "lon": 20.9960291, "tags": {"amenity": "bicycle_rental", "capacity": "30", "name": "P\u0119tla Bokserska", "network": "Veturilo", "operator": "Nextbike Polska", "ref": "9592"}}, {"type": "node", "id": 5572191960, "lat": 52.1993449, "lon": 21.0122269, "tags": {"amenity": "bicycle_rental", "capacity": "30", "name": "Metro Rac\u0142awicka", "network": "Veturilo", "operator": "Nextbike Polska", "ref": "9570"}}, {"type": "node", "id": 5572191961, "lat": 52.1937468, "lon": 20.9914157, "tags": {"amenity": "bicycle_rental", "capacity": "18", "name": "Etiudy Rewolucyjnej - Mi\u0105czy\u0144ska", "network": "Veturilo", "operator": "Nextbike Polska", "ref": "9568"}}, {"type": "node", "id": 5572191962, "lat": 52.2017055, "lon": 20.9821191, "tags": {"amenity": "bicycle_rental", "capacity": "15", "name": "Sanocka - Pruszkowska", "network": "Veturilo", "operator": "Nextbike Polska", "ref": "9561"}}, {"type": "node", "id": 5572191963, "lat": 52.205527, "lon": 20.9988216, "tags": {"amenity": "bicycle_rental", "capacity": "17", "name": "Rakowiecka - \u015aw. A. Boboli", "network": "Veturilo", "operator": "Nextbike Polska", "ref": "9557"}}, {"type": "node", "id": 5572191964, "lat": 52.2169171, "lon": 21.0200429, "tags": {"amenity": "bicycle_rental", "capacity": "15", "name": "Marsza\u0142kowska - Litewska", "network": "Veturilo", "operator": "Nextbike Polska", "ref": "9553"}}, {"type": "node", "id": 5572191965, "lat": 52.2107137, "lon": 20.9848718, "tags": {"amenity": "bicycle_rental", "capacity": "29", "name": "Stefana Banacha - UW", "network": "Veturilo", "operator": "Nextbike Polska", "ref": "9551"}}, {"type": "node", "id": 5572191966, "lat": 52.2109197, "lon": 20.9759154, "tags": {"amenity": "bicycle_rental", "capacity": "20", "name": "Gr\u00f3jecka - Bitwy Warszawskiej 1920 roku", "network": "Veturilo", "operator": "Nextbike Polska", "ref": "9549"}}, {"type": "node", "id": 5572191967, "lat": 52.2238264, "lon": 21.0208725, "tags": {"amenity": "bicycle_rental", "capacity": "22", "name": "Mokotowska - Pi\u0119kna", "network": "Veturilo", "operator": "Nextbike Polska", "ref": "9544"}}, {"type": "node", "id": 5572191969, "lat": 52.2196956, "lon": 21.0157303, "tags": {"amenity": "bicycle_rental", "capacity": "20", "name": "ul. Wary\u0144skiego-ul. Nowowiejska-Metro Politechnika", "network": "Veturilo", "operator": "Nextbike Polska", "ref": "9541"}}, {"type": "node", "id": 5572191970, "lat": 52.2190796, "lon": 20.9890205, "tags": {"amenity": "bicycle_rental", "capacity": "22", "name": "Raszy\u0144ska - Filtrowa", "network": "Veturilo", "operator": "Nextbike Polska", "ref": "9534"}}, {"type": "node", "id": 5572191971, "lat": 52.2178584, "lon": 20.9775689, "tags": {"amenity": "bicycle_rental", "capacity": "15", "name": "Kopi\u0144ska - Bia\u0142obrzeska", "network": "Veturilo", "operator": "Nextbike Polska", "ref": "9531"}}, {"type": "node", "id": 5572191972, "lat": 52.2171981, "lon": 20.9713635, "tags": {"amenity": "bicycle_rental", "capacity": "22", "name": "Szcz\u0119\u015bliwicka - APS", "network": "Veturilo", "operator": "Nextbike Polska", "ref": "9530"}}, {"type": "node", "id": 5572191973, "lat": 52.2262436, "lon": 21.0136083, "tags": {"amenity": "bicycle_rental", "capacity": "15", "name": "Marsza\u0142kowska - Ho\u017ca", "network": "Veturilo", "operator": "Nextbike Polska", "ref": "9522"}}, {"type": "node", "id": 5572191974, "lat": 52.2240567, "lon": 20.9975821, "tags": {"amenity": "bicycle_rental", "capacity": "30", "name": "Lindleya - szpital", "network": "Veturilo", "operator": "Nextbike Polska", "ref": "9513"}}, {"type": "node", "id": 5572191975, "lat": 52.2248569, "lon": 20.9897849, "tags": {"amenity": "bicycle_rental", "capacity": "24", "name": "Plac Zawiszy", "network": "Veturilo", "operator": "Nextbike Polska", "ref": "9511"}}, {"type": "node", "id": 5572191976, "lat": 52.2221967, "lon": 20.9867808, "tags": {"amenity": "bicycle_rental", "capacity": "23", "name": "Ochota-Ratusz", "network": "Veturilo", "operator": "Nextbike Polska", "ref": "9510"}}, {"type": "node", "id": 5572191977, "lat": 52.2219662, "lon": 20.9788487, "tags": {"amenity": "bicycle_rental", "capacity": "30", "name": "al. Jerozolimskie - Niemcewicza", "network": "Veturilo", "operator": "Nextbike Polska", "ref": "9509"}}, {"type": "node", "id": 5572191978, "lat": 52.2338367, "lon": 21.0202843, "tags": {"amenity": "bicycle_rental", "capacity": "24", "name": "Ga\u0142czy\u0144skiego - Foksal", "network": "Veturilo", "operator": "Nextbike Polska", "ref": "9506"}}, {"type": "node", "id": 5572191980, "lat": 52.2382516, "lon": 21.0184518, "tags": {"amenity": "bicycle_rental", "capacity": "22", "name": "Obo\u017ana - Kopernika", "network": "Veturilo", "operator": "Nextbike Polska", "ref": "9495"}}, {"type": "node", "id": 5572191981, "lat": 52.2358103, "lon": 21.0136635, "tags": {"amenity": "bicycle_rental", "capacity": "20", "name": "Plac Powsta\u0144c\u00f3w Warszawy", "network": "Veturilo", "operator": "Nextbike Polska", "ref": "9492"}}, {"type": "node", "id": 5572191982, "lat": 52.2396633, "lon": 21.0119679, "tags": {"amenity": "bicycle_rental", "capacity": "16", "name": "Plac Ma\u0142achowskiego", "network": "Veturilo", "operator": "Nextbike Polska", "ref": "9491"}}, {"type": "node", "id": 5572191983, "lat": 52.2328577, "lon": 20.9806627, "tags": {"amenity": "bicycle_rental", "capacity": "10", "name": "Muzeum Powstania Warszawskiego", "network": "Veturilo", "operator": "Nextbike Polska", "ref": "9477"}}, {"type": "node", "id": 5572278467, "lat": 52.1806595, "lon": 20.9927908, "tags": {"amenity": "bicycle_rental", "capacity": "15", "name": "T-Mobile", "network": "Veturilo", "operator": "Nextbike Polska", "ref": "6421"}}, {"type": "node", "id": 5572278468, "lat": 52.23441, "lon": 20.9993657, "tags": {"amenity": "bicycle_rental", "capacity": "11", "name": "Spektrum Tower", "network": "Veturilo", "operator": "Nextbike Polska", "ref": "6418"}}, {"type": "node", "id": 5572278469, "lat": 52.1786952, "lon": 21.0028178, "tags": {"amenity": "bicycle_rental", "capacity": "20", "name": "Galeria Mokot\u00f3w wej\u015bcie g\u0142\u00f3wne", "network": "Veturilo", "operator": "Nextbike Polska", "ref": "6409"}}, {"type": "node", "id": 5572278470, "lat": 52.2348666, "lon": 21.0089823, "tags": {"amenity": "bicycle_rental", "capacity": "16", "name": "Metro \u015awi\u0119tokrzyska", "network": "Veturilo", "operator": "Nextbike Polska", "ref": "9490"}}, {"type": "node", "id": 5572278471, "lat": 52.1777447, "lon": 20.997936, "tags": {"amenity": "bicycle_rental", "capacity": "15", "name": "New City", "network": "Veturilo", "operator": "Nextbike Polska", "ref": "6414"}}, {"type": "node", "id": 5572278472, "lat": 52.2278257, "lon": 20.901441, "tags": {"amenity": "bicycle_rental", "capacity": "22", "name": "Cz\u0142uchowska - Roz\u0142ogi", "network": "Veturilo", "operator": "Nextbike Polska", "ref": "9719"}}, {"type": "node", "id": 5572278474, "lat": 52.2175506, "lon": 21.009705, "tags": {"amenity": "bicycle_rental", "capacity": "19", "name": "al. Armii Ludowej - Rektorska", "network": "Veturilo", "operator": "Nextbike Polska", "ref": "9587"}}, {"type": "node", "id": 5584443783, "lat": 52.2709138, "lon": 20.9325563, "tags": {"amenity": "bicycle_rental", "capacity": "30", "name": "al. Reymonta - Conrada", "network": "Veturilo", "operator": "Nextbike Polska", "payment:app": "yes", "ref": "9420", "source": "http://www.veturilo.waw.pl/lokalizacje/"}}, {"type": "node", "id": 5616140521, "lat": 52.2410405, "lon": 20.9832762, "tags": {"amenity": "bicycle_rental", "opening_hours": "24/7"}}, {"type": "node", "id": 5622365627, "lat": 52.1545283, "lon": 21.0064998, "tags": {"amenity": "bicycle_rental", "capacity": "15", "name": "Platan Park", "network": "Veturilo", "operator": "Nextbike Polska", "ref": "6441"}}, {"type": "node", "id": 5635221555, "lat": 52.2210478, "lon": 20.9192622, "tags": {"amenity": "bicycle_rental", "capacity": "30", "name": "Powsta\u0144c\u00f3w \u015al\u0105skich - Po\u0142czy\u0144ska", "network": "Veturilo", "operator": "Nextbike Polska", "ref": "9470"}}, {"type": "node", "id": 5701731901, "lat": 52.2835359, "lon": 21.0720847, "tags": {"amenity": "bicycle_rental", "capacity": "30", "name": "Blokowa - DK Zacisze", "network": "Veturilo", "operator": "Nextbike Polska", "ref": "9640", "source": "http://www.veturilo.waw.pl/lokalizacje/"}}, {"type": "node", "id": 5824920107, "lat": 52.181135, "lon": 20.992429, "tags": {"amenity": "bicycle_rental", "capacity": "20", "name": "Marynarska 12", "network": "Veturilo", "operator": "Nextbike Polska", "ref": "6444"}}, {"type": "node", "id": 5824920108, "lat": 52.1889385, "lon": 20.9851159, "tags": {"amenity": "bicycle_rental", "capacity": "20", "name": "Wi\u015bniowy Business Park", "network": "Veturilo", "operator": "Nextbike Polska", "ref": "6443"}}, {"type": "node", "id": 5828769598, "lat": 52.2575926, "lon": 20.9944627}, {"type": "node", "id": 5860755011, "lat": 52.2346626, "lon": 21.094724, "tags": {"amenity": "bicycle_rental", "capacity": "15", "name": "PKN Orlen - Filomat\u00f3w", "network": "Veturilo", "operator": "Nextbike Polska", "ref": "6439"}}, {"type": "node", "id": 5860755012, "lat": 52.2261093, "lon": 21.1480647, "tags": {"amenity": "bicycle_rental", "capacity": "15", "name": "PKN Orlen - Wydawnicza", "network": "Veturilo", "operator": "Nextbike Polska", "ref": "6438"}}, {"type": "node", "id": 5860755015, "lat": 52.2237771, "lon": 21.059546, "tags": {"amenity": "bicycle_rental", "capacity": "15", "name": "PKN Orlen - Wersalska", "network": "Veturilo", "operator": "Nextbike Polska", "ref": "6435"}}, {"type": "node", "id": 5860755016, "lat": 52.2505046, "lon": 21.0662501, "tags": {"amenity": "bicycle_rental", "capacity": "15", "name": "PKN Orlen - Chodakowska", "network": "Veturilo", "operator": "Nextbike Polska", "ref": "6434"}}, {"type": "node", "id": 5860755019, "lat": 52.2448334, "lon": 21.0051589, "tags": {"amenity": "bicycle_rental", "capacity": "15", "name": "PKN Orlen - Biela\u0144ska", "network": "Veturilo", "operator": "Nextbike Polska", "ref": "6430"}}, {"type": "node", "id": 5877935681, "lat": 52.2392129, "lon": 20.8969724, "tags": {"amenity": "bicycle_rental", "capacity": "15", "name": "PKN Orlen - Lazurowa", "network": "Veturilo", "operator": "Nextbike Polska", "ref": "6432"}}, {"type": "node", "id": 5929292018, "lat": 52.2385825, "lon": 20.9826528, "tags": {"amenity": "bicycle_rental", "capacity": "15", "name": "PKN Orlen - Al. Solidarno\u015bci", "network": "Veturilo", "operator": "Nextbike Polska", "ref": "6436"}}, {"type": "node", "id": 5929292019, "lat": 52.2758629, "lon": 20.9154934, "tags": {"amenity": "bicycle_rental", "capacity": "24", "name": "Bogus\u0142awskiego - Rodziny Po\u0142anieckich", "network": "Veturilo", "operator": "Nextbike Polska", "ref": "9736"}}, {"type": "node", "id": 5943435212, "lat": 52.2694928, "lon": 20.9420515, "tags": {"amenity": "bicycle_rental", "capacity": "24", "name": "Kochanowskiego - Galla Anonima", "network": "Veturilo", "operator": "Nextbike Polska", "ref": "9737"}}, {"type": "node", "id": 5943435213, "lat": 52.24636, "lon": 21.132392, "tags": {"amenity": "bicycle_rental", "capacity": "22", "name": "Niepo\u0142omicka \u2013 Che\u0142m\u017cy\u0144ska", "network": "Veturilo", "operator": "Nextbike Polska", "ref": "9735"}}, {"type": "node", "id": 5943435214, "lat": 52.252957, "lon": 21.168053, "tags": {"amenity": "bicycle_rental", "capacity": "22", "name": "Komandos\u00f3w \u2013 Niedzia\u0142kowskiego", "network": "Veturilo", "operator": "Nextbike Polska", "ref": "9734"}}, {"type": "node", "id": 5943435215, "lat": 52.256664, "lon": 21.158074, "tags": {"amenity": "bicycle_rental", "capacity": "22", "name": "PKP Rembert\u00f3w \u2013 Marsa", "network": "Veturilo", "operator": "Nextbike Polska", "ref": "9733", "wheelchair": "yes"}}, {"type": "node", "id": 5943435216, "lat": 52.257566, "lon": 21.157515, "tags": {"amenity": "bicycle_rental", "capacity": "22", "name": "PKP Rembert\u00f3w \u2013 Cyrulik\u00f3w", "network": "Veturilo", "operator": "Nextbike Polska", "ref": "9732"}}, {"type": "node", "id": 5943435217, "lat": 52.2712325, "lon": 21.149725, "tags": {"amenity": "bicycle_rental", "capacity": "22", "name": "Paderewskiego \u2013 Czwartak\u00f3w", "network": "Veturilo", "operator": "Nextbike Polska", "ref": "9731"}}, {"type": "node", "id": 5943435218, "lat": 52.264875, "lon": 21.169444, "tags": {"amenity": "bicycle_rental", "capacity": "22", "name": "Rondo Fieldorfa ,,Nila\u2019\u2019", "network": "Veturilo", "operator": "Nextbike Polska", "ref": "9730"}}, {"type": "node", "id": 5943435219, "lat": 52.26227, "lon": 21.177595, "tags": {"amenity": "bicycle_rental", "capacity": "22", "name": "Frontowa \u2013 Czerwonych Beret\u00f3w", "network": "Veturilo", "operator": "Nextbike Polska", "ref": "9729"}}, {"type": "node", "id": 5943435220, "lat": 52.302851, "lon": 20.92942, "tags": {"amenity": "bicycle_rental", "capacity": "30", "name": "Ksi\u0105\u017c\u0105t Mazowieckich - Herold\u00f3w", "network": "Veturilo", "operator": "Nextbike Polska", "ref": "9579"}}, {"type": "node", "id": 5975983230, "lat": 52.2488615, "lon": 21.0055777, "tags": {"amenity": "bicycle_rental", "capacity": "30", "name": "Plac Krasi\u0144skich", "network": "Veturilo", "operator": "Nextbike Polska", "ref": "9447"}}, {"type": "node", "id": 6087963944, "lat": 52.2465017, "lon": 21.0113686, "tags": {"amenity": "bicycle_rental", "capacity": "15", "name": "E-bike - Miodowa", "network": "Veturilo", "operator": "Nextbike Polska", "ref": "9708", "rental": "ebike"}}, {"type": "node", "id": 6316780712, "lat": 52.2986248, "lon": 21.0331039, "tags": {"amenity": "bicycle_rental", "capacity": "16", "name": "\u0141abiszy\u0144ska - OSiR Targ\u00f3wek", "network": "Veturilo", "operator": "Nextbike Polska", "ref": "9744"}}, {"type": "node", "id": 6402528374, "lat": 52.2879594, "lon": 20.9787584, "tags": {"amenity": "bicycle_rental"}}, {"type": "node", "id": 6498633483, "lat": 52.2838301, "lon": 20.9029429, "tags": {"amenity": "bicycle_rental", "capacity": "22", "name": "Arkuszowa", "network": "Veturilo", "operator": "Nextbike Polska", "ref": "9741"}}, {"type": "node", "id": 6547037074, "lat": 52.1968813, "lon": 20.9235903}, {"type": "node", "id": 6547037075, "lat": 52.1968891, "lon": 20.9234995}, {"type": "node", "id": 6547037076, "lat": 52.1969979, "lon": 20.923519}, {"type": "node", "id": 6547037077, "lat": 52.1969908, "lon": 20.9236101}, {"type": "node", "id": 6631369491, "lat": 52.281164, "lon": 20.9236411, "tags": {"amenity": "bicycle_rental", "capacity": "22", "fee": "yes", "name": "W\u00f3lczy\u0144ska - Conrada", "network": "Veturillo", "operator": "Nextbike Polska", "payment:credit_cards": "yes"}}, {"type": "node", "id": 6695735938, "lat": 52.1852454, "lon": 21.0016341, "tags": {"amenity": "bicycle_rental", "capacity": "15", "name": "Eko - Rowery NFO\u015aiGW", "network": "Veturilo", "operator": "Nextbike Polska", "ref": "6447"}}, {"type": "node", "id": 6783110153, "lat": 52.2931701, "lon": 20.9294011, "tags": {"amenity": "bicycle_rental", "network": "Veturilo", "operator": "Nextbike Polska", "source": "http://www.veturilo.waw.pl/lokalizacje/"}}, {"type": "node", "id": 6848096297, "lat": 52.2202243, "lon": 21.0179017, "tags": {"amenity": "bicycle_rental"}}, {"type": "node", "id": 7211653335, "lat": 52.2815198, "lon": 21.0258787, "tags": {"amenity": "bicycle_rental"}}, {"type": "node", "id": 7426506357, "lat": 52.2175523, "lon": 21.009834}, {"type": "node", "id": 7426506358, "lat": 52.2175651, "lon": 21.0095793}, {"type": "node", "id": 7426506359, "lat": 52.2175483, "lon": 21.009577}, {"type": "node", "id": 7426506360, "lat": 52.2175355, "lon": 21.0098318}, {"type": "node", "id": 7827694956, "lat": 52.1945461, "lon": 20.9820927, "tags": {"amenity": "bicycle_rental", "capacity": "22", "name": "PKP \u017bwirki i Wigury", "network": "Veturilo", "operator": "Nextbike Polska", "ref": "6443"}}, {"type": "node", "id": 7941947667, "lat": 52.3500836, "lon": 20.945614, "tags": {"amenity": "bicycle_rental", "capacity": "16", "name": "Biedronka Modli\u0144ska", "network": "Veturilo", "operator": "Nextbike Polska", "ref": "6452"}}, {"type": "node", "id": 7996064514, "lat": 52.2016491, "lon": 21.0358185}, {"type": "node", "id": 7996064515, "lat": 52.2016087, "lon": 21.0358749}, {"type": "node", "id": 7996064516, "lat": 52.2015273, "lon": 21.0359446}, {"type": "node", "id": 7996064517, "lat": 52.2015428, "lon": 21.0359934}, {"type": "node", "id": 7996064518, "lat": 52.201571, "lon": 21.0359744}, {"type": "node", "id": 7996064519, "lat": 52.2015888, "lon": 21.0359921}, {"type": "node", "id": 8333523897, "lat": 52.239033, "lon": 20.8969458, "tags": {"amenity": "bicycle_rental"}}, {"type": "node", "id": 8406143543, "lat": 52.2053923, "lon": 20.9844635, "tags": {"amenity": "bicycle_rental", "capacity": "18", "network": "Veturillo"}}, {"type": "node", "id": 8510693581, "lat": 52.2592207, "lon": 21.0261447}, {"type": "node", "id": 8510693582, "lat": 52.2592349, "lon": 21.026175}, {"type": "node", "id": 8510693583, "lat": 52.2591052, "lon": 21.0263378}, {"type": "node", "id": 8510693584, "lat": 52.2590908, "lon": 21.0263071}, {"type": "node", "id": 8520247973, "lat": 52.2563803, "lon": 21.0294348}, {"type": "node", "id": 8549812386, "lat": 52.292328, "lon": 21.040979, "tags": {"amenity": "bicycle_rental", "capacity": "23"}}, {"type": "node", "id": 8618198158, "lat": 52.1589099, "lon": 21.0509533, "tags": {"amenity": "bicycle_rental", "capacity": "16", "name": "Nowoursynowska - Ciszewskiego", "network": "Veturilo", "operator": "Nextbike Polska", "ref": "9606"}}, {"type": "node", "id": 8964017838, "lat": 52.2087496, "lon": 21.0663428, "tags": {"amenity": "bicycle_rental", "capacity": "24", "name": "Grupy AK Krybar", "network": "Veturilo", "operator": "Nextbike Polska", "ref": "9626"}}, {"type": "node", "id": 9198077900, "lat": 52.2786447, "lon": 20.9341099}, {"type": "node", "id": 9198077901, "lat": 52.2786862, "lon": 20.9337484}, {"type": "node", "id": 9198077902, "lat": 52.2786636, "lon": 20.9337424}, {"type": "node", "id": 9198077903, "lat": 52.2786218, "lon": 20.9341033}, {"type": "node", "id": 9243334767, "lat": 52.223538, "lon": 21.1014547}, {"type": "node", "id": 9243334768, "lat": 52.2235272, "lon": 21.1014949}, {"type": "node", "id": 9243334769, "lat": 52.2233742, "lon": 21.1013634}, {"type": "node", "id": 9243334770, "lat": 52.2233866, "lon": 21.1013245}, {"type": "node", "id": 9358391545, "lat": 52.2690517, "lon": 21.0379926}, {"type": "node", "id": 9384015107, "lat": 52.2921857, "lon": 21.0419657}, {"type": "node", "id": 9384015108, "lat": 52.2921636, "lon": 21.0422472}, {"type": "node", "id": 9384015109, "lat": 52.2922016, "lon": 21.0422534}, {"type": "node", "id": 9415651926, "lat": 52.2343855, "lon": 20.9990793, "tags": {"amenity": "bicycle_rental", "brand": "Veturilo", "brand:wikidata": "Q3847868", "brand:wikipedia": "pl:Veturilo", "capacity": "13", "network": "Veturilo", "network:wikidata": "Q3847868", "network:wikipedia": "pl:Veturilo", "not:brand:wikidata": "Q97373105", "operator": "Nextbike Polska"}}, {"type": "node", "id": 9547046558, "lat": 52.2157063, "lon": 20.960214, "tags": {"amenity": "bicycle_rental", "brand": "Veturilo", "brand:wikidata": "Q3847868", "brand:wikipedia": "pl:Veturilo", "name": "STACJA NR 9587 Rondo Zes\u0142a\u0144c\u00f3w Syberyjskich", "network": "Veturilo", "network:wikidata": "Q3847868", "network:wikipedia": "pl:Veturilo", "not:brand:wikidata": "Q23955689", "operator": "Nextbike Polska"}}, {"type": "way", "id": 296612485, "nodes": [3004074596, 3004074590, 3004074589, 3004074595, 3004074596], "tags": {"amenity": "bicycle_rental", "capacity": "22", "name": "Wybrze\u017ce Helskie - ZOO", "network": "Veturilo", "operator": "Nextbike Polska", "ref": "9648", "source": "http://www.veturilo.waw.pl/lokalizacje/"}}, {"type": "way", "id": 297367145, "nodes": [3012412158, 2503128155, 2820201747, 3012412154, 3012412158], "tags": {"amenity": "bicycle_rental", "capacity": "24", "name": "Rondo Starzy\u0144skiego", "network": "Veturilo", "not:brand:wikidata": "Q23955689", "operator": "Nextbike Polska", "ref": "9649", "source": "http://www.veturilo.waw.pl/lokalizacje/"}}, {"type": "way", "id": 299205269, "nodes": [3031548250, 3031548248, 3031548251, 3031548253, 3031548250], "tags": {"amenity": "bicycle_rental", "capacity": "19", "name": "Broniewskiego - W\u0142o\u015bcia\u0144ska", "network": "Veturilo", "operator": "Nextbike Polska", "ref": "9417", "rmikke:checked": "2015.08.27", "source": "http://www.veturilo.waw.pl/lokalizacje/"}}, {"type": "way", "id": 334115996, "nodes": [3412080203, 3412080204, 3412080207, 3412080206, 262833583, 3412080203], "tags": {"amenity": "bicycle_rental", "capacity": "22", "name": "Rondo de Gaulle'a", "network": "Veturilo", "operator": "Nextbike Polska", "ref": "9524", "source": "http://www.veturilo.waw.pl/lokalizacje/"}}, {"type": "way", "id": 334122384, "nodes": [3412132264, 3412132262, 3412132263, 3412132265, 3412132264], "tags": {"amenity": "bicycle_rental", "capacity": "24", "name": "al. Jerozolimskie - rejon Rotundy", "network": "Veturilo", "operator": "Nextbike Polska", "ref": "9521"}}, {"type": "way", "id": 335551516, "nodes": [3426505650, 3426505648, 3426505652, 3426505653, 3426505650], "tags": {"amenity": "bicycle_rental", "capacity": "24", "name": "Rondo Jazdy Polskiej", "network": "Veturilo", "operator": "Nextbike Polska", "ref": "9540", "source": "http://nextbike.net/maps/nextbike-official.xml?city=210"}}, {"type": "way", "id": 352190192, "nodes": [3579525847, 3579525848, 3579525846, 3579525845, 3579525847], "tags": {"amenity": "bicycle_rental", "capacity": "36", "name": "Arkadia", "network": "Veturilo", "operator": "Nextbike Polska", "ref": "6401", "rmikke:checked": "2015.08.27", "source": "http://www.veturilo.waw.pl/lokalizacje/"}}, {"type": "way", "id": 360840461, "nodes": [3653992590, 3653992588, 3653992556, 3653992561, 3653992590], "tags": {"amenity": "bicycle_rental", "capacity": "24", "name": "Plac Unii Lubelskiej", "network": "Veturilo", "operator": "Nextbike Polska", "ref": "9559"}}, {"type": "way", "id": 361010178, "nodes": [3655416300, 3655416301, 3655416302, 3655416303, 3655416300], "tags": {"amenity": "bicycle_rental", "capacity": "26", "name": "Plac na Rozdro\u017cu", "network": "Veturilo", "operator": "Nextbike Polska", "ref": "9545"}}, {"type": "way", "id": 364700421, "nodes": [3687452500, 3687452481, 3687452462, 3687452486, 3687452500], "tags": {"amenity": "bicycle_rental", "capacity": "22", "name": "Metro Kabaty", "network": "Veturilo", "operator": "Nextbike Polska", "ref": "9621"}}, {"type": "way", "id": 365770376, "nodes": [276303027, 3695788573, 3695788570, 3697783474, 3697783477, 276303027], "tags": {"amenity": "bicycle_rental", "capacity": "15", "name": "Ksi\u0105\u017c\u0119ca - Rozbrat", "network": "Veturilo", "operator": "Nextbike Polska", "ref": "9529", "source": "http://www.veturilo.waw.pl/lokalizacje/"}}, {"type": "way", "id": 382462740, "nodes": [3856619140, 3856619139, 2306376274, 3856619138, 3856619140], "tags": {"amenity": "bicycle_rental", "capacity": "15", "name": "\u017belazna - Ch\u0142odna", "network": "Veturilo", "operator": "Nextbike Polska", "ref": "9480", "source": "http://www.veturilo.waw.pl/lokalizacje/"}}, {"type": "way", "id": 390519513, "nodes": [3936724285, 3936724291, 9358391545, 3936724287, 3936724285], "tags": {"amenity": "bicycle_rental", "capacity": "22", "name": "Rondo \u017baba", "network": "Veturilo", "operator": "Nextbike Polska", "ref": "9652", "source": "http://www.veturilo.waw.pl/lokalizacje/"}}, {"type": "way", "id": 435951665, "nodes": [2445361960, 3947733127, 3947732903, 3947732950, 2445361960], "tags": {"amenity": "bicycle_rental", "capacity": "16", "name": "al. Wilanowska - Przycz\u00f3\u0142kowa", "network": "Veturilo", "operator": "Nextbike Polska", "ref": "9598", "source": "http://www.veturilo.waw.pl/lokalizacje/"}}, {"type": "way", "id": 438013864, "nodes": [4357821857, 4357821845, 1836353694, 4357821854, 4357821857], "tags": {"amenity": "bicycle_rental", "capacity": "20", "name": "Topiel - Tamka", "network": "Veturilo", "operator": "Nextbike Polska", "ref": "9507", "source": "http://www.veturilo.waw.pl/lokalizacje/"}}, {"type": "way", "id": 438832783, "nodes": [3264473546, 4364879317, 4364879316, 4364879315, 3264473546], "tags": {"amenity": "bicycle_rental", "capacity": "22", "name": "My\u015bliborska - al. Kukli\u0144skiego", "network": "Veturilo", "operator": "Nextbike Polska", "ref": "9628", "source": "http://www.veturilo.waw.pl/lokalizacje/"}}, {"type": "way", "id": 487069490, "nodes": [4795849505, 4795849504, 4795849503, 4795849502, 4795849501, 4795849505], "tags": {"amenity": "bicycle_rental", "capacity": "26", "name": "Metro Rondo Daszy\u0144skiego", "network": "Veturilo", "operator": "Nextbike Polska", "ref": "9478"}}, {"type": "way", "id": 494098000, "nodes": [4859116869, 4859116870, 4859116871, 4859116872, 4859116869], "tags": {"amenity": "bicycle_rental", "capacity": "18", "name": "Smolna - PKP Powi\u015ble", "network": "Veturilo", "operator": "Nextbike Polska", "ref": "9526"}}, {"type": "way", "id": 504452113, "nodes": [4946138633, 4448850899, 4946138631, 4946138632, 4946138633], "tags": {"amenity": "bicycle_rental", "capacity": "25", "name": "Kasprzaka - Skierniewicka", "network": "Veturilo", "operator": "Nextbike Polska", "ref": "9475"}}, {"type": "way", "id": 504508940, "nodes": [3741435026, 3479402898, 3479401789, 4946580512, 3741434124, 3741435026], "tags": {"amenity": "bicycle_rental", "capacity": "29", "name": "al. Prymasa Tysi\u0105clecia - G\u00f3rczewska", "network": "Veturilo", "operator": "Nextbike Polska", "ref": "9473"}}, {"type": "way", "id": 505926567, "nodes": [4957486557, 4957486556, 4957486555, 4957486554, 4957486557], "tags": {"amenity": "bicycle_rental", "capacity": "19", "name": "Obozowa - Radziwie", "network": "Veturilo", "operator": "Nextbike Polska", "ref": "9434"}}, {"type": "way", "id": 506574888, "nodes": [4962826925, 4962826924, 4962826923, 1836607630, 4962826925], "tags": {"amenity": "bicycle_rental", "capacity": "30", "name": "al. Jana Paw\u0142a II - Grzybowska", "network": "Veturilo", "operator": "Nextbike Polska", "ref": "9483", "rmikke:checked": "20150904", "source": "http://www.veturilo.waw.pl/lokalizacje/"}}, {"type": "way", "id": 514009262, "nodes": [5022838119, 5022838120, 5022838118, 5022838117, 5022838119], "tags": {"amenity": "bicycle_rental", "capacity": "16", "name": "Pow\u0105zkowska - Plac Niemena", "network": "Veturilo", "operator": "Nextbike Polska", "ref": "9427", "source": "http://www.veturilo.waw.pl/lokalizacje/"}}, {"type": "way", "id": 549757247, "nodes": [5828769598, 3073527851, 5310449779, 3036562819, 5828769598], "tags": {"amenity": "bicycle_rental", "capacity": "30", "name": "Metro Dworzec Gda\u0144ski", "network": "Veturilo", "operator": "Nextbike Polska", "ref": "9430", "source": "http://www.veturilo.waw.pl/lokalizacje/"}}, {"type": "way", "id": 551591859, "nodes": [5326909310, 5326909309, 5326909308, 5326909307, 5326909310], "tags": {"amenity": "bicycle_rental", "capacity": "30", "name": "Wolska - Elekcyjna", "network": "Veturilo", "operator": "Nextbike Polska", "ref": "9472"}}, {"type": "way", "id": 553372535, "nodes": [5341730692, 5341730691, 5341730690, 5341730689, 5341730692], "tags": {"amenity": "bicycle_rental", "capacity": "23", "name": "Roso\u0142a - Weso\u0142a", "network": "Veturilo", "operator": "Nextbike Polska", "ref": "9613", "source": "http://www.veturilo.waw.pl/lokalizacje/"}}, {"type": "way", "id": 582694982, "nodes": [5548653083, 5548653081, 5548653080, 5548653082, 5548653083], "tags": {"amenity": "bicycle_rental", "capacity": "26", "name": "Wo\u0142oska - Marynarska", "network": "Veturilo", "operator": "Nextbike Polska", "ref": "9588"}}, {"type": "way", "id": 697092736, "nodes": [6547037077, 6547037074, 6547037075, 6547037076, 6547037077], "tags": {"amenity": "bicycle_rental", "capacity": "22", "name": "Kleszczowa - Kra\u0144cowa", "network": "Veturilo", "operator": "Nextbike Polska", "ref": "9717"}}, {"type": "way", "id": 793924714, "nodes": [7426506360, 7426506359, 7426506358, 7426506357, 7426506360], "tags": {"amenity": "bicycle_rental", "capacity": "19", "name": "al. Armii Ludowej - Rektorska", "network": "Veturilo", "operator": "Nextbike Polska", "ref": "9587"}}, {"type": "way", "id": 857655669, "nodes": [7996064514, 7996064519, 7996064518, 7996064517, 7996064516, 7996064515, 7996064514], "tags": {"amenity": "bicycle_rental"}}, {"type": "way", "id": 917337104, "nodes": [8510693582, 8510693581, 8510693584, 8510693583, 8510693582], "tags": {"amenity": "bicycle_rental"}}, {"type": "way", "id": 917337150, "nodes": [5476149095, 8520247973, 3025515948, 5476149098, 5476149097, 5476149096, 5476149095], "tags": {"amenity": "bicycle_rental"}}, {"type": "way", "id": 996123908, "nodes": [9198077903, 9198077902, 9198077901, 9198077900, 9198077903], "tags": {"amenity": "bicycle_rental", "landuse": "grass"}}, {"type": "way", "id": 1001430641, "nodes": [9243334770, 9243334769, 9243334768, 9243334767, 9243334770], "tags": {"amenity": "bicycle_rental", "network": "Veturilo", "operator": "Nextbike", "operator:type": "public"}}, {"type": "way", "id": 1017387642, "nodes": [3219569537, 9384015107, 9384015108, 9384015109, 3219569537], "tags": {"amenity": "bicycle_rental", "brand": "Veturilo", "brand:wikidata": "Q3847868", "brand:wikipedia": "pl:Veturilo", "capacity": "23", "covered": "no", "name": "Kondratowicza - Chodecka", "network": "Veturilo", "network:wikidata": "Q3847868", "network:wikipedia": "pl:Veturilo", "operator": "Nextbike Polska"}}]}